{
  "bbox": {
    "south": 47.033758500000005,
    "west": 9.530952,
    "north": 47.694865,
    "east": 11.438358999999998
  },
  "poiCount": 150,
  "leafCount": 0,
  "averagePosition": [
    10.340704761333333,
    47.45901821066666
  ],
  "data": [],
  "children": [
    {
      "bbox": {
        "south": 47.033758500000005,
        "west": 9.530952,
        "north": 47.36431175,
        "east": 10.484655499999999
      },
      "poiCount": 20,
      "leafCount": 20,
      "averagePosition": [
        9.855972115,
        47.285662455
      ],
      "data": [
        {
          "type": "Feature",
          "properties": {
            "id": "312810850",
            "osm_type": "node",
            "lat": 47.2253775,
            "lon": 9.6715194,
            "name": "Hosp",
            "shop": "butcher"
          },
          "geometry": {
            "type": "Point",
            "coordinates": [
              9.6715194,
              47.2253775
            ]
          }
        },
        {
          "type": "Feature",
          "properties": {
            "id": "1618689945",
            "osm_type": "node",
            "lat": 47.3544699,
            "lon": 9.6483307,
            "addr:city": "Altach",
            "addr:country": "AT",
            "addr:housenumber": "1",
            "addr:postcode": "6844",
            "addr:street": "Alteichweg",
            "email": "martin_kopf@hotmail.com",
            "name": "Metzgerei Kopf",
            "opening_hours": "Mo-Fr 07:30-12:30, 14:00-18:00; Sa 07:30-12:00",
            "operator": "Kopf Martin KG",
            "phone": "+43 5576 72546",
            "shop": "butcher"
          },
          "geometry": {
            "type": "Point",
            "coordinates": [
              9.6483307,
              47.3544699
            ]
          }
        },
        {
          "type": "Feature",
          "properties": {
            "id": "2095170156",
            "osm_type": "node",
            "lat": 47.2588191,
            "lon": 9.6166846,
            "name": "Lamperts Dorfmetzg",
            "shop": "butcher"
          },
          "geometry": {
            "type": "Point",
            "coordinates": [
              9.6166846,
              47.2588191
            ]
          }
        },
        {
          "type": "Feature",
          "properties": {
            "id": "2603240095",
            "osm_type": "node",
            "lat": 47.3606289,
            "lon": 9.6864841,
            "check_date": "2024-08-04",
            "name": "Metzgerei Schatz",
            "shop": "butcher",
            "toilets:wheelchair": "no",
            "wheelchair": "yes"
          },
          "geometry": {
            "type": "Point",
            "coordinates": [
              9.6864841,
              47.3606289
            ]
          }
        },
        {
          "type": "Feature",
          "properties": {
            "id": "2603240176",
            "osm_type": "node",
            "lat": 47.3602262,
            "lon": 9.6864737,
            "name": "San Bosna Bosnische Spezialitäten",
            "shop": "butcher"
          },
          "geometry": {
            "type": "Point",
            "coordinates": [
              9.6864737,
              47.3602262
            ]
          }
        },
        {
          "type": "Feature",
          "properties": {
            "id": "2993879402",
            "osm_type": "node",
            "lat": 47.3351594,
            "lon": 9.6479518,
            "addr:city": "Götzis",
            "addr:country": "AT",
            "addr:housenumber": "36",
            "addr:postcode": "6840",
            "addr:street": "Hauptstraße",
            "name": "Ailem Kasap",
            "opening_hours": "Mo-Sa 09:00-18:00",
            "shop": "butcher",
            "wheelchair": "no"
          },
          "geometry": {
            "type": "Point",
            "coordinates": [
              9.6479518,
              47.3351594
            ]
          }
        },
        {
          "type": "Feature",
          "properties": {
            "id": "3249140374",
            "osm_type": "node",
            "lat": 47.1561332,
            "lon": 9.8209403,
            "addr:city": "Bludenz",
            "addr:country": "AT",
            "addr:housenumber": "1",
            "addr:postcode": "6700",
            "addr:street": "Untersteinstraße",
            "contact:email": "metzgerei.pfleghar@vol.at",
            "contact:phone": "+43 5552 62218",
            "name": "Pfleghar",
            "opening_hours": "Mo-Th 07:30-13:00, 15:00-18:00; Fr 07:30-13:00, 14:30-18:00; Sa 07:00-12:00",
            "shop": "butcher"
          },
          "geometry": {
            "type": "Point",
            "coordinates": [
              9.8209403,
              47.1561332
            ]
          }
        },
        {
          "type": "Feature",
          "properties": {
            "id": "3660448469",
            "osm_type": "node",
            "lat": 47.285632,
            "lon": 9.6517877,
            "addr:city": "Sulz",
            "addr:country": "AT",
            "addr:housenumber": "38",
            "addr:postcode": "6832",
            "addr:street": "Müsinenstraße",
            "check_date": "2023-07-30",
            "contact:email": "sulz@walser-metzgerei.at",
            "contact:phone": "+43 5522 46599",
            "contact:website": "https://www.walser-metzgerei.at/sulz/",
            "diet:halal": "no",
            "diet:kosher": "no",
            "name": "Walser Genussmarkt Sulz",
            "opening_hours": "Mo-Fr 07:00-12:15; Th-Fr 14:30-18:00; Sa 07:00-12:15; Su,PH off",
            "shop": "butcher",
            "wheelchair": "no"
          },
          "geometry": {
            "type": "Point",
            "coordinates": [
              9.6517877,
              47.285632
            ]
          }
        },
        {
          "type": "Feature",
          "properties": {
            "id": "4757883131",
            "osm_type": "node",
            "lat": 47.2362264,
            "lon": 9.5966816,
            "addr:country": "AT",
            "addr:housenumber": "6",
            "addr:postcode": "6800",
            "addr:street": "Johannitergasse",
            "check_date": "2023-04-15",
            "name": "Meathouse Stadtmetzgerei",
            "opening_hours": "Tu-Th 09:00-18:00; Fr 08:00-18:00; Sa 08:00-13:00",
            "payment:credit_cards": "yes",
            "shop": "butcher",
            "website": "https://meathouse.at/"
          },
          "geometry": {
            "type": "Point",
            "coordinates": [
              9.5966816,
              47.2362264
            ]
          }
        },
        {
          "type": "Feature",
          "properties": {
            "id": "6270977172",
            "osm_type": "node",
            "lat": 47.2539088,
            "lon": 9.5761306,
            "addr:city": "Feldkirch",
            "addr:country": "AT",
            "addr:housenumber": "2",
            "addr:postcode": "6800",
            "addr:street": "Sebastian-Kneipp-Straße",
            "contact:email": "office@schoech-meathouse.at",
            "contact:phone": "+43 5522 72184",
            "name": "Schöch's Meathouse",
            "opening_hours": "Mo-Fr 06:00-18:00; Sa 06:00-12:00",
            "shop": "butcher",
            "website": "https://meathouse.at/"
          },
          "geometry": {
            "type": "Point",
            "coordinates": [
              9.5761306,
              47.2539088
            ]
          }
        },
        {
          "type": "Feature",
          "properties": {
            "id": "7238269045",
            "osm_type": "node",
            "lat": 47.3545206,
            "lon": 9.6803516,
            "addr:city": "Hohenems",
            "addr:housenumber": "68",
            "addr:postcode": "6845",
            "addr:street": "Kaiser-Franz-Josef-Straße",
            "email": "metzgerei-prantl@gmx.at",
            "name": "Metzgerei Prantl",
            "opening_hours": "Mo-We 08:00-11:00; Th 07:00-12:00; Fr-Sa 08:00-11:00",
            "phone": "+43 5576 78800",
            "shop": "butcher"
          },
          "geometry": {
            "type": "Point",
            "coordinates": [
              9.6803516,
              47.3545206
            ]
          }
        },
        {
          "type": "Feature",
          "properties": {
            "id": "9427560556",
            "osm_type": "node",
            "lat": 47.303611,
            "lon": 9.6516995,
            "UID": "ATU36659503",
            "check_date": "2024-07-29",
            "contact:email": "info@metzgerei-mangold.at",
            "diet:halal": "no",
            "diet:kosher": "no",
            "level": "0",
            "name": "Ländle Metzgerei Mangold KG",
            "opening_hours": "Mo-Th 07:30-12:30, 14:00-18:15; Fr 07:30-18:15; Sa 07:00-12:30",
            "payment:credit_cards": "yes",
            "payment:debit_cards": "yes",
            "phone": "+43 5523 624 42",
            "shop": "butcher",
            "website": "https://www.metzgerei-mangold.at",
            "wheelchair": "yes"
          },
          "geometry": {
            "type": "Point",
            "coordinates": [
              9.6516995,
              47.303611
            ]
          }
        },
        {
          "type": "Feature",
          "properties": {
            "id": "10946913516",
            "osm_type": "node",
            "lat": 47.3035534,
            "lon": 9.5798555,
            "addr:city": "Meiningen",
            "addr:country": "AT",
            "addr:housenumber": "26",
            "addr:postcode": "6812",
            "addr:street": "Koblacher Straße",
            "name": "San Bosna",
            "old_name": "Herbert's Dorfmetzgerei",
            "opening_hours": "Sa-Su 11:00-20:00",
            "shop": "butcher"
          },
          "geometry": {
            "type": "Point",
            "coordinates": [
              9.5798555,
              47.3035534
            ]
          }
        },
        {
          "type": "Feature",
          "properties": {
            "id": "680267831",
            "osm_type": "node",
            "lat": 47.3270893,
            "lon": 10.1578965,
            "addr:city": "Mittelberg",
            "addr:country": "AT",
            "addr:housenumber": "358",
            "addr:postcode": "6993",
            "addr:street": "Walserstraße",
            "name": "Bergbauermetzgerei Feurstein",
            "note": "In AT-6993 Mittelberg ist auch DE-87569 Mittelberg zur Adressfindung vergeben.",
            "shop": "butcher",
            "source": "survey"
          },
          "geometry": {
            "type": "Point",
            "coordinates": [
              10.1578965,
              47.3270893
            ]
          }
        },
        {
          "type": "Feature",
          "properties": {
            "id": "1195621574",
            "osm_type": "node",
            "lat": 47.2588281,
            "lon": 10.3415669,
            "name": "Hammerle",
            "shop": "butcher"
          },
          "geometry": {
            "type": "Point",
            "coordinates": [
              10.3415669,
              47.2588281
            ]
          }
        },
        {
          "type": "Feature",
          "properties": {
            "id": "3022837327",
            "osm_type": "node",
            "lat": 47.3540983,
            "lon": 10.1789444,
            "addr:street": "Walserstraße",
            "contact:phone": "+43 5517 20558",
            "name": "Räucherkammer",
            "opening_hours": "Mo, We-Su 09:00-18:00",
            "shop": "butcher",
            "toilets:wheelchair": "no",
            "website": "https://www.metzgerei-beck.at/",
            "wheelchair": "no"
          },
          "geometry": {
            "type": "Point",
            "coordinates": [
              10.1789444,
              47.3540983
            ]
          }
        },
        {
          "type": "Feature",
          "properties": {
            "id": "3074747707",
            "osm_type": "node",
            "lat": 47.3574608,
            "lon": 10.1864932,
            "shop": "butcher"
          },
          "geometry": {
            "type": "Point",
            "coordinates": [
              10.1864932,
              47.3574608
            ]
          }
        },
        {
          "type": "Feature",
          "properties": {
            "id": "3417603376",
            "osm_type": "node",
            "lat": 47.2571161,
            "lon": 10.1837983,
            "name": "Wälder Metzge",
            "phone": "+43 5583 3598",
            "shop": "butcher",
            "wheelchair": "yes"
          },
          "geometry": {
            "type": "Point",
            "coordinates": [
              10.1837983,
              47.2571161
            ]
          }
        },
        {
          "type": "Feature",
          "properties": {
            "id": "4961876005",
            "osm_type": "node",
            "lat": 47.2407083,
            "lon": 10.2895109,
            "name": "Hausers Bauernladen",
            "opening_hours": "Th-Sa 08:30-21:00; Su 10:00-21:00",
            "phone": "+43 5633 200 72",
            "shop": "butcher",
            "wheelchair": "limited"
          },
          "geometry": {
            "type": "Point",
            "coordinates": [
              10.2895109,
              47.2407083
            ]
          }
        },
        {
          "type": "Feature",
          "properties": {
            "id": "9960974848",
            "osm_type": "node",
            "lat": 47.1296818,
            "lon": 10.266341,
            "addr:city": "St. Anton am Arlberg",
            "addr:housenumber": "27",
            "addr:postcode": "6580",
            "addr:street": "Dorfstraße",
            "name": "Speckstube Handl",
            "opening_hours": "Mo-Fr 07:00-19:00,Sa 07:00-18:00",
            "phone": "+43 5446 2117",
            "shop": "butcher"
          },
          "geometry": {
            "type": "Point",
            "coordinates": [
              10.266341,
              47.1296818
            ]
          }
        }
      ],
      "children": []
    },
    {
      "bbox": {
        "south": 47.033758500000005,
        "west": 10.484655499999999,
        "north": 47.36431175,
        "east": 11.438358999999998
      },
      "poiCount": 27,
      "leafCount": 27,
      "averagePosition": [
        11.217759681481482,
        47.220050388888886
      ],
      "data": [
        {
          "type": "Feature",
          "properties": {
            "id": "2133478167",
            "osm_type": "node",
            "lat": 47.1394458,
            "lon": 10.9274063,
            "addr:housenumber": "26",
            "addr:street": "Dorf",
            "check_date": "2023-07-02",
            "email": "info@dorfmetzger.at",
            "name": "Dorfmetzgerei Armin Kuprian",
            "opening_hours": "Mo-Tu,Th-Fr 08:00-12:00,14:30-18:00; We,Sa 08:00-12:00",
            "phone": "+43 5255 51192",
            "shop": "butcher",
            "website": "https://www.dorfmetzger.at/",
            "wheelchair": "yes"
          },
          "geometry": {
            "type": "Point",
            "coordinates": [
              10.9274063,
              47.1394458
            ]
          }
        },
        {
          "type": "Feature",
          "properties": {
            "id": "3286793461",
            "osm_type": "node",
            "lat": 47.0705553,
            "lon": 10.9708865,
            "name": "Dorfmetzgerei",
            "opening_hours": "Mo-Fr 08:00-12:00,14:30-18:00; Sa 08:00-12:00",
            "operator": "Armin Kuprian",
            "phone": "+43 664 2039661",
            "shop": "butcher",
            "website": "https://www.dorfmetzger.at/"
          },
          "geometry": {
            "type": "Point",
            "coordinates": [
              10.9708865,
              47.0705553
            ]
          }
        },
        {
          "type": "Feature",
          "properties": {
            "id": "7902422189",
            "osm_type": "node",
            "lat": 47.2251403,
            "lon": 10.748848,
            "addr:city": "Imst",
            "addr:housenumber": "121",
            "addr:postcode": "6460",
            "addr:street": "Langgasse",
            "alt_name": "Falkner Abholmarkt",
            "name": "Fleischhof Oberland",
            "opening_hours": "Mo-Th 08:00-17:00; Fr 08:00-18:00; Sa 08:00-12:00",
            "shop": "butcher",
            "website": "https://www.fleischhof-oberland.at/unsere-geschaefte/falkner-abholmarkt/"
          },
          "geometry": {
            "type": "Point",
            "coordinates": [
              10.748848,
              47.2251403
            ]
          }
        },
        {
          "type": "Feature",
          "properties": {
            "id": "8179007942",
            "osm_type": "node",
            "lat": 47.0748867,
            "lon": 10.664576,
            "name": "Metzgerei Wilhelm",
            "opening_hours": "Mo-Fr 08:00-12:00,14:30-00:00, Sa 08:00-12:30",
            "shop": "butcher",
            "source": "LT"
          },
          "geometry": {
            "type": "Point",
            "coordinates": [
              10.664576,
              47.0748867
            ]
          }
        },
        {
          "type": "Feature",
          "properties": {
            "id": "9900374874",
            "osm_type": "node",
            "lat": 47.0533783,
            "lon": 10.6523281,
            "addr:city": "Ried im Oberinntal",
            "addr:country": "AT",
            "addr:housenumber": "98a",
            "addr:place": "Ried i.O.",
            "addr:postcode": "6531",
            "name": "Metzgerei Pfeifer",
            "opening_hours": "Mo-Fr 08:00-12:30,14:30-18:00; Sa 08:00-12:00",
            "shop": "butcher",
            "source": "bing"
          },
          "geometry": {
            "type": "Point",
            "coordinates": [
              10.6523281,
              47.0533783
            ]
          }
        },
        {
          "type": "Feature",
          "properties": {
            "id": "11410930790",
            "osm_type": "node",
            "lat": 47.2189001,
            "lon": 10.7349843,
            "addr:street": "FMZ Einkaufszentrum",
            "level": "0",
            "name": "Hörtnagl",
            "shop": "butcher"
          },
          "geometry": {
            "type": "Point",
            "coordinates": [
              10.7349843,
              47.2189001
            ]
          }
        },
        {
          "type": "Feature",
          "properties": {
            "id": "568455577",
            "osm_type": "node",
            "lat": 47.2341137,
            "lon": 11.373568,
            "addr:city": "Natters",
            "addr:country": "AT",
            "addr:housenumber": "6",
            "addr:postcode": "6161",
            "addr:street": "Dorfplatz",
            "level": "0",
            "name": "Fritz",
            "opening_hours": "Mo-Tu 07:30-12:30,15:00-18:00; We 07:30-12:30; Th-Fr 07:30-12:30,15:00-18:00, Sa 07:30-12:00; PH off",
            "phone": "+43 512 546029",
            "shop": "butcher",
            "website": "https://www.metzgerei-fritz.tirol/"
          },
          "geometry": {
            "type": "Point",
            "coordinates": [
              11.373568,
              47.2341137
            ]
          }
        },
        {
          "type": "Feature",
          "properties": {
            "id": "587098286",
            "osm_type": "node",
            "lat": 47.2624576,
            "lon": 11.4126292,
            "name": "Hörtnagl",
            "opening_hours": "Mo-Fr 08:00-18:00; Sa 08:00-12:30",
            "shop": "butcher"
          },
          "geometry": {
            "type": "Point",
            "coordinates": [
              11.4126292,
              47.2624576
            ]
          }
        },
        {
          "type": "Feature",
          "properties": {
            "id": "587098466",
            "osm_type": "node",
            "lat": 47.2646944,
            "lon": 11.4097408,
            "addr:city": "Innsbruck",
            "addr:country": "AT",
            "addr:housenumber": "44",
            "addr:postcode": "6020",
            "addr:street": "Pradler Straße",
            "addr:suburb": "Pradl",
            "name": "Strickner",
            "opening_hours": "Mo-Fr 08:00-12:00,15:30-18:30; Sa 07:30-12:00",
            "operator": "Roman Strickner",
            "phone": "+43 512 341423",
            "shop": "butcher"
          },
          "geometry": {
            "type": "Point",
            "coordinates": [
              11.4097408,
              47.2646944
            ]
          }
        },
        {
          "type": "Feature",
          "properties": {
            "id": "595369335",
            "osm_type": "node",
            "lat": 47.2725812,
            "lon": 11.4146156,
            "addr:city": "Innsbruck",
            "addr:country": "AT",
            "addr:housenumber": "79",
            "addr:postcode": "6020",
            "addr:street": "Prinz-Eugen-Straße",
            "addr:suburb": "Pradl",
            "name": "Stolz",
            "opening_hours": "Mo-Fr 07:30-12:30, Fr 15:00-18:00; Sa 08:00-12:00",
            "operator": "Peter Stolz",
            "shop": "butcher",
            "wheelchair": "no"
          },
          "geometry": {
            "type": "Point",
            "coordinates": [
              11.4146156,
              47.2725812
            ]
          }
        },
        {
          "type": "Feature",
          "properties": {
            "id": "757148953",
            "osm_type": "node",
            "lat": 47.2362628,
            "lon": 11.3119265,
            "name": "Metzgerei Schweighofer",
            "opening_hours": "Mo-Fr 07:30-12:30,15:00-18:30; Sa 07:00-12:30",
            "shop": "butcher"
          },
          "geometry": {
            "type": "Point",
            "coordinates": [
              11.3119265,
              47.2362628
            ]
          }
        },
        {
          "type": "Feature",
          "properties": {
            "id": "759647670",
            "osm_type": "node",
            "lat": 47.2675622,
            "lon": 11.3866144,
            "addr:city": "Innsbruck",
            "addr:country": "AT",
            "addr:housenumber": "1",
            "addr:postcode": "6020",
            "addr:street": "Mariahilfpark",
            "check_date:opening_hours": "2024-11-25",
            "name": "Fleisch & Wurst Hangl",
            "opening_hours": "Mo 07:30-12:00; Tu-Th 07:30-13:00; Fr 07:30-12:30,13:00-17:00; Sa 07:30-12:00",
            "operator": "Ernst Hangl",
            "shop": "butcher",
            "wheelchair": "no"
          },
          "geometry": {
            "type": "Point",
            "coordinates": [
              11.3866144,
              47.2675622
            ]
          }
        },
        {
          "type": "Feature",
          "properties": {
            "id": "760484445",
            "osm_type": "node",
            "lat": 47.2683302,
            "lon": 11.3930741,
            "addr:city": "Innsbruck",
            "addr:country": "AT",
            "addr:housenumber": "12",
            "addr:postcode": "6020",
            "addr:street": "Herzog-Friedrich-Straße",
            "name": "Handl Tyrol",
            "opening_hours": "Mo-Su 09:00-13:30,14:00-18:00",
            "operator": "Handl Tyrol GmbH",
            "phone": "+43 512 563886",
            "shop": "butcher",
            "website": "https://www.handltyrol.at/",
            "wheelchair": "yes",
            "wikidata": "Q37988713"
          },
          "geometry": {
            "type": "Point",
            "coordinates": [
              11.3930741,
              47.2683302
            ]
          }
        },
        {
          "type": "Feature",
          "properties": {
            "id": "1133027134",
            "osm_type": "node",
            "lat": 47.2501972,
            "lon": 11.3266818,
            "addr:city": "Völs",
            "addr:housenumber": "12",
            "addr:postcode": "6176",
            "addr:street": "Dorfstraße",
            "name": "Ganner GmbH",
            "opening_hours": "Mo-Fr 07:00-14:30, Sa 07:00-12:00",
            "operator": "Markus Ganner",
            "payment:cash": "yes",
            "payment:credit_cards": "yes",
            "payment:debit_cards": "yes",
            "phone": "+43 512 305080",
            "shop": "butcher"
          },
          "geometry": {
            "type": "Point",
            "coordinates": [
              11.3266818,
              47.2501972
            ]
          }
        },
        {
          "type": "Feature",
          "properties": {
            "id": "1133027265",
            "osm_type": "node",
            "lat": 47.2531434,
            "lon": 11.3255297,
            "addr:city": "Völs",
            "addr:housenumber": "3",
            "addr:postcode": "6176",
            "addr:street": "Bahnhofstraße",
            "check_date": "2023-11-21",
            "internet_access": "no",
            "level": "0",
            "name": "Metzgerei Singer",
            "opening_hours": "We-Sa 07:00-12:30",
            "payment:cards": "no",
            "payment:cash": "yes",
            "payment:credit_cards": "no",
            "payment:debit_cards": "no",
            "phone": "+43 512 303419",
            "shop": "butcher",
            "website": "https://metzgerei-singer.at",
            "wheelchair": "limited"
          },
          "geometry": {
            "type": "Point",
            "coordinates": [
              11.3255297,
              47.2531434
            ]
          }
        },
        {
          "type": "Feature",
          "properties": {
            "id": "2047791260",
            "osm_type": "node",
            "lat": 47.2872176,
            "lon": 11.0364491,
            "addr:city": "Rietz",
            "addr:country": "AT",
            "addr:housenumber": "5",
            "addr:postcode": "6421",
            "addr:street": "Dorf",
            "name": "Metzgerei Feistmantel",
            "shop": "butcher"
          },
          "geometry": {
            "type": "Point",
            "coordinates": [
              11.0364491,
              47.2872176
            ]
          }
        },
        {
          "type": "Feature",
          "properties": {
            "id": "3086051639",
            "osm_type": "node",
            "lat": 47.1527306,
            "lon": 11.3497581,
            "name": "Krösbacher",
            "shop": "butcher"
          },
          "geometry": {
            "type": "Point",
            "coordinates": [
              11.3497581,
              47.1527306
            ]
          }
        },
        {
          "type": "Feature",
          "properties": {
            "id": "3316817113",
            "osm_type": "node",
            "lat": 47.1103609,
            "lon": 11.3071461,
            "addr:city": "Neustift im Stubaital",
            "addr:country": "AT",
            "addr:postcode": "6167",
            "name": "HANDL Tyrol",
            "shop": "butcher",
            "website": "https://www.handltyrol.at/"
          },
          "geometry": {
            "type": "Point",
            "coordinates": [
              11.3071461,
              47.1103609
            ]
          }
        },
        {
          "type": "Feature",
          "properties": {
            "id": "4790645722",
            "osm_type": "node",
            "lat": 47.2409289,
            "lon": 11.4350331,
            "name": "Piegger",
            "name:de": "Piegger",
            "opening_hours": "Mo-Th 08:00-12:00, 15:00-18:30; Fr 08:00-18:30; Sa 08:00-12:00",
            "shop": "butcher",
            "website": "https://www.piegger.at/meistermetzger-filialen.php"
          },
          "geometry": {
            "type": "Point",
            "coordinates": [
              11.4350331,
              47.2409289
            ]
          }
        },
        {
          "type": "Feature",
          "properties": {
            "id": "5109837839",
            "osm_type": "node",
            "lat": 47.266407,
            "lon": 11.4042439,
            "addr:city": "Innsbruck",
            "addr:country": "AT",
            "addr:housenumber": "38",
            "addr:postcode": "6020",
            "addr:street": "Museumstraße",
            "check_date": "2025-01-09",
            "level": "0",
            "name": "Hörtnagl",
            "opening_hours": "Mo-We 08:30-19:00; Th-Fr 08:30-20:00; Sa 08:30-18:00; PH off",
            "shop": "butcher",
            "wheelchair": "yes"
          },
          "geometry": {
            "type": "Point",
            "coordinates": [
              11.4042439,
              47.266407
            ]
          }
        },
        {
          "type": "Feature",
          "properties": {
            "id": "5398975854",
            "osm_type": "node",
            "lat": 47.3152879,
            "lon": 11.0777986,
            "addr:city": "Telfs",
            "addr:country": "AT",
            "addr:housenumber": "7",
            "addr:postcode": "6410",
            "addr:street": "Karl-Schönherr-Straße",
            "check_date": "2024-06-12",
            "contact:email": "lechner.rauth@gmail.com",
            "contact:phone": "+43 5262 62339",
            "contact:website": "http://www.lechner-rauth.at/",
            "name": "Metzgerei Lechner Rauth KG",
            "opening_hours": "Tu-Sa 07:30-12:00, Tu-Fr 15:00-18:00",
            "payment:cash": "yes",
            "shop": "butcher",
            "wheelchair": "yes"
          },
          "geometry": {
            "type": "Point",
            "coordinates": [
              11.0777986,
              47.3152879
            ]
          }
        },
        {
          "type": "Feature",
          "properties": {
            "id": "6468199338",
            "osm_type": "node",
            "lat": 47.1688553,
            "lon": 11.3803867,
            "name": "Metzgerei Zorn",
            "opening_hours": "Fr 15:00-21:00",
            "shop": "butcher"
          },
          "geometry": {
            "type": "Point",
            "coordinates": [
              11.3803867,
              47.1688553
            ]
          }
        },
        {
          "type": "Feature",
          "properties": {
            "id": "7828517071",
            "osm_type": "node",
            "lat": 47.2724078,
            "lon": 11.2423106,
            "addr:city": "Zirl",
            "addr:housenumber": "9",
            "addr:postcode": "6170",
            "addr:street": "Kirchstraße",
            "name": "Metzgerei Fritz",
            "opening_hours": "Mo,Tu 07:30-12:00;We-Fr 07:30-12:00,15:30-18:00; Sa 07:15-12:00; Su off",
            "shop": "butcher"
          },
          "geometry": {
            "type": "Point",
            "coordinates": [
              11.2423106,
              47.2724078
            ]
          }
        },
        {
          "type": "Feature",
          "properties": {
            "id": "8167526637",
            "osm_type": "node",
            "lat": 47.2314916,
            "lon": 11.3689754,
            "name": "Fleischwaren Josef Mayr",
            "shop": "butcher",
            "website": "https://www.mayr-fleisch.at/"
          },
          "geometry": {
            "type": "Point",
            "coordinates": [
              11.3689754,
              47.2314916
            ]
          }
        },
        {
          "type": "Feature",
          "properties": {
            "id": "8286848406",
            "osm_type": "node",
            "lat": 47.2591909,
            "lon": 11.3994372,
            "addr:city": "Innsbruck",
            "addr:country": "AT",
            "addr:housenumber": "6b",
            "addr:postcode": "6020",
            "addr:street": "Karmelitergasse",
            "check_date:opening_hours": "2022-11-13",
            "level": "-0.5",
            "name": "Aret",
            "opening_hours": "Mo-Fr 09:00-18:00; Sa 09:00-17:00; PH off",
            "phone": "+43 660 55 26 66",
            "shop": "butcher",
            "source": "survey"
          },
          "geometry": {
            "type": "Point",
            "coordinates": [
              11.3994372,
              47.2591909
            ]
          }
        },
        {
          "type": "Feature",
          "properties": {
            "id": "9808116976",
            "osm_type": "node",
            "lat": 47.2669782,
            "lon": 11.3894062,
            "name": "Hörtnagl",
            "shop": "butcher"
          },
          "geometry": {
            "type": "Point",
            "coordinates": [
              11.3894062,
              47.2669782
            ]
          }
        },
        {
          "type": "Feature",
          "properties": {
            "id": "10134736623",
            "osm_type": "node",
            "lat": 47.2778546,
            "lon": 11.4351571,
            "check_date": "2022-10-28",
            "name": "Hörtnagl",
            "shop": "butcher"
          },
          "geometry": {
            "type": "Point",
            "coordinates": [
              11.4351571,
              47.2778546
            ]
          }
        }
      ],
      "children": []
    },
    {
      "bbox": {
        "south": 47.36431175,
        "west": 9.530952,
        "north": 47.694865,
        "east": 10.484655499999999
      },
      "poiCount": 75,
      "leafCount": 0,
      "averagePosition": [
        9.917208449333332,
        47.54669279866666
      ],
      "data": [],
      "children": [
        {
          "bbox": {
            "south": 47.36431175,
            "west": 9.530952,
            "north": 47.529588375,
            "east": 10.007803749999999
          },
          "poiCount": 21,
          "leafCount": 21,
          "averagePosition": [
            9.685062085714286,
            47.43153192380952
          ],
          "data": [
            {
              "type": "Feature",
              "properties": {
                "id": "275379272",
                "osm_type": "node",
                "lat": 47.3829814,
                "lon": 9.8994975,
                "addr:city": "Bezau",
                "addr:country": "AT",
                "addr:housenumber": "34",
                "addr:place": "Brugg",
                "addr:postcode": "6870",
                "contact:email": "waeldermetzge@aon.at",
                "contact:phone": "+43 5514 2324",
                "diet:halal": "no",
                "diet:kosher": "no",
                "name": "Wälder Metzge",
                "opening_hours": "Mo-Tu 07:00-13:00; We-Fr 07:00-12:00,14:00-18:00; Sa 07:00-13:00",
                "shop": "butcher",
                "source": "survey 09.2019 and Vogis 2018",
                "website": "https://www.waeldermetzge.at/"
              },
              "geometry": {
                "type": "Point",
                "coordinates": [
                  9.8994975,
                  47.3829814
                ]
              }
            },
            {
              "type": "Feature",
              "properties": {
                "id": "275379296",
                "osm_type": "node",
                "lat": 47.3842185,
                "lon": 9.9011761,
                "FIXME": "Name falsch?",
                "name": "Greber",
                "shop": "butcher",
                "source": "photograph + knowledge",
                "source_ref": "http://wiki.openstreetmap.org/index.php/User:Han013/Bezau"
              },
              "geometry": {
                "type": "Point",
                "coordinates": [
                  9.9011761,
                  47.3842185
                ]
              }
            },
            {
              "type": "Feature",
              "properties": {
                "id": "330902768",
                "osm_type": "node",
                "lat": 47.4328702,
                "lon": 9.6532656,
                "addr:city": "Lustenau",
                "addr:country": "AT",
                "addr:housenumber": "9",
                "addr:postcode": "6890",
                "addr:street": "Rheindorferstraße",
                "at_bev:addr_date": "2017-10-01",
                "name": "Ochsenmetzg",
                "shop": "butcher",
                "wheelchair": "limited"
              },
              "geometry": {
                "type": "Point",
                "coordinates": [
                  9.6532656,
                  47.4328702
                ]
              }
            },
            {
              "type": "Feature",
              "properties": {
                "id": "631518835",
                "osm_type": "node",
                "lat": 47.4732558,
                "lon": 9.7288497,
                "addr:city": "Lauterach",
                "addr:country": "AT",
                "addr:housenumber": "4",
                "addr:postcode": "6923",
                "addr:street": "Lerchenauerstraße",
                "at_bev:addr_date": "2017-10-01",
                "check_date": "2024-06-17",
                "name": "Rudi's Metzg",
                "shop": "butcher",
                "wheelchair": "no"
              },
              "geometry": {
                "type": "Point",
                "coordinates": [
                  9.7288497,
                  47.4732558
                ]
              }
            },
            {
              "type": "Feature",
              "properties": {
                "id": "633743283",
                "osm_type": "node",
                "lat": 47.4167969,
                "lon": 9.6577539,
                "addr:city": "Lustenau",
                "addr:country": "AT",
                "addr:housenumber": "11",
                "addr:postcode": "6890",
                "addr:street": "Hasenfeldstraße",
                "at_bev:addr_date": "2017-10-01",
                "contact:phone": "+43 5577 83547",
                "name": "Schlierenzauer",
                "opening_hours": "Mo-Th 07:30-12:00; Fr 07:30-12:00, 14:30-18:00; Sa 07:30-12:00",
                "shop": "butcher",
                "website": "https://www.meistermetzger.at/"
              },
              "geometry": {
                "type": "Point",
                "coordinates": [
                  9.6577539,
                  47.4167969
                ]
              }
            },
            {
              "type": "Feature",
              "properties": {
                "id": "704467863",
                "osm_type": "node",
                "lat": 47.4061723,
                "lon": 9.6081664,
                "addr:country": "CH",
                "addr:housenumber": "10",
                "addr:postcode": "9436",
                "addr:street": "Rietstrasse",
                "name": "Metzgerei Diethelm",
                "name:de": "Metzgerei Diethelm AG",
                "opening_hours": "Tu-Fr 07:00-12:00, Tu,Th,Fr 15:00-18:30, Sa 08:00-14:00; Mo off",
                "phone": "+41717222162",
                "shop": "butcher",
                "website": "https://www.diethelm-metzgerei.ch/"
              },
              "geometry": {
                "type": "Point",
                "coordinates": [
                  9.6081664,
                  47.4061723
                ]
              }
            },
            {
              "type": "Feature",
              "properties": {
                "id": "1066773800",
                "osm_type": "node",
                "lat": 47.3967708,
                "lon": 9.5844523,
                "addr:country": "CH",
                "addr:housenumber": "51",
                "addr:postcode": "9445",
                "addr:street": "Bahnhofstrasse",
                "check_date:opening_hours": "2024-09-25",
                "name": "Rohners Fleischegge",
                "opening_hours": "Mo-Th 08:00-12:00; Fr 08:00-12:00,14:00-18:00; Sa 07:30-12:00",
                "phone": "+41717771147",
                "shop": "butcher"
              },
              "geometry": {
                "type": "Point",
                "coordinates": [
                  9.5844523,
                  47.3967708
                ]
              }
            },
            {
              "type": "Feature",
              "properties": {
                "id": "1116628682",
                "osm_type": "node",
                "lat": 47.4087088,
                "lon": 9.6284251,
                "name": "Waibel",
                "opening_hours": "Tu,We 08:00-12:00,15:00-18:30; Th 08:00-12:00; Fr 08:00-12:00,13:30-18:30; Sa 08:00-12:00,13:30-15:30; Su,Mo,PH off",
                "shop": "butcher"
              },
              "geometry": {
                "type": "Point",
                "coordinates": [
                  9.6284251,
                  47.4087088
                ]
              }
            },
            {
              "type": "Feature",
              "properties": {
                "id": "1862256702",
                "osm_type": "node",
                "lat": 47.4266243,
                "lon": 9.6599768,
                "name": "Fitz Virgil",
                "shop": "butcher",
                "wheelchair": "yes"
              },
              "geometry": {
                "type": "Point",
                "coordinates": [
                  9.6599768,
                  47.4266243
                ]
              }
            },
            {
              "type": "Feature",
              "properties": {
                "id": "2461999563",
                "osm_type": "node",
                "lat": 47.5040031,
                "lon": 9.7461646,
                "name": "Metzgerei Rimmele",
                "shop": "butcher"
              },
              "geometry": {
                "type": "Point",
                "coordinates": [
                  9.7461646,
                  47.5040031
                ]
              }
            },
            {
              "type": "Feature",
              "properties": {
                "id": "3084825122",
                "osm_type": "node",
                "lat": 47.4214682,
                "lon": 9.6600651,
                "addr:city": "Lustenau",
                "addr:country": "AT",
                "addr:housenumber": "26",
                "addr:postcode": "6890",
                "addr:street": "Kaiser-Franz-Josef-Straße",
                "at_bev:addr_date": "2017-10-01",
                "name": "Et Sarayı",
                "shop": "butcher"
              },
              "geometry": {
                "type": "Point",
                "coordinates": [
                  9.6600651,
                  47.4214682
                ]
              }
            },
            {
              "type": "Feature",
              "properties": {
                "id": "4213381894",
                "osm_type": "node",
                "lat": 47.5169151,
                "lon": 9.8451693,
                "addr:country": "AT",
                "addr:housenumber": "126a",
                "addr:postcode": "6932",
                "addr:street": "Fischanger",
                "name": "Dorfmetzgerei Willi Elbs",
                "opening_hours": "Mo-We,Fr 07:30-12:15,14:30-18:00; Th,Sa 07:30-12:15",
                "phone": "+43 5575 4407",
                "shop": "butcher"
              },
              "geometry": {
                "type": "Point",
                "coordinates": [
                  9.8451693,
                  47.5169151
                ]
              }
            },
            {
              "type": "Feature",
              "properties": {
                "id": "6451346161",
                "osm_type": "node",
                "lat": 47.3771111,
                "lon": 9.5409652,
                "name": "Ritter",
                "shop": "butcher"
              },
              "geometry": {
                "type": "Point",
                "coordinates": [
                  9.5409652,
                  47.3771111
                ]
              }
            },
            {
              "type": "Feature",
              "properties": {
                "id": "7235208575",
                "osm_type": "node",
                "lat": 47.4438092,
                "lon": 9.5313344,
                "name": "Metzgerei zum Bäri",
                "opening_hours": "Tu-Th 07:30-12:00,14:30-18:00; Fr 07:30-12:00,14:00-18:30; Sa 07:00-14:00",
                "shop": "butcher",
                "website": "https://www.baerlimetzg.ch/",
                "wheelchair": "yes"
              },
              "geometry": {
                "type": "Point",
                "coordinates": [
                  9.5313344,
                  47.4438092
                ]
              }
            },
            {
              "type": "Feature",
              "properties": {
                "id": "7235687137",
                "osm_type": "node",
                "lat": 47.4220433,
                "lon": 9.5528418,
                "name": "Metzgerei Ochsen",
                "opening_hours": "Tu-Fr 07:30-12:00,14:00-18:30; Sa 07:30-14:00; Su,Mo off",
                "shop": "butcher"
              },
              "geometry": {
                "type": "Point",
                "coordinates": [
                  9.5528418,
                  47.4220433
                ]
              }
            },
            {
              "type": "Feature",
              "properties": {
                "id": "8302698610",
                "osm_type": "node",
                "lat": 47.407544,
                "lon": 9.6281422,
                "addr:city": "Heerbrugg",
                "addr:housenumber": "8",
                "addr:postcode": "9435",
                "addr:street": "Widnauerstrasse",
                "check_date:opening_hours": "2023-11-08",
                "email": "info@carnacenterheerbrugg.ch",
                "name": "Carna Center",
                "opening_hours": "Mo-Th 08:00-12:15,13:30-18:30; Fr 08:00-12:15,13:30-19:00; Sa 08:00-17:00",
                "payment:cash": "yes",
                "payment:credit_cards": "yes",
                "payment:debit_cards": "yes",
                "payment:mastercard": "yes",
                "payment:visa": "yes",
                "phone": "+41 71 733 30 90",
                "shop": "butcher",
                "website": "https://www.carnacenterheerbrugg.ch/",
                "wheelchair": "yes"
              },
              "geometry": {
                "type": "Point",
                "coordinates": [
                  9.6281422,
                  47.407544
                ]
              }
            },
            {
              "type": "Feature",
              "properties": {
                "id": "9172616483",
                "osm_type": "node",
                "lat": 47.4129785,
                "lon": 9.7359185,
                "addr:city": "Dornbirn",
                "addr:country": "AT",
                "addr:housenumber": "24a",
                "addr:postcode": "6850",
                "addr:street": "Moosmahdstraße",
                "contact:phone": "+43 5572 22811",
                "name": "Stadtmetzgerei",
                "opening_hours": "Mo-Th 07:30-12:15; Fr 07:30-12:15, 14:30-18:00; Sa 07:30-12:15",
                "operator": "Philipp Unger",
                "phone": "+43557222811",
                "shop": "butcher",
                "source": "survey 10.2021 and Vogis 2020",
                "website": "https://stadtmetzgerei.com/",
                "wheelchair": "yes"
              },
              "geometry": {
                "type": "Point",
                "coordinates": [
                  9.7359185,
                  47.4129785
                ]
              }
            },
            {
              "type": "Feature",
              "properties": {
                "id": "11057178770",
                "osm_type": "node",
                "lat": 47.4251504,
                "lon": 9.6108583,
                "name": "Metzgerei Kast",
                "shop": "butcher"
              },
              "geometry": {
                "type": "Point",
                "coordinates": [
                  9.6108583,
                  47.4251504
                ]
              }
            },
            {
              "type": "Feature",
              "properties": {
                "id": "12076419493",
                "osm_type": "node",
                "lat": 47.4897793,
                "lon": 9.690167,
                "name": "Lutz",
                "shop": "butcher",
                "wheelchair": "yes"
              },
              "geometry": {
                "type": "Point",
                "coordinates": [
                  9.690167,
                  47.4897793
                ]
              }
            },
            {
              "type": "Feature",
              "properties": {
                "id": "12989833721",
                "osm_type": "node",
                "lat": 47.4580539,
                "lon": 9.9592586,
                "name": "Korle's Metzg",
                "shop": "butcher",
                "wheelchair": "yes"
              },
              "geometry": {
                "type": "Point",
                "coordinates": [
                  9.9592586,
                  47.4580539
                ]
              }
            },
            {
              "type": "Feature",
              "properties": {
                "id": "13004323218",
                "osm_type": "node",
                "lat": 47.4549153,
                "lon": 9.5638554,
                "name": "Metzgerei Zelg",
                "operator": "Stadt Metzgerei Rorschach",
                "payment:cards": "yes",
                "payment:cash": "yes",
                "shop": "butcher"
              },
              "geometry": {
                "type": "Point",
                "coordinates": [
                  9.5638554,
                  47.4549153
                ]
              }
            }
          ],
          "children": []
        },
        {
          "bbox": {
            "south": 47.36431175,
            "west": 10.007803749999999,
            "north": 47.529588375,
            "east": 10.484655499999999
          },
          "poiCount": 10,
          "leafCount": 10,
          "averagePosition": [
            10.30790226,
            47.46900725
          ],
          "data": [
            {
              "type": "Feature",
              "properties": {
                "id": "703754583",
                "osm_type": "node",
                "lat": 47.460339,
                "lon": 10.2722971,
                "name": "Metzgerei Schmid",
                "shop": "butcher",
                "wheelchair": "no"
              },
              "geometry": {
                "type": "Point",
                "coordinates": [
                  10.2722971,
                  47.460339
                ]
              }
            },
            {
              "type": "Feature",
              "properties": {
                "id": "854429340",
                "osm_type": "node",
                "lat": 47.4090416,
                "lon": 10.2744327,
                "check_date": "2025-02-13",
                "name": "Hiesinger",
                "shop": "butcher"
              },
              "geometry": {
                "type": "Point",
                "coordinates": [
                  10.2744327,
                  47.4090416
                ]
              }
            },
            {
              "type": "Feature",
              "properties": {
                "id": "858102260",
                "osm_type": "node",
                "lat": 47.4103214,
                "lon": 10.2770121,
                "addr:city": "Oberstdorf",
                "addr:country": "DE",
                "addr:housenumber": "1",
                "addr:postcode": "87561",
                "addr:street": "Bahnhofplatz",
                "check_date:opening_hours": "2023-12-26",
                "contact:phone": "+49 8322 4814",
                "diet:halal": "yes",
                "name": "Metzgerei Kleiber",
                "opening_hours": "Mo-Fr 09:00-17:00; Sa 08:00-13:00",
                "shop": "butcher",
                "source": "survey",
                "website": "https://www.kleiber-metzgerei.de/"
              },
              "geometry": {
                "type": "Point",
                "coordinates": [
                  10.2770121,
                  47.4103214
                ]
              }
            },
            {
              "type": "Feature",
              "properties": {
                "id": "938775239",
                "osm_type": "node",
                "lat": 47.4101119,
                "lon": 10.2773579,
                "addr:city": "Oberstdorf",
                "addr:country": "DE",
                "addr:housenumber": "13",
                "addr:postcode": "87561",
                "addr:street": "Hauptstraße",
                "brand": "Vinzenzmurr",
                "brand:wikidata": "Q2527361",
                "brand:wikipedia": "de:Vinzenzmurr",
                "check_date:opening_hours": "2024-09-01",
                "diet:halal": "yes",
                "name": "Vinzenzmurr",
                "opening_hours": "Mo-Fr 08:00-18:00; Sa 08:00-13:00",
                "shop": "butcher",
                "website": "https://vinzenzmurr.de/metzgerei/oberstdorf-fussgaengerzone/",
                "wheelchair": "yes"
              },
              "geometry": {
                "type": "Point",
                "coordinates": [
                  10.2773579,
                  47.4101119
                ]
              }
            },
            {
              "type": "Feature",
              "properties": {
                "id": "2152870712",
                "osm_type": "node",
                "lat": 47.5059354,
                "lon": 10.3678394,
                "check_date:opening_hours": "2024-08-02",
                "name": "Metzgerei Koller",
                "opening_hours": "Mo-Fr 07:45-12:15, Mo,Tu,Th,Fr 14:30-18:00, Sa 07:45-12:00",
                "operator": "Alexander Dodrn",
                "phone": "+49 8324 1509",
                "shop": "butcher",
                "website": "http://www.metzgerei-koller.de"
              },
              "geometry": {
                "type": "Point",
                "coordinates": [
                  10.3678394,
                  47.5059354
                ]
              }
            },
            {
              "type": "Feature",
              "properties": {
                "id": "2807345368",
                "osm_type": "node",
                "lat": 47.5121027,
                "lon": 10.2805458,
                "check_date:opening_hours": "2023-04-02",
                "name": "Metzgerei Kleiber",
                "opening_hours": "Mo-Fr 08:00-18:00, Sa 08:00-13:00",
                "phone": "+49 8321 9952",
                "shop": "butcher",
                "website": "https://www.kleiber-metzgerei.de"
              },
              "geometry": {
                "type": "Point",
                "coordinates": [
                  10.2805458,
                  47.5121027
                ]
              }
            },
            {
              "type": "Feature",
              "properties": {
                "id": "9467095550",
                "osm_type": "node",
                "lat": 47.5030558,
                "lon": 10.3845938,
                "contact:email": "info@metzgerei-endrass.de",
                "contact:fax": "+49 8324 953491",
                "contact:phone": "+49 8324 457",
                "contact:website": "https://www.metzgerei-endrass.de/",
                "name": "Metzgerei Endraß",
                "opening_hours": "Mo, Tu, Th, Fr 07:30-12:30, 14:00-18:00; We 07:30-12:30; Sa 07:30-12:00",
                "operator": "Karl Heinz Endraß",
                "shop": "butcher",
                "source": "\"Mein Bad Hindelang\" 15/16",
                "start_date": "1925"
              },
              "geometry": {
                "type": "Point",
                "coordinates": [
                  10.3845938,
                  47.5030558
                ]
              }
            },
            {
              "type": "Feature",
              "properties": {
                "id": "9468286568",
                "osm_type": "node",
                "lat": 47.504663,
                "lon": 10.3778857,
                "contact:phone": "+49 8324 2079",
                "contact:website": "http://www.metzgerei-koller.de/",
                "name": "Metzgerei Koller",
                "opening_hours": "Mo,Tu,Th,Fr 07:45-12:15,14:30-18:00; We 07:45-12:15; Sa 07:45-12:00",
                "operator": "Marianne Koller",
                "shop": "butcher"
              },
              "geometry": {
                "type": "Point",
                "coordinates": [
                  10.3778857,
                  47.504663
                ]
              }
            },
            {
              "type": "Feature",
              "properties": {
                "id": "9903425271",
                "osm_type": "node",
                "lat": 47.4894241,
                "lon": 10.2831378,
                "name": "Landmetzgerei Schöll",
                "shop": "butcher"
              },
              "geometry": {
                "type": "Point",
                "coordinates": [
                  10.2831378,
                  47.4894241
                ]
              }
            },
            {
              "type": "Feature",
              "properties": {
                "id": "9903440657",
                "osm_type": "node",
                "lat": 47.4850776,
                "lon": 10.2839203,
                "check_date": "2025-07-07",
                "contact:phone": "+49 8321 22188",
                "contact:website": "https://metzgerei-koller.de",
                "name": "Metzgerei Koller",
                "opening_hours": "Mo,We,Fr,Su,PH off; Tu,Th,Sa 07:30-12:15",
                "shop": "butcher"
              },
              "geometry": {
                "type": "Point",
                "coordinates": [
                  10.2839203,
                  47.4850776
                ]
              }
            }
          ],
          "children": []
        },
        {
          "bbox": {
            "south": 47.529588375,
            "west": 9.530952,
            "north": 47.694865,
            "east": 10.007803749999999
          },
          "poiCount": 28,
          "leafCount": 28,
          "averagePosition": [
            9.750802742857143,
            47.62277343571429
          ],
          "data": [
            {
              "type": "Feature",
              "properties": {
                "id": "329129258",
                "osm_type": "node",
                "lat": 47.6624063,
                "lon": 9.5722181,
                "name": "Feinkost Alici",
                "shop": "butcher",
                "wheelchair": "yes"
              },
              "geometry": {
                "type": "Point",
                "coordinates": [
                  9.5722181,
                  47.6624063
                ]
              }
            },
            {
              "type": "Feature",
              "properties": {
                "id": "392127455",
                "osm_type": "node",
                "lat": 47.6929495,
                "lon": 9.8550698,
                "addr:city": "Wangen im Allgäu",
                "addr:country": "DE",
                "addr:housenumber": "11",
                "addr:postcode": "88239",
                "addr:street": "Obere Dorfstraße",
                "addr:suburb": "Deuchelried",
                "shop": "butcher"
              },
              "geometry": {
                "type": "Point",
                "coordinates": [
                  9.8550698,
                  47.6929495
                ]
              }
            },
            {
              "type": "Feature",
              "properties": {
                "id": "457085861",
                "osm_type": "node",
                "lat": 47.6714042,
                "lon": 9.5873285,
                "addr:city": "Tettnang",
                "addr:country": "DE",
                "addr:housenumber": "14",
                "addr:postcode": "88069",
                "addr:street": "Montfortstraße",
                "contact:facebook": "https://www.facebook.com/metzgereigoessl/",
                "contact:instagram": "https://www.instagram.com/metzgerei_goessl/",
                "name": "Metzgerei Gössl",
                "opening_hours": "Mo,We,Th,Fr 08:00-12:30,14:00-18:00; Tu 08:00-12:30; Sa 08:00-12:15",
                "operator": "Rainer Gössl",
                "payment:cash": "yes",
                "payment:contactless": "yes",
                "payment:credit_cards": "yes",
                "payment:debit_cards": "yes",
                "payment:mastercard": "yes",
                "payment:visa": "yes",
                "phone": "+497542 93770",
                "shop": "butcher",
                "website": "https://metzgerei-goessl.de/",
                "wheelchair": "yes"
              },
              "geometry": {
                "type": "Point",
                "coordinates": [
                  9.5873285,
                  47.6714042
                ]
              }
            },
            {
              "type": "Feature",
              "properties": {
                "id": "462181848",
                "osm_type": "node",
                "lat": 47.564193,
                "lon": 9.9443022,
                "name": "Metzgerei Wirth",
                "opening_hours": "Mo-Fr 06:30-18:00; We 06:30-12:30; Sa 06:00-12:30",
                "shop": "butcher",
                "toilets:wheelchair": "no",
                "wheelchair": "limited"
              },
              "geometry": {
                "type": "Point",
                "coordinates": [
                  9.9443022,
                  47.564193
                ]
              }
            },
            {
              "type": "Feature",
              "properties": {
                "id": "564055751",
                "osm_type": "node",
                "lat": 47.6000114,
                "lon": 9.8865054,
                "name": "Müller",
                "shop": "butcher",
                "wheelchair": "yes"
              },
              "geometry": {
                "type": "Point",
                "coordinates": [
                  9.8865054,
                  47.6000114
                ]
              }
            },
            {
              "type": "Feature",
              "properties": {
                "id": "655123570",
                "osm_type": "node",
                "lat": 47.5557099,
                "lon": 9.6897844,
                "addr:city": "Lindau (Bodensee)",
                "addr:country": "DE",
                "addr:housenumber": "45",
                "addr:postcode": "88131",
                "addr:street": "Langenweg",
                "addr:suburb": "Aeschach",
                "name": "Metzgerei Schmieger GmbH",
                "opening_hours": "Mo,Tu,Th,Fr 07:00-18:00; We 07:00-13:30; Sa 07:00-12:30",
                "shop": "butcher",
                "wheelchair": "yes"
              },
              "geometry": {
                "type": "Point",
                "coordinates": [
                  9.6897844,
                  47.5557099
                ]
              }
            },
            {
              "type": "Feature",
              "properties": {
                "id": "659283788",
                "osm_type": "node",
                "lat": 47.5648763,
                "lon": 9.6656827,
                "addr:city": "Bodolz",
                "addr:country": "DE",
                "addr:postcode": "88131",
                "fixme": "name",
                "level": "0",
                "name": "REWE Metzgerei",
                "payment:credit_cards": "yes",
                "payment:debit_cards": "yes",
                "shop": "butcher",
                "wheelchair": "yes"
              },
              "geometry": {
                "type": "Point",
                "coordinates": [
                  9.6656827,
                  47.5648763
                ]
              }
            },
            {
              "type": "Feature",
              "properties": {
                "id": "687006205",
                "osm_type": "node",
                "lat": 47.6062677,
                "lon": 9.8928891,
                "name": "Vogler",
                "shop": "butcher",
                "wheelchair": "yes"
              },
              "geometry": {
                "type": "Point",
                "coordinates": [
                  9.8928891,
                  47.6062677
                ]
              }
            },
            {
              "type": "Feature",
              "properties": {
                "id": "829867962",
                "osm_type": "node",
                "lat": 47.559365,
                "lon": 9.7062344,
                "UID": "DE308949587",
                "addr:city": "Lindau (Bodensee)",
                "addr:country": "DE",
                "addr:housenumber": "26",
                "addr:postcode": "88131",
                "addr:street": "Köchlinstraße",
                "addr:suburb": "Reutin",
                "contact:phone": "+49 8382750714",
                "name": "Walser Spezialitäten",
                "opening_hours": "Mo-Fr 06:30-18:15; Sa 06:30-12:30",
                "operator": "Walser Späzialitäten GmbH",
                "shop": "butcher",
                "website": "https://www.walserspezialitaeten.de/",
                "wheelchair": "no",
                "wheelchair:description": "Leider eine Stufe im Eingangsbereich! Mit einer kleine Rampe wäre die Fleischerei rollstuhlgerecht."
              },
              "geometry": {
                "type": "Point",
                "coordinates": [
                  9.7062344,
                  47.559365
                ]
              }
            },
            {
              "type": "Feature",
              "properties": {
                "id": "860176479",
                "osm_type": "node",
                "lat": 47.6863442,
                "lon": 9.8348331,
                "addr:city": "Wangen im Allgäu",
                "addr:country": "DE",
                "addr:housenumber": "4",
                "addr:postcode": "88239",
                "addr:street": "Postplatz",
                "check_date:opening_hours": "2025-08-04",
                "email": "info@stadtmetzgerei-blaser.de",
                "fax": "+49 7522 28672",
                "name": "Stadtmetzgerei Blaser",
                "opening_hours": "Sa 07:30-12:30; Tu,Th,Fr 08:00-18:00; Mo 08:00-13:30; We 07:30-18:00",
                "phone": "+49 7522 2430",
                "shop": "butcher",
                "website": "https://www.stadtmetzgerei-blaser.de"
              },
              "geometry": {
                "type": "Point",
                "coordinates": [
                  9.8348331,
                  47.6863442
                ]
              }
            },
            {
              "type": "Feature",
              "properties": {
                "id": "920058950",
                "osm_type": "node",
                "lat": 47.5699742,
                "lon": 9.6381961,
                "addr:city": "Wasserburg (Bodensee)",
                "addr:country": "DE",
                "addr:housenumber": "7",
                "addr:postcode": "88142",
                "addr:street": "Lindenplatz",
                "name": "Wellhäuser",
                "opening_hours": "Mo-Fr 08:00-13:00, Sa 08:00-12:30, Mo,Tu,Th,Fr 14:30-18:00",
                "shop": "butcher"
              },
              "geometry": {
                "type": "Point",
                "coordinates": [
                  9.6381961,
                  47.5699742
                ]
              }
            },
            {
              "type": "Feature",
              "properties": {
                "id": "1111728472",
                "osm_type": "node",
                "lat": 47.587841,
                "lon": 9.7456474,
                "name": "Rädler",
                "shop": "butcher",
                "wheelchair": "no"
              },
              "geometry": {
                "type": "Point",
                "coordinates": [
                  9.7456474,
                  47.587841
                ]
              }
            },
            {
              "type": "Feature",
              "properties": {
                "id": "1363603206",
                "osm_type": "node",
                "lat": 47.590587,
                "lon": 9.599999,
                "name": "Metzgerei Frick",
                "shop": "butcher",
                "wheelchair": "yes"
              },
              "geometry": {
                "type": "Point",
                "coordinates": [
                  9.599999,
                  47.590587
                ]
              }
            },
            {
              "type": "Feature",
              "properties": {
                "id": "1370812040",
                "osm_type": "node",
                "lat": 47.6717867,
                "lon": 9.5889906,
                "addr:city": "Tettnang",
                "addr:country": "DE",
                "addr:housenumber": "1",
                "addr:postcode": "88069",
                "addr:street": "Kirchstraße",
                "contact:instagram": "https://www.instagram.com/metzgerei_forster/",
                "email": "info@forster-metzgerei.de",
                "fax": "+49 7542 54155",
                "image": "https://www.forster-metzgerei.de/img/logo.jpg",
                "name": "Metzgerei Forster",
                "opening_hours": "Mo 08:30-13:00, Tue-Fr 08:30-18:00; Sa 08:00-12:30",
                "operator": "Susanne Kiechle und Johannes Forster",
                "payment:cash": "yes",
                "payment:contactless": "yes",
                "payment:credit_cards": "yes",
                "payment:debit_cards": "yes",
                "payment:mastercard": "yes",
                "payment:visa": "yes",
                "phone": "+49 7542 6825",
                "shop": "butcher",
                "website": "https://www.forster-metzgerei.de/",
                "wheelchair": "yes"
              },
              "geometry": {
                "type": "Point",
                "coordinates": [
                  9.5889906,
                  47.6717867
                ]
              }
            },
            {
              "type": "Feature",
              "properties": {
                "id": "1575977734",
                "osm_type": "node",
                "lat": 47.685143,
                "lon": 9.8304747,
                "name": "Metzgerei Schattmaier",
                "opening_hours": "Mo-Th 08:00-18:00; Fr 07:30-18:00; Sa 07:30-12:00; PH,Su off",
                "shop": "butcher"
              },
              "geometry": {
                "type": "Point",
                "coordinates": [
                  9.8304747,
                  47.685143
                ]
              }
            },
            {
              "type": "Feature",
              "properties": {
                "id": "1734305068",
                "osm_type": "node",
                "lat": 47.6933609,
                "lon": 9.8238563,
                "name": "Metzgerei Walser",
                "shop": "butcher",
                "wheelchair": "yes"
              },
              "geometry": {
                "type": "Point",
                "coordinates": [
                  9.8238563,
                  47.6933609
                ]
              }
            },
            {
              "type": "Feature",
              "properties": {
                "id": "1765953495",
                "osm_type": "node",
                "lat": 47.5550451,
                "lon": 9.6900149,
                "name": "Metzgerei Kleiber",
                "shop": "butcher"
              },
              "geometry": {
                "type": "Point",
                "coordinates": [
                  9.6900149,
                  47.5550451
                ]
              }
            },
            {
              "type": "Feature",
              "properties": {
                "id": "1869843169",
                "osm_type": "node",
                "lat": 47.5798849,
                "lon": 9.7767324,
                "name": "Dür",
                "shop": "butcher"
              },
              "geometry": {
                "type": "Point",
                "coordinates": [
                  9.7767324,
                  47.5798849
                ]
              }
            },
            {
              "type": "Feature",
              "properties": {
                "id": "2331764849",
                "osm_type": "node",
                "lat": 47.6316212,
                "lon": 9.6591921,
                "addr:city": "Tettnang",
                "addr:country": "DE",
                "addr:housenumber": "16",
                "addr:postcode": "88069",
                "addr:street": "Argenstraße",
                "addr:suburb": "Oberlangnau",
                "name": "Landmetzgerei Eugen Schädler",
                "opening_hours": "Tu-Fr 07:30-12:30,14:00-18:00; Sa 07:00-12:30",
                "operator": "Eugen Schädler",
                "phone": "+497543 500686",
                "shop": "butcher",
                "website": "https://www.metzgerei.org/tettnang/eugen-schaedler-5003439.html",
                "wheelchair": "limited"
              },
              "geometry": {
                "type": "Point",
                "coordinates": [
                  9.6591921,
                  47.6316212
                ]
              }
            },
            {
              "type": "Feature",
              "properties": {
                "id": "2721446136",
                "osm_type": "node",
                "lat": 47.6865088,
                "lon": 9.8343459,
                "addr:city": "Wangen im Allgäu",
                "addr:country": "DE",
                "addr:housenumber": "4",
                "addr:postcode": "88239",
                "addr:street": "Brotlaube",
                "check_date:opening_hours": "2024-08-15",
                "name": "Joos",
                "opening_hours": "Mo-Fr 08:00-18:00; Sa 07:30-13:00",
                "shop": "butcher",
                "website": "https://www.metzgerei-joos.com/"
              },
              "geometry": {
                "type": "Point",
                "coordinates": [
                  9.8343459,
                  47.6865088
                ]
              }
            },
            {
              "type": "Feature",
              "properties": {
                "id": "3439777750",
                "osm_type": "node",
                "lat": 47.6092728,
                "lon": 9.8756898,
                "name": "Bio Metzgerei Ratzenberg",
                "shop": "butcher"
              },
              "geometry": {
                "type": "Point",
                "coordinates": [
                  9.8756898,
                  47.6092728
                ]
              }
            },
            {
              "type": "Feature",
              "properties": {
                "id": "3987755435",
                "osm_type": "node",
                "lat": 47.6940319,
                "lon": 9.5603875,
                "addr:city": "Meckenbeuren",
                "addr:country": "DE",
                "addr:housenumber": "1",
                "addr:postcode": "88074",
                "addr:street": "Humboldtstraße",
                "check_date": "2023-04-29",
                "contact:phone": "+49 7542 1613",
                "contact:website": "http://www.metzgerei-amann.de/",
                "name": "Metzgerei Ammann",
                "opening_hours": "Mo-Fr 07:30-12:30,14:00-18:00; We,Sa 07:30-12:30",
                "shop": "butcher"
              },
              "geometry": {
                "type": "Point",
                "coordinates": [
                  9.5603875,
                  47.6940319
                ]
              }
            },
            {
              "type": "Feature",
              "properties": {
                "id": "4375081997",
                "osm_type": "node",
                "lat": 47.6408159,
                "lon": 9.7622969,
                "addr:city": "Wangen im Allgäu",
                "addr:country": "DE",
                "addr:housenumber": "19",
                "addr:postcode": "88239",
                "addr:street": "Bodenseestraße",
                "addr:suburb": "Neuravensburg",
                "name": "Metzgerei Schattmaier",
                "name:de": "Metzgerei Schattmaier",
                "shop": "butcher"
              },
              "geometry": {
                "type": "Point",
                "coordinates": [
                  9.7622969,
                  47.6408159
                ]
              }
            },
            {
              "type": "Feature",
              "properties": {
                "id": "4487351107",
                "osm_type": "node",
                "lat": 47.5819865,
                "lon": 9.9146718,
                "addr:country": "DE",
                "addr:postcode": "88171",
                "name": "Metzgerei Kilger",
                "opening_hours": "Mo,Tu,Th 07:30-13:00,14:00-18:00; We 07:30-13:00; Fr 07:30-18:00; Sa 07:30-12:30",
                "phone": "+49 8387 392780",
                "shop": "butcher"
              },
              "geometry": {
                "type": "Point",
                "coordinates": [
                  9.9146718,
                  47.5819865
                ]
              }
            },
            {
              "type": "Feature",
              "properties": {
                "id": "5885338773",
                "osm_type": "node",
                "lat": 47.6284056,
                "lon": 9.9041339,
                "addr:city": "Heimenkirch",
                "addr:country": "DE",
                "addr:housenumber": "9",
                "addr:postcode": "88178",
                "addr:street": "Kemptener Straße",
                "fax": "+49 8381 927221",
                "name": "Metzgerei Weber",
                "opening_hours": "Mo-Tu, Th-Fr 07:00-13:00, 15:00-18:00; We 07:00-13:00; Sa 07:00-12:00; PH off",
                "phone": "+49 8381 2046",
                "shop": "butcher",
                "wheelchair": "limited"
              },
              "geometry": {
                "type": "Point",
                "coordinates": [
                  9.9041339,
                  47.6284056
                ]
              }
            },
            {
              "type": "Feature",
              "properties": {
                "id": "8482893067",
                "osm_type": "node",
                "lat": 47.6043928,
                "lon": 9.8900636,
                "name": "Giray",
                "opening_hours": "Mo-Fr 07:30-18:00; Sa 07:00-12:30",
                "phone": "+49838180780810",
                "shop": "butcher",
                "website": "https://www.metzgerei-giray.de/"
              },
              "geometry": {
                "type": "Point",
                "coordinates": [
                  9.8900636,
                  47.6043928
                ]
              }
            },
            {
              "type": "Feature",
              "properties": {
                "id": "9524289633",
                "osm_type": "node",
                "lat": 47.6604494,
                "lon": 9.7057871,
                "name": "Buchmann Metzgerei",
                "opening_hours": "Mo-Sa 06:30-20:00",
                "shop": "butcher",
                "wheelchair": "yes"
              },
              "geometry": {
                "type": "Point",
                "coordinates": [
                  9.7057871,
                  47.6604494
                ]
              }
            },
            {
              "type": "Feature",
              "properties": {
                "id": "11966265208",
                "osm_type": "node",
                "lat": 47.603021,
                "lon": 9.5871491,
                "addr:city": "Kressbronn am Bodensee",
                "addr:country": "DE",
                "addr:housenumber": "27",
                "addr:postcode": "88079",
                "addr:street": "Im Heidach",
                "email": "hallo@tbonemanufaktur.de",
                "name": "TBR T-BONE MANUFAKTUR GBR",
                "phone": "+49 / 7543 / 308 85 93",
                "shop": "butcher",
                "website": "https://www.tbonemanufaktur.de/"
              },
              "geometry": {
                "type": "Point",
                "coordinates": [
                  9.5871491,
                  47.603021
                ]
              }
            }
          ],
          "children": []
        },
        {
          "bbox": {
            "south": 47.529588375,
            "west": 10.007803749999999,
            "north": 47.694865,
            "east": 10.484655499999999
          },
          "poiCount": 16,
          "leafCount": 16,
          "averagePosition": [
            10.26892690625,
            47.6132538
          ],
          "data": [
            {
              "type": "Feature",
              "properties": {
                "id": "1076760968",
                "osm_type": "node",
                "lat": 47.6298681,
                "lon": 10.0126776,
                "addr:city": "Grünenbach",
                "addr:country": "DE",
                "addr:housenumber": "62",
                "addr:postcode": "88167",
                "addr:street": "Hauptstraße",
                "name": "Immler",
                "shop": "butcher"
              },
              "geometry": {
                "type": "Point",
                "coordinates": [
                  10.0126776,
                  47.6298681
                ]
              }
            },
            {
              "type": "Feature",
              "properties": {
                "id": "5607567751",
                "osm_type": "node",
                "lat": 47.5547845,
                "lon": 10.0214115,
                "name": "Metzgerei Giray",
                "opening_hours": "Mo-We 07:30-13:00, Th-Fr 07:30-18:00, Sa 07:00-12:30; Su, PH off",
                "phone": "+49 8386 962543",
                "shop": "butcher",
                "website": "https://www.metzgerei-giray.de/filiale-oberstaufen.html",
                "wheelchair": "yes"
              },
              "geometry": {
                "type": "Point",
                "coordinates": [
                  10.0214115,
                  47.5547845
                ]
              }
            },
            {
              "type": "Feature",
              "properties": {
                "id": "339366301",
                "osm_type": "node",
                "lat": 47.5538604,
                "lon": 10.2319183,
                "addr:city": "Immenstadt im Allgäu",
                "addr:country": "DE",
                "addr:housenumber": "84",
                "addr:postcode": "87509",
                "addr:street": "Sonthofener Straße",
                "contact:fax": "+49 8323 8674",
                "contact:phone": "+49 8323 8674",
                "contact:website": "https://metzgerei-in.de/immenstadt-im-allgau/metzgerei/13079-metzgerei-muller-gmbh.html",
                "name": "Metzgerei Müller",
                "opening_hours": "Mo-Fr 06:30-18:00; Sa 07:00-12:00; Su,PH off",
                "operator": "Metzgerei Müller GmbH",
                "shop": "butcher",
                "wheelchair": "yes"
              },
              "geometry": {
                "type": "Point",
                "coordinates": [
                  10.2319183,
                  47.5538604
                ]
              }
            },
            {
              "type": "Feature",
              "properties": {
                "id": "597708216",
                "osm_type": "node",
                "lat": 47.6928654,
                "lon": 10.3171291,
                "name": "Rauch",
                "shop": "butcher"
              },
              "geometry": {
                "type": "Point",
                "coordinates": [
                  10.3171291,
                  47.6928654
                ]
              }
            },
            {
              "type": "Feature",
              "properties": {
                "id": "1244385823",
                "osm_type": "node",
                "lat": 47.6610738,
                "lon": 10.3494016,
                "name": "Metzgerei Höbel",
                "shop": "butcher"
              },
              "geometry": {
                "type": "Point",
                "coordinates": [
                  10.3494016,
                  47.6610738
                ]
              }
            },
            {
              "type": "Feature",
              "properties": {
                "id": "1387408120",
                "osm_type": "node",
                "lat": 47.6035139,
                "lon": 10.4098161,
                "name": "Landmetzgerei Kraus",
                "shop": "butcher",
                "wheelchair": "no"
              },
              "geometry": {
                "type": "Point",
                "coordinates": [
                  10.4098161,
                  47.6035139
                ]
              }
            },
            {
              "type": "Feature",
              "properties": {
                "id": "1487347843",
                "osm_type": "node",
                "lat": 47.559634,
                "lon": 10.2187519,
                "addr:city": "Immenstadt im Allgäu",
                "addr:country": "DE",
                "addr:housenumber": "14",
                "addr:postcode": "87509",
                "addr:street": "Marienplatz",
                "check_date": "2025-04-26",
                "email": "info@metzgerei-rehle.de",
                "fax": "+49 8323 7116",
                "name": "Metzgerei Rehle",
                "opening_hours": "Mo-Fr 08:00-18:00, Sa 07:45-12:00",
                "operator": "Metzgerei Rehle GmbH",
                "phone": "+49 8323 6303",
                "shop": "butcher",
                "website": "https://www.metzgerei-rehle.de",
                "wheelchair": "yes"
              },
              "geometry": {
                "type": "Point",
                "coordinates": [
                  10.2187519,
                  47.559634
                ]
              }
            },
            {
              "type": "Feature",
              "properties": {
                "id": "1487348246",
                "osm_type": "node",
                "lat": 47.5590776,
                "lon": 10.2217362,
                "name": "Metzgerei Müller",
                "shop": "butcher",
                "wheelchair": "no"
              },
              "geometry": {
                "type": "Point",
                "coordinates": [
                  10.2217362,
                  47.5590776
                ]
              }
            },
            {
              "type": "Feature",
              "properties": {
                "id": "2080084808",
                "osm_type": "node",
                "lat": 47.672009,
                "lon": 10.3043665,
                "name": "Metzgerei Rauch",
                "shop": "butcher",
                "website": "http://www.partyservice-rauch.info"
              },
              "geometry": {
                "type": "Point",
                "coordinates": [
                  10.3043665,
                  47.672009
                ]
              }
            },
            {
              "type": "Feature",
              "properties": {
                "id": "2088567610",
                "osm_type": "node",
                "lat": 47.6675944,
                "lon": 10.3065342,
                "name": "Metzgerei Stöberl",
                "shop": "butcher"
              },
              "geometry": {
                "type": "Point",
                "coordinates": [
                  10.3065342,
                  47.6675944
                ]
              }
            },
            {
              "type": "Feature",
              "properties": {
                "id": "4355628619",
                "osm_type": "node",
                "lat": 47.5361739,
                "lon": 10.285765,
                "check_date": "2024-02-13",
                "name": "Metzgerei Müller",
                "opening_hours": "Mo-Fr 07:00-18:00; Sa 07:00-12:00",
                "phone": "+49 8321 3128",
                "shop": "butcher"
              },
              "geometry": {
                "type": "Point",
                "coordinates": [
                  10.285765,
                  47.5361739
                ]
              }
            },
            {
              "type": "Feature",
              "properties": {
                "id": "5469098869",
                "osm_type": "node",
                "lat": 47.5971705,
                "lon": 10.4193775,
                "name": "Wild- und Landmetzgerei Mattausch",
                "shop": "butcher"
              },
              "geometry": {
                "type": "Point",
                "coordinates": [
                  10.4193775,
                  47.5971705
                ]
              }
            },
            {
              "type": "Feature",
              "properties": {
                "id": "7279358526",
                "osm_type": "node",
                "lat": 47.6947888,
                "lon": 10.0409286,
                "check_date:opening_hours": "2025-03-12",
                "name": "Giray",
                "opening_hours": "Mo-Fr 07:30-18:00; Sa 07:00-12:30",
                "phone": "+49 7562 912900",
                "shop": "butcher",
                "website": "https://www.metzgerei-giray.de/filiale-isny.html"
              },
              "geometry": {
                "type": "Point",
                "coordinates": [
                  10.0409286,
                  47.6947888
                ]
              }
            },
            {
              "type": "Feature",
              "properties": {
                "id": "7619783905",
                "osm_type": "node",
                "lat": 47.648318,
                "lon": 10.4557829,
                "name": "Landmetzgerei Adolf Baur",
                "shop": "butcher"
              },
              "geometry": {
                "type": "Point",
                "coordinates": [
                  10.4557829,
                  47.648318
                ]
              }
            },
            {
              "type": "Feature",
              "properties": {
                "id": "9874141770",
                "osm_type": "node",
                "lat": 47.5757292,
                "lon": 10.2912972,
                "name": "Birker",
                "opening_hours": "Mo-Fr 08:00-12:00, Mo,Th,Fr 15:00-18:00; Sa 08:00-12:00",
                "shop": "butcher",
                "wheelchair": "yes"
              },
              "geometry": {
                "type": "Point",
                "coordinates": [
                  10.2912972,
                  47.5757292
                ]
              }
            },
            {
              "type": "Feature",
              "properties": {
                "id": "10977714145",
                "osm_type": "node",
                "lat": 47.6055993,
                "lon": 10.4159363,
                "name": "Kraus",
                "shop": "butcher"
              },
              "geometry": {
                "type": "Point",
                "coordinates": [
                  10.4159363,
                  47.6055993
                ]
              }
            }
          ],
          "children": []
        }
      ]
    },
    {
      "bbox": {
        "south": 47.36431175,
        "west": 10.484655499999999,
        "north": 47.694865,
        "east": 11.438358999999998
      },
      "poiCount": 28,
      "leafCount": 28,
      "averagePosition": [
        10.975575957142857,
        47.57843436071429
      ],
      "data": [
        {
          "type": "Feature",
          "properties": {
            "id": "7859277363",
            "osm_type": "node",
            "lat": 47.6218415,
            "lon": 10.5016204,
            "name": "Metzgerei Haslacher",
            "shop": "butcher"
          },
          "geometry": {
            "type": "Point",
            "coordinates": [
              10.5016204,
              47.6218415
            ]
          }
        },
        {
          "type": "Feature",
          "properties": {
            "id": "268265172",
            "osm_type": "node",
            "lat": 47.6768525,
            "lon": 10.80072,
            "name": "Metzgerei Eberle",
            "shop": "butcher"
          },
          "geometry": {
            "type": "Point",
            "coordinates": [
              10.80072,
              47.6768525
            ]
          }
        },
        {
          "type": "Feature",
          "properties": {
            "id": "306118924",
            "osm_type": "node",
            "lat": 47.4883117,
            "lon": 10.7157434,
            "name": "Kastner",
            "shop": "butcher",
            "wheelchair": "no"
          },
          "geometry": {
            "type": "Point",
            "coordinates": [
              10.7157434,
              47.4883117
            ]
          }
        },
        {
          "type": "Feature",
          "properties": {
            "id": "465934118",
            "osm_type": "node",
            "lat": 47.61217,
            "lon": 10.6344121,
            "name": "Landmetzgerei Renz",
            "phone": "+49 8364 987053",
            "shop": "butcher"
          },
          "geometry": {
            "type": "Point",
            "coordinates": [
              10.6344121,
              47.61217
            ]
          }
        },
        {
          "type": "Feature",
          "properties": {
            "id": "703870199",
            "osm_type": "node",
            "lat": 47.6188528,
            "lon": 10.808848,
            "name": "Metzgerei Dressel",
            "shop": "butcher"
          },
          "geometry": {
            "type": "Point",
            "coordinates": [
              10.808848,
              47.6188528
            ]
          }
        },
        {
          "type": "Feature",
          "properties": {
            "id": "954628336",
            "osm_type": "node",
            "lat": 47.6129282,
            "lon": 10.6328386,
            "email": "eisele-christoph@t-online.de",
            "fax": "+49 8364 1099",
            "name": "Metzgerei & Partyservice Christoph Eisele",
            "phone": "+49 8364 1099",
            "shop": "butcher",
            "source": "http://www.metzgerei-eisele.de/",
            "source:date": "2015-07-20",
            "website": "http://www.metzgerei-eisele.de/",
            "wheelchair": "limited"
          },
          "geometry": {
            "type": "Point",
            "coordinates": [
              10.6328386,
              47.6129282
            ]
          }
        },
        {
          "type": "Feature",
          "properties": {
            "id": "1387208718",
            "osm_type": "node",
            "lat": 47.6523483,
            "lon": 10.7168046,
            "name": "Metzgerei Kaufmann",
            "shop": "butcher",
            "wheelchair": "limited"
          },
          "geometry": {
            "type": "Point",
            "coordinates": [
              10.7168046,
              47.6523483
            ]
          }
        },
        {
          "type": "Feature",
          "properties": {
            "id": "1902470508",
            "osm_type": "node",
            "lat": 47.398109,
            "lon": 10.9180941,
            "addr:city": "Ehrwald",
            "addr:housenumber": "1",
            "addr:postcode": "6632",
            "addr:street": "Innsbrucker Straße",
            "contact:email": "razenberger.kg@aon.at",
            "contact:facebook": "https://www.facebook.com/RazenbergerKG/",
            "name": "Razenberger",
            "opening_hours": "Mo-We 07:30-12:30; Th-Fr 07:30-12:30,15:00-18:30; Sa 07:30-12:00; Su off",
            "phone": "+41 5673 2311",
            "shop": "butcher",
            "wheelchair": "yes"
          },
          "geometry": {
            "type": "Point",
            "coordinates": [
              10.9180941,
              47.398109
            ]
          }
        },
        {
          "type": "Feature",
          "properties": {
            "id": "3635342827",
            "osm_type": "node",
            "lat": 47.5692303,
            "lon": 10.7000922,
            "brand": "Vinzenzmurr",
            "brand:wikidata": "Q2527361",
            "brand:wikipedia": "de:Vinzenzmurr",
            "name": "Vinzenzmurr",
            "opening_hours": "Mo-Fr 08:00-18:00; Sa 08:00-13:00",
            "shop": "butcher"
          },
          "geometry": {
            "type": "Point",
            "coordinates": [
              10.7000922,
              47.5692303
            ]
          }
        },
        {
          "type": "Feature",
          "properties": {
            "id": "11190233711",
            "osm_type": "node",
            "lat": 47.5702351,
            "lon": 10.7012099,
            "addr:city": "Füssen",
            "addr:housenumber": "1",
            "addr:postcode": "87629",
            "addr:street": "Marienstraße",
            "name": "Geflügelgeschäft Altun",
            "opening_hours": "Sa 08:00-12:00; Mo-Fr 08:00-12:30,14:00-18:00",
            "phone": "+49 8362 7773",
            "shop": "butcher",
            "wheelchair": "limited"
          },
          "geometry": {
            "type": "Point",
            "coordinates": [
              10.7012099,
              47.5702351
            ]
          }
        },
        {
          "type": "Feature",
          "properties": {
            "id": "13013194492",
            "osm_type": "node",
            "lat": 47.6138927,
            "lon": 10.6235224,
            "addr:city": "Eisenberg",
            "addr:housenumber": "3 a",
            "addr:postcode": "87637",
            "addr:street": "Mühlenweg",
            "name": "Metzgerei Riedhofer",
            "opening_hours": "Fr 07:30-18:00; Sa 07:30-13:00",
            "phone": "+49 8364 9856710",
            "shop": "butcher",
            "website": "https://www.metzgerei-riedhofer.de/"
          },
          "geometry": {
            "type": "Point",
            "coordinates": [
              10.6235224,
              47.6138927
            ]
          }
        },
        {
          "type": "Feature",
          "properties": {
            "id": "443406816",
            "osm_type": "node",
            "lat": 47.4915712,
            "lon": 11.0864207,
            "addr:city": "Garmisch-Partenkirchen",
            "addr:country": "DE",
            "addr:housenumber": "2",
            "addr:postcode": "82467",
            "addr:street": "Alpspitzstraße",
            "name": "Metzgerei Sedlmayr",
            "opening_hours": "Mo-We,Fr 08:00-16:00; Th 08:00-13:00",
            "shop": "butcher",
            "website": "https://www.metzgerei-sedlmayr.de/",
            "wheelchair": "yes"
          },
          "geometry": {
            "type": "Point",
            "coordinates": [
              11.0864207,
              47.4915712
            ]
          }
        },
        {
          "type": "Feature",
          "properties": {
            "id": "450194470",
            "osm_type": "node",
            "lat": 47.5974121,
            "lon": 11.0638912,
            "addr:city": "Oberammergau",
            "addr:country": "DE",
            "addr:housenumber": "26",
            "addr:postcode": "82487",
            "addr:street": "Dorfstraße",
            "email": "metzgerei-chr.gerold@t-online.de",
            "name": "Christian Gerold",
            "opening_hours": "Tu-Fr 08:00-13:30, Sa 08:00-12:30, Tu-Fr 15:00-18:00",
            "phone": "+49 8822 3545",
            "shop": "butcher",
            "toilets:wheelchair": "no",
            "website": "https://www.metzgerei-gerold.de/",
            "wheelchair": "yes"
          },
          "geometry": {
            "type": "Point",
            "coordinates": [
              11.0638912,
              47.5974121
            ]
          }
        },
        {
          "type": "Feature",
          "properties": {
            "id": "450194476",
            "osm_type": "node",
            "lat": 47.5974185,
            "lon": 11.0629406,
            "addr:city": "Oberammergau",
            "addr:country": "DE",
            "addr:housenumber": "1",
            "addr:postcode": "82487",
            "addr:street": "Verlegergasse",
            "name": "Metzgerei Sebastian Gerold",
            "opening_hours": "Mo,Fr 08:30-13:00,15:00-17:30; Tu-Th 08:30-13:00; Sa 08:00-12:30",
            "phone": "+49 8822 3535",
            "shop": "butcher",
            "wheelchair": "no"
          },
          "geometry": {
            "type": "Point",
            "coordinates": [
              11.0629406,
              47.5974185
            ]
          }
        },
        {
          "type": "Feature",
          "properties": {
            "id": "1749515110",
            "osm_type": "node",
            "lat": 47.4887894,
            "lon": 11.0735433,
            "name": "Metzgerei Strasser",
            "opening_hours": "Mo-Fr 07:00-13:00, Mo,We,Fr 14:30-18:00, Sa 07:00-12:00",
            "shop": "butcher"
          },
          "geometry": {
            "type": "Point",
            "coordinates": [
              11.0735433,
              47.4887894
            ]
          }
        },
        {
          "type": "Feature",
          "properties": {
            "id": "1937885747",
            "osm_type": "node",
            "lat": 47.5605118,
            "lon": 11.1358923,
            "name": "Metzgerei Reiser",
            "opening_hours": "Mo-Th 06:00-14:00; Fr 06:00-18:00; Sa 06:00-12:00",
            "shop": "butcher",
            "wheelchair": "no"
          },
          "geometry": {
            "type": "Point",
            "coordinates": [
              11.1358923,
              47.5605118
            ]
          }
        },
        {
          "type": "Feature",
          "properties": {
            "id": "2110817458",
            "osm_type": "node",
            "lat": 47.6583406,
            "lon": 11.3680569,
            "name": "Metzgerei Pfleger",
            "opening_hours": "Mo,Tu,Th,Fr 07:00-12:30,14:30-18:00; We 07:00-12:30; Sa 07:30-12:30",
            "phone": "+49 8851 206",
            "shop": "butcher",
            "website": "https://www.metzgerei-pfleger.de/",
            "wheelchair": "yes"
          },
          "geometry": {
            "type": "Point",
            "coordinates": [
              11.3680569,
              47.6583406
            ]
          }
        },
        {
          "type": "Feature",
          "properties": {
            "id": "3656336177",
            "osm_type": "node",
            "lat": 47.4405787,
            "lon": 11.260154,
            "name": "Metzgerei Rieder",
            "shop": "butcher"
          },
          "geometry": {
            "type": "Point",
            "coordinates": [
              11.260154,
              47.4405787
            ]
          }
        },
        {
          "type": "Feature",
          "properties": {
            "id": "3923436740",
            "osm_type": "node",
            "lat": 47.4952498,
            "lon": 11.1094289,
            "name": "Metzgerei-Hofladen \"beim Jochala\"",
            "shop": "butcher",
            "wheelchair": "no"
          },
          "geometry": {
            "type": "Point",
            "coordinates": [
              11.1094289,
              47.4952498
            ]
          }
        },
        {
          "type": "Feature",
          "properties": {
            "id": "4127057391",
            "osm_type": "node",
            "lat": 47.4934528,
            "lon": 11.0856516,
            "addr:city": "Garmisch-Partenkirchen",
            "addr:country": "DE",
            "addr:housenumber": "2",
            "addr:postcode": "82467",
            "addr:street": "Sonnenstraße",
            "name": "Metzgerei Fink",
            "opening_hours": "Tu-Fr 07:30-18:00; Th 07:30-12:30; Sa 07:30-12:00",
            "shop": "butcher"
          },
          "geometry": {
            "type": "Point",
            "coordinates": [
              11.0856516,
              47.4934528
            ]
          }
        },
        {
          "type": "Feature",
          "properties": {
            "id": "5485260197",
            "osm_type": "node",
            "lat": 47.5600681,
            "lon": 11.1281686,
            "addr:city": "Oberau",
            "addr:housenumber": "18d",
            "addr:postcode": "82496",
            "addr:street": "Ettaler Straße",
            "brand": "Vinzenzmurr",
            "brand:wikidata": "Q2527361",
            "brand:wikipedia": "de:Vinzenzmurr",
            "check_date:opening_hours": "2024-04-11",
            "name": "Vinzenzmurr",
            "opening_hours": "Mo-Sa 07:00-20:00",
            "shop": "butcher",
            "wheelchair": "yes"
          },
          "geometry": {
            "type": "Point",
            "coordinates": [
              11.1281686,
              47.5600681
            ]
          }
        },
        {
          "type": "Feature",
          "properties": {
            "id": "5963945636",
            "osm_type": "node",
            "lat": 47.6336009,
            "lon": 11.2337381,
            "check_date": "2023-05-22",
            "name": "Sterff",
            "shop": "butcher"
          },
          "geometry": {
            "type": "Point",
            "coordinates": [
              11.2337381,
              47.6336009
            ]
          }
        },
        {
          "type": "Feature",
          "properties": {
            "id": "6004477314",
            "osm_type": "node",
            "lat": 47.6874365,
            "lon": 11.2024149,
            "name": "Metzgerei Ludwig Haller",
            "shop": "butcher",
            "website": "https://www.haller-metzgerei.de/",
            "wheelchair": "yes"
          },
          "geometry": {
            "type": "Point",
            "coordinates": [
              11.2024149,
              47.6874365
            ]
          }
        },
        {
          "type": "Feature",
          "properties": {
            "id": "7243696280",
            "osm_type": "node",
            "lat": 47.6828888,
            "lon": 11.200341,
            "brand": "Vinzenzmurr",
            "brand:wikidata": "Q2527361",
            "brand:wikipedia": "de:Vinzenzmurr",
            "name": "Vinzenzmurr",
            "shop": "butcher"
          },
          "geometry": {
            "type": "Point",
            "coordinates": [
              11.200341,
              47.6828888
            ]
          }
        },
        {
          "type": "Feature",
          "properties": {
            "id": "9416665933",
            "osm_type": "node",
            "lat": 47.5027814,
            "lon": 11.0979372,
            "brand": "Vinzenzmurr",
            "brand:wikidata": "Q2527361",
            "brand:wikipedia": "de:Vinzenzmurr",
            "name": "Vinzenzmurr",
            "shop": "butcher"
          },
          "geometry": {
            "type": "Point",
            "coordinates": [
              11.0979372,
              47.5027814
            ]
          }
        },
        {
          "type": "Feature",
          "properties": {
            "id": "9606448590",
            "osm_type": "node",
            "lat": 47.5957889,
            "lon": 11.0662943,
            "butcher": "game",
            "email": "info-oberammergau@baysf.de",
            "fax": "+49 8822 9218 129",
            "name": "Bayerische Staatsforsten",
            "opening_hours": "Th 14:00-18:00; Fr 10:00-14:00",
            "phone": "+49 8822 9218-0",
            "shop": "butcher",
            "website": "https://www.baysf.de"
          },
          "geometry": {
            "type": "Point",
            "coordinates": [
              11.0662943,
              47.5957889
            ]
          }
        },
        {
          "type": "Feature",
          "properties": {
            "id": "10988994478",
            "osm_type": "node",
            "lat": 47.6776006,
            "lon": 11.2007683,
            "name": "Metzgerei Ludwig Haller",
            "opening_hours": "Mo,Th-Fr 07:30-18:00; Tu-We,Sa 07:30-14:00",
            "organic": "yes",
            "shop": "butcher",
            "website": "https://www.metzgerhandwerk-haller.de"
          },
          "geometry": {
            "type": "Point",
            "coordinates": [
              11.2007683,
              47.6776006
            ]
          }
        },
        {
          "type": "Feature",
          "properties": {
            "id": "12146191244",
            "osm_type": "node",
            "lat": 47.5978999,
            "lon": 11.1865792,
            "level": "0",
            "name": "Metzgerei Reiter",
            "payment:cards": "yes",
            "payment:cash": "yes",
            "payment:qr_code": "no",
            "phone": "+49 8824 210",
            "shop": "butcher"
          },
          "geometry": {
            "type": "Point",
            "coordinates": [
              11.1865792,
              47.5978999
            ]
          }
        }
      ],
      "children": []
    }
  ]
}