{
  "bbox": {
    "south": 48.355971499999995,
    "west": 15.253173,
    "north": 49.017078,
    "east": 17.16058
  },
  "poiCount": 71,
  "leafCount": 0,
  "averagePosition": [
    16.259082370422533,
    48.635463308450696
  ],
  "data": [],
  "children": [
    {
      "bbox": {
        "south": 48.355971499999995,
        "west": 15.253173,
        "north": 48.68652475,
        "east": 16.2068765
      },
      "poiCount": 24,
      "leafCount": 24,
      "averagePosition": [
        15.750609633333333,
        48.484650504166666
      ],
      "data": [
        {
          "type": "Feature",
          "properties": {
            "id": "3542219618",
            "osm_type": "node",
            "lat": 48.5731342,
            "lon": 15.3322502,
            "addr:city": "Rastenfeld",
            "addr:country": "AT",
            "addr:housenumber": "12",
            "addr:place": "Rastenfeld",
            "addr:postcode": "3532",
            "contact:email": "martin.boeck@aon.at",
            "contact:fax": "+43 2826 2044",
            "name": "Fleischerei - Imbiss - Martin Böck GmbH",
            "opening_hours": "Mo-Fr 6:30-18:00; Sa 07:00-12:00; PH off",
            "phone": "+43 2826 204",
            "shop": "butcher",
            "wheelchair": "no"
          },
          "geometry": {
            "type": "Point",
            "coordinates": [
              15.3322502,
              48.5731342
            ]
          }
        },
        {
          "type": "Feature",
          "properties": {
            "id": "8164982347",
            "osm_type": "node",
            "lat": 48.415438,
            "lon": 15.3043958,
            "name": "Grabner Alfred - Fleischerei",
            "shop": "butcher"
          },
          "geometry": {
            "type": "Point",
            "coordinates": [
              15.3043958,
              48.415438
            ]
          }
        },
        {
          "type": "Feature",
          "properties": {
            "id": "307385087",
            "osm_type": "node",
            "lat": 48.4717926,
            "lon": 15.9829005,
            "addr:city": "Großweikersdorf",
            "addr:country": "AT",
            "addr:housenumber": "2",
            "addr:postcode": "3701",
            "addr:street": "Wiener Straße",
            "name": "Bergmann",
            "shop": "butcher",
            "website": "http://www.schmidataler.at/"
          },
          "geometry": {
            "type": "Point",
            "coordinates": [
              15.9829005,
              48.4717926
            ]
          }
        },
        {
          "type": "Feature",
          "properties": {
            "id": "461726007",
            "osm_type": "node",
            "lat": 48.4060498,
            "lon": 15.6021707,
            "addr:city": "Krems an der Donau",
            "addr:country": "AT",
            "addr:housenumber": "4",
            "addr:postcode": "3500",
            "addr:street": "Bertschingerstraße",
            "email": "office@nemetz-fleisch.at",
            "name": "Nemetz",
            "opening_hours": "Mo-Fr 07:30-18:30; Sa 08:00-17:00",
            "phone": "+43 664 810 94 54",
            "shop": "butcher",
            "website": "http://www.nemetz-markt.at"
          },
          "geometry": {
            "type": "Point",
            "coordinates": [
              15.6021707,
              48.4060498
            ]
          }
        },
        {
          "type": "Feature",
          "properties": {
            "id": "568434365",
            "osm_type": "node",
            "lat": 48.4722861,
            "lon": 15.7329084,
            "addr:city": "Straß im Straßertale",
            "addr:country": "AT",
            "addr:housenumber": "85",
            "addr:postcode": "3491",
            "addr:street": "Herrengasse",
            "name": "Fleischerei Graf",
            "opening_hours": "Tu-Th 07:30-12:00; Fr 07:30-12:00,14:30-18:00; Sa 07:00-12:00; PH off",
            "phone": "+43 2735 / 5569",
            "shop": "butcher",
            "website": "https://www.fleischerei-graf.at/"
          },
          "geometry": {
            "type": "Point",
            "coordinates": [
              15.7329084,
              48.4722861
            ]
          }
        },
        {
          "type": "Feature",
          "properties": {
            "id": "607110856",
            "osm_type": "node",
            "lat": 48.4120239,
            "lon": 15.6047568,
            "addr:city": "Krems an der Donau",
            "addr:country": "AT",
            "addr:housenumber": "54",
            "addr:postcode": "3500",
            "addr:street": "Untere Landstraße",
            "email": "info@fleischerei-winkler.at",
            "name": "Winkler Langgartner",
            "opening_hours": "Mo-Fr 07:30-13:30,15:30-18:00; Sa 07:30-12:00",
            "phone": "+43 2732 824 19",
            "shop": "butcher",
            "website": "https://www.fleischerei-winkler.at/"
          },
          "geometry": {
            "type": "Point",
            "coordinates": [
              15.6047568,
              48.4120239
            ]
          }
        },
        {
          "type": "Feature",
          "properties": {
            "id": "1119777662",
            "osm_type": "node",
            "lat": 48.432196,
            "lon": 15.8971081,
            "addr:city": "Kirchberg am Wagram",
            "addr:housenumber": "31",
            "addr:postcode": "3470",
            "addr:street": "Kremser Straße",
            "name": "Fleischerei Kolobratnik",
            "phone": "+43 2279 5018",
            "shop": "butcher",
            "website": "https://www.kolobratnik.at/"
          },
          "geometry": {
            "type": "Point",
            "coordinates": [
              15.8971081,
              48.432196
            ]
          }
        },
        {
          "type": "Feature",
          "properties": {
            "id": "1272282519",
            "osm_type": "node",
            "lat": 48.5713506,
            "lon": 15.8273075,
            "shop": "butcher"
          },
          "geometry": {
            "type": "Point",
            "coordinates": [
              15.8273075,
              48.5713506
            ]
          }
        },
        {
          "type": "Feature",
          "properties": {
            "id": "1821167690",
            "osm_type": "node",
            "lat": 48.6673382,
            "lon": 15.6557317,
            "name": "Willinger",
            "shop": "butcher"
          },
          "geometry": {
            "type": "Point",
            "coordinates": [
              15.6557317,
              48.6673382
            ]
          }
        },
        {
          "type": "Feature",
          "properties": {
            "id": "4215485712",
            "osm_type": "node",
            "lat": 48.5985674,
            "lon": 15.9388738,
            "name": "Fleischerei Dachsberger, ehem. Hündler",
            "shop": "butcher"
          },
          "geometry": {
            "type": "Point",
            "coordinates": [
              15.9388738,
              48.5985674
            ]
          }
        },
        {
          "type": "Feature",
          "properties": {
            "id": "4215963671",
            "osm_type": "node",
            "lat": 48.3966735,
            "lon": 15.5920441,
            "addr:city": "Mautern an der Donau",
            "addr:country": "AT",
            "addr:housenumber": "33",
            "addr:postcode": "3512",
            "addr:street": "Austraße",
            "alt_name": "Norbert Artner Fleisch- und Wursterzeugung",
            "email": "norbertartner@aon.at",
            "name": "Fleischerei Artner",
            "official_name": "Norbert Artner GmbH & Co KG",
            "opening_hours": "Mo-Fr 07:00-13:30; Sa 07:00-10:30",
            "operator": "Norbert Artner",
            "phone": "+43 2732 82908",
            "shop": "butcher",
            "website": "https://www.fleischerei-artner.at/"
          },
          "geometry": {
            "type": "Point",
            "coordinates": [
              15.5920441,
              48.3966735
            ]
          }
        },
        {
          "type": "Feature",
          "properties": {
            "id": "4275916580",
            "osm_type": "node",
            "lat": 48.4047062,
            "lon": 15.5891744,
            "addr:city": "Krems an der Donau",
            "addr:country": "AT",
            "addr:housenumber": "3",
            "addr:postcode": "3500",
            "addr:street": "Karl-Eybl-Gasse",
            "email": "office@em-diskont.at",
            "name": "EM - Fleisch und Wurst Diskont",
            "opening_hours": "Mo-Fr 08:00-18:00; Sa 08:00-12:00",
            "phone": "+43 2732 724 58",
            "shop": "butcher",
            "website": "https://www.em-diskont.at/"
          },
          "geometry": {
            "type": "Point",
            "coordinates": [
              15.5891744,
              48.4047062
            ]
          }
        },
        {
          "type": "Feature",
          "properties": {
            "id": "4992097088",
            "osm_type": "node",
            "lat": 48.4099452,
            "lon": 15.6005417,
            "addr:city": "Krems an der Donau",
            "addr:country": "AT",
            "addr:housenumber": "8",
            "addr:postcode": "3500",
            "addr:street": "Herzogstraße",
            "name": "Fleischerei Graf",
            "opening_hours": "Mo-Th 07:30-12:30,15:00-18:00; Fr 07:30-18:00; Sa 07:30-12:00; PH off",
            "phone": "+43 2732 824 72",
            "shop": "butcher",
            "website": "https://www.fleischerei-graf.at/"
          },
          "geometry": {
            "type": "Point",
            "coordinates": [
              15.6005417,
              48.4099452
            ]
          }
        },
        {
          "type": "Feature",
          "properties": {
            "id": "6380423532",
            "osm_type": "node",
            "lat": 48.5944556,
            "lon": 15.6562819,
            "name": "Fleischermeister SCHOBER",
            "shop": "butcher"
          },
          "geometry": {
            "type": "Point",
            "coordinates": [
              15.6562819,
              48.5944556
            ]
          }
        },
        {
          "type": "Feature",
          "properties": {
            "id": "10208407597",
            "osm_type": "node",
            "lat": 48.4102279,
            "lon": 15.5976312,
            "addr:city": "Krems an der Donau",
            "addr:country": "AT",
            "addr:housenumber": "23",
            "addr:postcode": "3500",
            "addr:street": "Obere Landstraße",
            "description": "Fleischhauer,Catering",
            "name": "Ellinger",
            "opening_hours": "Mo-Fr 07:30-13:00, 15:00-18:00; Sa 07:30-12:00; PH off",
            "operator": "Fam. Ellinger",
            "phone": "+43 2732 82764",
            "shop": "butcher",
            "website": "https://www.fleischer-ellinger.at/das-service/"
          },
          "geometry": {
            "type": "Point",
            "coordinates": [
              15.5976312,
              48.4102279
            ]
          }
        },
        {
          "type": "Feature",
          "properties": {
            "id": "10315077550",
            "osm_type": "node",
            "lat": 48.597377,
            "lon": 15.6607039,
            "addr:city": "Gars am Kamp",
            "addr:housenumber": "92",
            "addr:postcode": "3571",
            "addr:street": "Hauptplatz",
            "name": "Kolobratnik",
            "opening_hours": "Mo-Th 07:00-12:30; Fr 07:00-12:30,15:00-18:00; Sa 07:00-12:00",
            "shop": "butcher",
            "website": "https://www.kolobratnik.at/"
          },
          "geometry": {
            "type": "Point",
            "coordinates": [
              15.6607039,
              48.597377
            ]
          }
        },
        {
          "type": "Feature",
          "properties": {
            "id": "12165361357",
            "osm_type": "node",
            "lat": 48.4500898,
            "lon": 15.556973,
            "addr:city": "Senftenberg",
            "addr:country": "AT",
            "addr:housenumber": "22a",
            "addr:postcode": "3541",
            "addr:street": "Oberer Markt",
            "name": "Fleischhauerei Ellinger",
            "opening_hours": "Mo 07:30-12:00; We-Sa 07:30-12:00",
            "phone": "+43 2719 30601",
            "shop": "butcher",
            "website": "https://www.fleischer-ellinger.at/"
          },
          "geometry": {
            "type": "Point",
            "coordinates": [
              15.556973,
              48.4500898
            ]
          }
        },
        {
          "type": "Feature",
          "properties": {
            "id": "12217460887",
            "osm_type": "node",
            "lat": 48.6678299,
            "lon": 15.6345607,
            "name": "Radatz",
            "shop": "butcher",
            "website": "https://www.radatz.at/"
          },
          "geometry": {
            "type": "Point",
            "coordinates": [
              15.6345607,
              48.6678299
            ]
          }
        },
        {
          "type": "Feature",
          "properties": {
            "id": "12244211652",
            "osm_type": "node",
            "lat": 48.4097386,
            "lon": 15.5966753,
            "addr:city": "Krems an der Donau",
            "addr:country": "AT",
            "addr:housenumber": "2",
            "addr:postcode": "3500",
            "addr:street": "Schwedengasse",
            "name": "Höllerschmid",
            "opening_hours": "Tu-Fr 09:00-18:00; Sa 09:00-17:00; Mo,Su,PH off",
            "phone": "+43 2735 5228 50",
            "shop": "butcher",
            "website": "https://www.hoellerschmid.at/",
            "wheelchair": "yes"
          },
          "geometry": {
            "type": "Point",
            "coordinates": [
              15.5966753,
              48.4097386
            ]
          }
        },
        {
          "type": "Feature",
          "properties": {
            "id": "287880519",
            "osm_type": "node",
            "lat": 48.4932918,
            "lon": 16.1197119,
            "name": "Schwarzböck",
            "shop": "butcher"
          },
          "geometry": {
            "type": "Point",
            "coordinates": [
              16.1197119,
              48.4932918
            ]
          }
        },
        {
          "type": "Feature",
          "properties": {
            "id": "337233234",
            "osm_type": "node",
            "lat": 48.5650007,
            "lon": 16.0798786,
            "addr:housenumber": "26",
            "addr:postcode": "2020",
            "addr:street": "Sparkassegasse",
            "name": "Hofmann",
            "shop": "butcher",
            "wheelchair": "yes"
          },
          "geometry": {
            "type": "Point",
            "coordinates": [
              16.0798786,
              48.5650007
            ]
          }
        },
        {
          "type": "Feature",
          "properties": {
            "id": "2088081750",
            "osm_type": "node",
            "lat": 48.428531,
            "lon": 16.1675592,
            "name": "Fleischerei Eckerl",
            "opening_hours": "Mo-We,Fr 06:00-12:30,16:00-18:00;Th 06:00-12:00;Sa 07:00-11:30",
            "shop": "butcher"
          },
          "geometry": {
            "type": "Point",
            "coordinates": [
              16.1675592,
              48.428531
            ]
          }
        },
        {
          "type": "Feature",
          "properties": {
            "id": "4769607582",
            "osm_type": "node",
            "lat": 48.3958291,
            "lon": 16.1019329,
            "addr:city": "Hausleiten",
            "addr:housenumber": "17",
            "addr:postcode": "3464",
            "addr:street": "Hauptplatz",
            "name": "Fleischerei Pfennigbauer",
            "opening_hours": "Mo-Fr 07:00-12:30,15:00-18:00; Th 07:00-12:30; Sa 07:00-12:00; PH off",
            "operator": "Familie Pfennigbauer",
            "shop": "butcher"
          },
          "geometry": {
            "type": "Point",
            "coordinates": [
              16.1019329,
              48.3958291
            ]
          }
        },
        {
          "type": "Feature",
          "properties": {
            "id": "8065491110",
            "osm_type": "node",
            "lat": 48.387739,
            "lon": 16.1825589,
            "name": "Radatz Wurst Groß Markt Stockerau",
            "shop": "butcher"
          },
          "geometry": {
            "type": "Point",
            "coordinates": [
              16.1825589,
              48.387739
            ]
          }
        }
      ],
      "children": []
    },
    {
      "bbox": {
        "south": 48.355971499999995,
        "west": 16.2068765,
        "north": 48.68652475,
        "east": 17.16058
      },
      "poiCount": 20,
      "leafCount": 20,
      "averagePosition": [
        16.755969615,
        48.528051955
      ],
      "data": [
        {
          "type": "Feature",
          "properties": {
            "id": "61273162",
            "osm_type": "node",
            "lat": 48.3613951,
            "lon": 16.4254717,
            "name": "Hofbauer",
            "opening_hours": "Mo-Fr 06:00-12:15,15:00-18:00; Sa 06:00-12:15",
            "shop": "butcher",
            "wheelchair": "yes"
          },
          "geometry": {
            "type": "Point",
            "coordinates": [
              16.4254717,
              48.3613951
            ]
          }
        },
        {
          "type": "Feature",
          "properties": {
            "id": "61273271",
            "osm_type": "node",
            "lat": 48.360775,
            "lon": 16.4284085,
            "name": "Scheiterer",
            "opening_hours": "Mo-Th 06:00-12:30,15:00-18:30; Fr 06:00-18:30; Sa 06:00-12:30",
            "shop": "butcher",
            "wheelchair": "yes"
          },
          "geometry": {
            "type": "Point",
            "coordinates": [
              16.4284085,
              48.360775
            ]
          }
        },
        {
          "type": "Feature",
          "properties": {
            "id": "4058239597",
            "osm_type": "node",
            "lat": 48.3680282,
            "lon": 16.6919758,
            "addr:city": "Schönkirchen-Reyersdorf",
            "addr:country": "AT",
            "addr:housenumber": "20",
            "addr:postcode": "2241",
            "addr:street": "Schönkirchnerstraße",
            "name": "Fleischhauerei Strotzenberger",
            "phone": "+43 2282 22 42",
            "shop": "butcher"
          },
          "geometry": {
            "type": "Point",
            "coordinates": [
              16.6919758,
              48.3680282
            ]
          }
        },
        {
          "type": "Feature",
          "properties": {
            "id": "273327550",
            "osm_type": "node",
            "lat": 48.3828916,
            "lon": 16.518815,
            "contact:phone": "+43 670 50 50 453",
            "name": "Fleischerei Krames",
            "note": "telefonische Vorbestellung empfohlen,\nauch Sonn- und Feiertagsbestellungen möglich",
            "opening_hours": "Mo-Tu 07:30-11:30, Fr-Sa 07:30-11:30",
            "shop": "butcher",
            "website": "https://www.krames.at"
          },
          "geometry": {
            "type": "Point",
            "coordinates": [
              16.518815,
              48.3828916
            ]
          }
        },
        {
          "type": "Feature",
          "properties": {
            "id": "635951442",
            "osm_type": "node",
            "lat": 48.5274205,
            "lon": 16.3614114,
            "name": "Fleischerei Höger",
            "shop": "butcher"
          },
          "geometry": {
            "type": "Point",
            "coordinates": [
              16.3614114,
              48.5274205
            ]
          }
        },
        {
          "type": "Feature",
          "properties": {
            "id": "3697121028",
            "osm_type": "node",
            "lat": 48.4955565,
            "lon": 16.2326866,
            "shop": "butcher"
          },
          "geometry": {
            "type": "Point",
            "coordinates": [
              16.2326866,
              48.4955565
            ]
          }
        },
        {
          "type": "Feature",
          "properties": {
            "id": "5056971986",
            "osm_type": "node",
            "lat": 48.6632547,
            "lon": 16.2468964,
            "name": "Schuster",
            "shop": "butcher"
          },
          "geometry": {
            "type": "Point",
            "coordinates": [
              16.2468964,
              48.6632547
            ]
          }
        },
        {
          "type": "Feature",
          "properties": {
            "id": "5970582446",
            "osm_type": "node",
            "lat": 48.4607985,
            "lon": 16.3730849,
            "addr:city": "Karnabrunn",
            "addr:country": "AT",
            "addr:housenumber": "21",
            "addr:postcode": "2113",
            "addr:street": "Laaer Straße",
            "at_bev:addr_date": "2018-10-01",
            "contact:website": "https://www.pfennigbauer-karnabrunn.at",
            "name": "Pfennigbauer",
            "opening_hours": "Mo-We 06:30-12:30, 15:00-18:00; Th 06:30-12:30; Fr 06:30-18:00; Sa 06:30-12:00",
            "shop": "butcher"
          },
          "geometry": {
            "type": "Point",
            "coordinates": [
              16.3730849,
              48.4607985
            ]
          }
        },
        {
          "type": "Feature",
          "properties": {
            "id": "9293149771",
            "osm_type": "node",
            "lat": 48.587214,
            "lon": 16.4934261,
            "addr:city": "Asparn an der Zaya",
            "addr:country": "AT",
            "addr:housenumber": "17",
            "addr:postcode": "2151",
            "addr:street": "Schulgasse",
            "at_bev:addr_date": "2023-04-15",
            "contact:phone": "+43 2577 8204-18",
            "name": "Fleischerei Hiess",
            "opening_hours": "Mo-Fr 07:00-18:00; Sa 07:00-12:00",
            "shop": "butcher",
            "website": "http://www.fleischerei-hiess.at/kontakt/"
          },
          "geometry": {
            "type": "Point",
            "coordinates": [
              16.4934261,
              48.587214
            ]
          }
        },
        {
          "type": "Feature",
          "properties": {
            "id": "1020315804",
            "osm_type": "node",
            "lat": 48.5601052,
            "lon": 16.8715562,
            "name": "Pilwarsch",
            "shop": "butcher",
            "wheelchair": "no"
          },
          "geometry": {
            "type": "Point",
            "coordinates": [
              16.8715562,
              48.5601052
            ]
          }
        },
        {
          "type": "Feature",
          "properties": {
            "id": "2475753691",
            "osm_type": "node",
            "lat": 48.6564267,
            "lon": 17.0186003,
            "brand": "Makovec",
            "brand:wikidata": "Q58623471",
            "level": "0",
            "name": "Makovec",
            "opening_hours": "Mo-Fr 07:00-16:30; Sa 07:00-12:00; PH off",
            "operator": "Makovec",
            "shop": "butcher",
            "stroller": "no",
            "website": "https://makovec.cz/prodejna/p-91-prodejna-kuty",
            "wheelchair": "no"
          },
          "geometry": {
            "type": "Point",
            "coordinates": [
              17.0186003,
              48.6564267
            ]
          }
        },
        {
          "type": "Feature",
          "properties": {
            "id": "2475831893",
            "osm_type": "node",
            "lat": 48.6547424,
            "lon": 17.0157655,
            "name": "Mäsiarstvo - Pochyba",
            "shop": "butcher"
          },
          "geometry": {
            "type": "Point",
            "coordinates": [
              17.0157655,
              48.6547424
            ]
          }
        },
        {
          "type": "Feature",
          "properties": {
            "id": "7923524393",
            "osm_type": "node",
            "lat": 48.4351526,
            "lon": 17.0157275,
            "contact:phone": "+421 917 102 395",
            "name": "B&M Tomek",
            "opening_hours": "Tu-Fr 8:00-16:00;Sa 7:30-12:00",
            "shop": "butcher",
            "wheelchair": "no;3 steps"
          },
          "geometry": {
            "type": "Point",
            "coordinates": [
              17.0157275,
              48.4351526
            ]
          }
        },
        {
          "type": "Feature",
          "properties": {
            "id": "9748725125",
            "osm_type": "node",
            "lat": 48.4370896,
            "lon": 17.0193458,
            "check_date": "2022-05-16",
            "level": "0",
            "opening_hours": "Tu-Fr 7:00-18:00;Sa 8:00-12:00",
            "shop": "butcher",
            "wheelchair": "yes"
          },
          "geometry": {
            "type": "Point",
            "coordinates": [
              17.0193458,
              48.4370896
            ]
          }
        },
        {
          "type": "Feature",
          "properties": {
            "id": "12993269744",
            "osm_type": "node",
            "lat": 48.6550097,
            "lon": 16.6317546,
            "addr:city": "Wetzelsdorf",
            "addr:housenumber": "4",
            "addr:postcode": "2170",
            "addr:street": "Baumfeldstraße",
            "email": "abholmarkt.poysdorf@berger-schinken.at",
            "name": "Berger Schinken Abholmarkt",
            "opening_hours": "Mo-Fr 06:30-18:00; Sa 06:30-13:00",
            "phone": "+43255229220",
            "shop": "butcher"
          },
          "geometry": {
            "type": "Point",
            "coordinates": [
              16.6317546,
              48.6550097
            ]
          }
        },
        {
          "type": "Feature",
          "properties": {
            "id": "2505844224",
            "osm_type": "node",
            "lat": 48.4066649,
            "lon": 17.1550126,
            "name": "Mäso - údeniny Intermeat",
            "opening_hours": "Tu-Fr 08:00-13:00,14:00-17:00; Sa 07:00-11:00",
            "shop": "butcher"
          },
          "geometry": {
            "type": "Point",
            "coordinates": [
              17.1550126,
              48.4066649
            ]
          }
        },
        {
          "type": "Feature",
          "properties": {
            "id": "6858848945",
            "osm_type": "node",
            "lat": 48.6365707,
            "lon": 17.1535031,
            "opening_hours": "Mo-Fr 8:00-12:00,13:00-17:00;Sa 8:00-12:00",
            "shop": "butcher",
            "wheelchair": "yes"
          },
          "geometry": {
            "type": "Point",
            "coordinates": [
              17.1535031,
              48.6365707
            ]
          }
        },
        {
          "type": "Feature",
          "properties": {
            "id": "6859030047",
            "osm_type": "node",
            "lat": 48.6373227,
            "lon": 17.1544795,
            "name": "Hydinár",
            "opening_hours": "Tu-Fr 8:00-12:00,13:00-17:00;Sa 7:00-12:00",
            "shop": "butcher"
          },
          "geometry": {
            "type": "Point",
            "coordinates": [
              17.1544795,
              48.6373227
            ]
          }
        },
        {
          "type": "Feature",
          "properties": {
            "id": "6861493855",
            "osm_type": "node",
            "lat": 48.6373501,
            "lon": 17.1550132,
            "name": "Mäso - Údeniny Almat",
            "opening_hours": "Mo-Fr 7:00-11:00,13:30-17:00; Sa 6:30-12:00",
            "shop": "butcher",
            "wheelchair": "no",
            "wheelchair:description": "1 step"
          },
          "geometry": {
            "type": "Point",
            "coordinates": [
              17.1550132,
              48.6373501
            ]
          }
        },
        {
          "type": "Feature",
          "properties": {
            "id": "6861493862",
            "osm_type": "node",
            "lat": 48.6372704,
            "lon": 17.1564576,
            "name": "Mäsiarstvo",
            "shop": "butcher",
            "wheelchair": "no",
            "wheelchair:description": "2 steps"
          },
          "geometry": {
            "type": "Point",
            "coordinates": [
              17.1564576,
              48.6372704
            ]
          }
        }
      ],
      "children": []
    },
    {
      "bbox": {
        "south": 48.68652475,
        "west": 15.253173,
        "north": 49.017078,
        "east": 16.2068765
      },
      "poiCount": 11,
      "leafCount": 11,
      "averagePosition": [
        15.513322045454546,
        48.81533042727272
      ],
      "data": [
        {
          "type": "Feature",
          "properties": {
            "id": "1020684598",
            "osm_type": "node",
            "lat": 48.8144004,
            "lon": 15.2836544,
            "name": "Fleischerei Kainz",
            "shop": "butcher",
            "website": "https://www.fleischerei-kainz.at"
          },
          "geometry": {
            "type": "Point",
            "coordinates": [
              15.2836544,
              48.8144004
            ]
          }
        },
        {
          "type": "Feature",
          "properties": {
            "id": "1562603693",
            "osm_type": "node",
            "lat": 48.7939812,
            "lon": 15.4049387,
            "addr:housenumber": "14",
            "addr:street": "Roseggergasse",
            "name": "Fleischhaker Thomas Fleischerei & Schmankerltreff",
            "shop": "butcher"
          },
          "geometry": {
            "type": "Point",
            "coordinates": [
              15.4049387,
              48.7939812
            ]
          }
        },
        {
          "type": "Feature",
          "properties": {
            "id": "1712573764",
            "osm_type": "node",
            "lat": 48.6991718,
            "lon": 15.319863,
            "addr:city": "Allentsteig",
            "addr:housenumber": "44",
            "addr:postcode": "3804",
            "addr:street": "Zwettlerstraße",
            "name": "Karl Klang (Landfleischerei)",
            "shop": "butcher",
            "wheelchair": "no"
          },
          "geometry": {
            "type": "Point",
            "coordinates": [
              15.319863,
              48.6991718
            ]
          }
        },
        {
          "type": "Feature",
          "properties": {
            "id": "7296430369",
            "osm_type": "node",
            "lat": 48.7242512,
            "lon": 15.4014153,
            "name": "Fleischerei, Karl Rupert Anderl",
            "shop": "butcher"
          },
          "geometry": {
            "type": "Point",
            "coordinates": [
              15.4014153,
              48.7242512
            ]
          }
        },
        {
          "type": "Feature",
          "properties": {
            "id": "10140053783",
            "osm_type": "node",
            "lat": 48.8475737,
            "lon": 15.4933352,
            "name": "Fleischhauer Selcher",
            "shop": "butcher"
          },
          "geometry": {
            "type": "Point",
            "coordinates": [
              15.4933352,
              48.8475737
            ]
          }
        },
        {
          "type": "Feature",
          "properties": {
            "id": "11531394645",
            "osm_type": "node",
            "lat": 48.855739,
            "lon": 15.2866976,
            "name": "Fleischerei Josef Franz Fleischhacker",
            "shop": "butcher",
            "source": "https://www.thaya.gv.at"
          },
          "geometry": {
            "type": "Point",
            "coordinates": [
              15.2866976,
              48.855739
            ]
          }
        },
        {
          "type": "Feature",
          "properties": {
            "id": "459972318",
            "osm_type": "node",
            "lat": 48.8683618,
            "lon": 15.6190761,
            "name": "Fleischerei Ebner",
            "old_name": "Helmut Köppel & Söhne",
            "opening_hours": "Tu-Th,Sa 07:00-12:00; Fr 07:00-12:00,14:30-18:00",
            "shop": "butcher",
            "short_name": "Ebner"
          },
          "geometry": {
            "type": "Point",
            "coordinates": [
              15.6190761,
              48.8683618
            ]
          }
        },
        {
          "type": "Feature",
          "properties": {
            "id": "942658836",
            "osm_type": "node",
            "lat": 48.6956726,
            "lon": 15.9553626,
            "name": "Arthold",
            "shop": "butcher"
          },
          "geometry": {
            "type": "Point",
            "coordinates": [
              15.9553626,
              48.6956726
            ]
          }
        },
        {
          "type": "Feature",
          "properties": {
            "id": "12352133490",
            "osm_type": "node",
            "lat": 48.8713093,
            "lon": 16.0394403,
            "air_conditioning": "yes",
            "brand": "Makovec",
            "brand:wikidata": "Q58623471",
            "level": "0",
            "name": "Makovec",
            "opening_hours": "Mo-Su 07:00-20:00",
            "shop": "butcher",
            "stroller": "yes",
            "website": "https://makovec.cz/",
            "wheelchair": "yes"
          },
          "geometry": {
            "type": "Point",
            "coordinates": [
              16.0394403,
              48.8713093
            ]
          }
        },
        {
          "type": "Feature",
          "properties": {
            "id": "513776238",
            "osm_type": "node",
            "lat": 48.9152833,
            "lon": 15.3221971,
            "name": "Handl Horst",
            "shop": "butcher",
            "toilets:wheelchair": "no",
            "wheelchair": "no"
          },
          "geometry": {
            "type": "Point",
            "coordinates": [
              15.3221971,
              48.9152833
            ]
          }
        },
        {
          "type": "Feature",
          "properties": {
            "id": "12384418552",
            "osm_type": "node",
            "lat": 48.8828904,
            "lon": 15.5205622,
            "name": "Fleischerei Josef Strohmer",
            "shop": "butcher"
          },
          "geometry": {
            "type": "Point",
            "coordinates": [
              15.5205622,
              48.8828904
            ]
          }
        }
      ],
      "children": []
    },
    {
      "bbox": {
        "south": 48.68652475,
        "west": 16.2068765,
        "north": 49.017078,
        "east": 17.16058
      },
      "poiCount": 16,
      "leafCount": 16,
      "averagePosition": [
        16.91339264375,
        48.8722880625
      ],
      "data": [
        {
          "type": "Feature",
          "properties": {
            "id": "1802057079",
            "osm_type": "node",
            "lat": 48.8453515,
            "lon": 16.8960285,
            "name": "Řeznictví Vašíček",
            "shop": "butcher"
          },
          "geometry": {
            "type": "Point",
            "coordinates": [
              16.8960285,
              48.8453515
            ]
          }
        },
        {
          "type": "Feature",
          "properties": {
            "id": "2466568685",
            "osm_type": "node",
            "lat": 48.7583751,
            "lon": 16.8552307,
            "shop": "butcher"
          },
          "geometry": {
            "type": "Point",
            "coordinates": [
              16.8552307,
              48.7583751
            ]
          }
        },
        {
          "type": "Feature",
          "properties": {
            "id": "2730727357",
            "osm_type": "node",
            "lat": 48.7776207,
            "lon": 17.0141691,
            "addr:city": "Týnec",
            "addr:housenumber": "56",
            "addr:street": "Rybáře",
            "name": "Řeznictví-uzenářství Zdeněk Žůrek",
            "shop": "butcher"
          },
          "geometry": {
            "type": "Point",
            "coordinates": [
              17.0141691,
              48.7776207
            ]
          }
        },
        {
          "type": "Feature",
          "properties": {
            "id": "3188359946",
            "osm_type": "node",
            "lat": 48.7411211,
            "lon": 16.755021,
            "addr:city": "Valtice",
            "addr:housenumber": "22",
            "addr:postcode": "69142",
            "addr:street": "nám. Svobody",
            "name": "Maso a uzeniny",
            "shop": "butcher"
          },
          "geometry": {
            "type": "Point",
            "coordinates": [
              16.755021,
              48.7411211
            ]
          }
        },
        {
          "type": "Feature",
          "properties": {
            "id": "3667880602",
            "osm_type": "node",
            "lat": 48.8047889,
            "lon": 16.6284152,
            "shop": "butcher",
            "source": "survey"
          },
          "geometry": {
            "type": "Point",
            "coordinates": [
              16.6284152,
              48.8047889
            ]
          }
        },
        {
          "type": "Feature",
          "properties": {
            "id": "3925700458",
            "osm_type": "node",
            "lat": 48.8315452,
            "lon": 16.849557,
            "name": "Řeznictví u Rybků",
            "opening_hours": "Mo-Fr 07:00-17:30; Sa 07:00-11:30",
            "shop": "butcher"
          },
          "geometry": {
            "type": "Point",
            "coordinates": [
              16.849557,
              48.8315452
            ]
          }
        },
        {
          "type": "Feature",
          "properties": {
            "id": "12666889699",
            "osm_type": "node",
            "lat": 48.7571581,
            "lon": 16.8878176,
            "branch": "Břeclav",
            "brand": "Krásno",
            "brand:wikidata": "Q41567362",
            "contact:facebook": "https://www.facebook.com/MPKrasno",
            "contact:instagram": "https://www.instagram.com/krasno_cz",
            "level": "0",
            "name": "Krásno",
            "opening_hours": "Mo,Tu 08:00-16:00; We-Fr 08:00-17:00; Sa 08:00-11:00; PH off",
            "operator": "MP Krásno",
            "shop": "butcher",
            "website": "https://www.krasno.cz/cs"
          },
          "geometry": {
            "type": "Point",
            "coordinates": [
              16.8878176,
              48.7571581
            ]
          }
        },
        {
          "type": "Feature",
          "properties": {
            "id": "13085510162",
            "osm_type": "node",
            "lat": 48.8013649,
            "lon": 17.0168158,
            "check_date": "2025-08-21",
            "name": "Řeznictví Janůš",
            "opening_hours": "Mo,Sa-Su off; Tu-Fr 07:00-12:15,13:00-16:00",
            "shop": "butcher",
            "wheelchair": "no"
          },
          "geometry": {
            "type": "Point",
            "coordinates": [
              17.0168158,
              48.8013649
            ]
          }
        },
        {
          "type": "Feature",
          "properties": {
            "id": "2268069160",
            "osm_type": "node",
            "lat": 48.855018,
            "lon": 17.1084609,
            "addr:housename": "Lesanka - Inpost",
            "addr:housenumber": "4028/8",
            "addr:postcode": "69501",
            "addr:street": "Lesní",
            "name": "Inpost",
            "shop": "butcher",
            "source": "Local knowledge",
            "website": "http://www.inpost.cz/"
          },
          "geometry": {
            "type": "Point",
            "coordinates": [
              17.1084609,
              48.855018
            ]
          }
        },
        {
          "type": "Feature",
          "properties": {
            "id": "8159267111",
            "osm_type": "node",
            "lat": 49.0148094,
            "lon": 16.7822514,
            "name": "Maso",
            "shop": "butcher"
          },
          "geometry": {
            "type": "Point",
            "coordinates": [
              16.7822514,
              49.0148094
            ]
          }
        },
        {
          "type": "Feature",
          "properties": {
            "id": "11897453471",
            "osm_type": "node",
            "lat": 48.9412833,
            "lon": 16.7374912,
            "email": "svetlana.javorkova@rabbit.cz",
            "mobile": "+420 725 591 119",
            "name": "Rabbit",
            "opening_hours": "Mo-Fr 07:00-16:00; Sa 07:30-10:30",
            "shop": "butcher",
            "website": "https://www.reznictvirabbit.cz/"
          },
          "geometry": {
            "type": "Point",
            "coordinates": [
              16.7374912,
              48.9412833
            ]
          }
        },
        {
          "type": "Feature",
          "properties": {
            "id": "11910572910",
            "osm_type": "node",
            "lat": 48.9370676,
            "lon": 16.7338951,
            "name": "Krásno",
            "opening_hours": "Mo-Fr 07:00-17:00; Sa 07:30-11:00",
            "payment:maestro": "yes",
            "payment:mastercard": "yes",
            "payment:visa": "yes",
            "payment:visa_debit": "yes",
            "payment:visa_electron": "yes",
            "shop": "butcher",
            "wheelchair": "yes"
          },
          "geometry": {
            "type": "Point",
            "coordinates": [
              16.7338951,
              48.9370676
            ]
          }
        },
        {
          "type": "Feature",
          "properties": {
            "id": "13078627986",
            "osm_type": "node",
            "lat": 48.9542443,
            "lon": 16.9986215,
            "name": "u Zahrádků",
            "opening_hours": "Tu-Fr 07:00-17:00; Sa 07:00-10:00",
            "payment:diners_club": "yes",
            "payment:discover_card": "yes",
            "payment:jcb": "yes",
            "payment:maestro": "yes",
            "payment:mastercard": "yes",
            "payment:visa": "yes",
            "payment:visa_debit": "yes",
            "payment:visa_electron": "yes",
            "shop": "butcher",
            "wheelchair": "yes"
          },
          "geometry": {
            "type": "Point",
            "coordinates": [
              16.9986215,
              48.9542443
            ]
          }
        },
        {
          "type": "Feature",
          "properties": {
            "id": "1929499977",
            "osm_type": "node",
            "lat": 49.0096453,
            "lon": 17.1260316,
            "mobile": "+420 603 271 960",
            "name": "Gurmán Kyjov",
            "opening_hours": "Mo 07:00-12:00; Tu-Fr 07:00-17:00; Sa 07:00-11:00",
            "shop": "butcher"
          },
          "geometry": {
            "type": "Point",
            "coordinates": [
              17.1260316,
              49.0096453
            ]
          }
        },
        {
          "type": "Feature",
          "properties": {
            "id": "1929499987",
            "osm_type": "node",
            "lat": 49.0097727,
            "lon": 17.1255876,
            "name": "Krůtí prodejna",
            "shop": "butcher"
          },
          "geometry": {
            "type": "Point",
            "coordinates": [
              17.1255876,
              49.0097727
            ]
          }
        },
        {
          "type": "Feature",
          "properties": {
            "id": "3363350705",
            "osm_type": "node",
            "lat": 48.9174429,
            "lon": 17.0988881,
            "name": "Maso uzeniny Krásno",
            "shop": "butcher"
          },
          "geometry": {
            "type": "Point",
            "coordinates": [
              17.0988881,
              48.9174429
            ]
          }
        }
      ],
      "children": []
    }
  ]
}