{
  "bbox": {
    "south": 48.355971499999995,
    "west": 13.345766,
    "north": 49.017078,
    "east": 15.253173
  },
  "poiCount": 101,
  "leafCount": 0,
  "averagePosition": [
    14.142006027722774,
    48.710608287128714
  ],
  "data": [],
  "children": [
    {
      "bbox": {
        "south": 48.355971499999995,
        "west": 13.345766,
        "north": 48.68652475,
        "east": 14.2994695
      },
      "poiCount": 31,
      "leafCount": 31,
      "averagePosition": [
        13.720349112903227,
        48.52606954516129
      ],
      "data": [
        {
          "type": "Feature",
          "properties": {
            "id": "1693347039",
            "osm_type": "node",
            "lat": 48.3627861,
            "lon": 14.0034486,
            "name": "Fleischhauerei Ozlberger",
            "shop": "butcher",
            "wheelchair": "no"
          },
          "geometry": {
            "type": "Point",
            "coordinates": [
              14.0034486,
              48.3627861
            ]
          }
        },
        {
          "type": "Feature",
          "properties": {
            "id": "11335177169",
            "osm_type": "node",
            "lat": 48.3713741,
            "lon": 13.5765485,
            "addr:housenumber": "7",
            "addr:postcode": "4770",
            "addr:street": "Hauptstraße",
            "name": "Pöppl",
            "name:de": "Ferdinand Pöppl",
            "opening_hours": "Mo-Fr 07:30-18:00; Sa 07:30-13:00",
            "phone": "07766 22140",
            "shop": "butcher"
          },
          "geometry": {
            "type": "Point",
            "coordinates": [
              13.5765485,
              48.3713741
            ]
          }
        },
        {
          "type": "Feature",
          "properties": {
            "id": "12061299168",
            "osm_type": "node",
            "lat": 48.3696419,
            "lon": 13.5716201,
            "addr:city": "Andorf",
            "addr:country": "AT",
            "addr:housenumber": "42",
            "addr:postcode": "4770",
            "addr:street": "Hauptstraße",
            "alt_name": "Moser Filiale Andorf",
            "name": "Moser",
            "opening_hours": "Mo-Fr 07:00-18:00; Sa 07:00-12:00",
            "phone": "+43 7766 41879",
            "shop": "butcher",
            "website": "https://moser-metzger.at/"
          },
          "geometry": {
            "type": "Point",
            "coordinates": [
              13.5716201,
              48.3696419
            ]
          }
        },
        {
          "type": "Feature",
          "properties": {
            "id": "321860254",
            "osm_type": "node",
            "lat": 48.6671521,
            "lon": 13.5239548,
            "addr:city": "Büchlberg",
            "addr:country": "DE",
            "addr:housenumber": "8",
            "addr:postcode": "94124",
            "addr:street": "Thyrnauer Straße",
            "name": "Metzgerei Maier",
            "shop": "butcher",
            "wheelchair": "no"
          },
          "geometry": {
            "type": "Point",
            "coordinates": [
              13.5239548,
              48.6671521
            ]
          }
        },
        {
          "type": "Feature",
          "properties": {
            "id": "411386717",
            "osm_type": "node",
            "lat": 48.5712076,
            "lon": 13.4448134,
            "name": "Kroiss",
            "shop": "butcher",
            "wheelchair": "yes"
          },
          "geometry": {
            "type": "Point",
            "coordinates": [
              13.4448134,
              48.5712076
            ]
          }
        },
        {
          "type": "Feature",
          "properties": {
            "id": "411518075",
            "osm_type": "node",
            "lat": 48.5703756,
            "lon": 13.4251266,
            "name": "KÖPA",
            "shop": "butcher",
            "wheelchair": "no"
          },
          "geometry": {
            "type": "Point",
            "coordinates": [
              13.4251266,
              48.5703756
            ]
          }
        },
        {
          "type": "Feature",
          "properties": {
            "id": "1597443596",
            "osm_type": "node",
            "lat": 48.4567777,
            "lon": 13.4313896,
            "name": "Feichtinger",
            "shop": "butcher",
            "wheelchair": "limited"
          },
          "geometry": {
            "type": "Point",
            "coordinates": [
              13.4313896,
              48.4567777
            ]
          }
        },
        {
          "type": "Feature",
          "properties": {
            "id": "1769454077",
            "osm_type": "node",
            "lat": 48.5668,
            "lon": 13.4935426,
            "name": "Feichtinger",
            "opening_hours": "Mo-Fr 07:30-18:00; Sa 07:30-12:00",
            "shop": "butcher",
            "website": "https://www.feichtinger-wurst.at/"
          },
          "geometry": {
            "type": "Point",
            "coordinates": [
              13.4935426,
              48.5668
            ]
          }
        },
        {
          "type": "Feature",
          "properties": {
            "id": "2058713937",
            "osm_type": "node",
            "lat": 48.4031554,
            "lon": 13.3889851,
            "name": "Metzgerei Fischer",
            "shop": "butcher"
          },
          "geometry": {
            "type": "Point",
            "coordinates": [
              13.3889851,
              48.4031554
            ]
          }
        },
        {
          "type": "Feature",
          "properties": {
            "id": "3139653115",
            "osm_type": "node",
            "lat": 48.5105114,
            "lon": 13.4432184,
            "name": "Metzgerei Kreiss",
            "opening_hours": "Mo-Fr 6:30-13:30; Sa 6:30-12:00",
            "shop": "butcher"
          },
          "geometry": {
            "type": "Point",
            "coordinates": [
              13.4432184,
              48.5105114
            ]
          }
        },
        {
          "type": "Feature",
          "properties": {
            "id": "3559450348",
            "osm_type": "node",
            "lat": 48.5736323,
            "lon": 13.4558455,
            "level": "0",
            "name": "Joe Wasner",
            "opening_hours": "Mo-Sa 09:30-19:00",
            "phone": "+49 85198826679",
            "shop": "butcher",
            "website": "https://www.metzgereiwasner.de",
            "wheelchair": "yes"
          },
          "geometry": {
            "type": "Point",
            "coordinates": [
              13.4558455,
              48.5736323
            ]
          }
        },
        {
          "type": "Feature",
          "properties": {
            "id": "7436454494",
            "osm_type": "node",
            "lat": 48.4104944,
            "lon": 13.3461611,
            "name": "Landmetzgerei Binder",
            "opening_hours": "Th 15:00-18:00; Fr 08:00-16:00; Sa 07:00-11:00",
            "shop": "butcher",
            "website": "http://www.landmetzgereibinder.de"
          },
          "geometry": {
            "type": "Point",
            "coordinates": [
              13.3461611,
              48.4104944
            ]
          }
        },
        {
          "type": "Feature",
          "properties": {
            "id": "8842388956",
            "osm_type": "node",
            "lat": 48.5753442,
            "lon": 13.4029675,
            "addr:city": "Passau",
            "addr:country": "DE",
            "addr:housenumber": "52",
            "addr:postcode": "94036",
            "addr:street": "Holzmannstraße",
            "name": "Metzgerei Fischer mit Imbiss",
            "operator": "Metzgerei Fischer",
            "shop": "butcher"
          },
          "geometry": {
            "type": "Point",
            "coordinates": [
              13.4029675,
              48.5753442
            ]
          }
        },
        {
          "type": "Feature",
          "properties": {
            "id": "8842436886",
            "osm_type": "node",
            "lat": 48.5738535,
            "lon": 13.3886346,
            "name": "Metzgerei Heindl",
            "opening_hours": "Sa 07:00-15:00; Mo-Fr 07:00-19:00",
            "shop": "butcher"
          },
          "geometry": {
            "type": "Point",
            "coordinates": [
              13.3886346,
              48.5738535
            ]
          }
        },
        {
          "type": "Feature",
          "properties": {
            "id": "9271810425",
            "osm_type": "node",
            "lat": 48.6240465,
            "lon": 13.3999555,
            "shop": "butcher"
          },
          "geometry": {
            "type": "Point",
            "coordinates": [
              13.3999555,
              48.6240465
            ]
          }
        },
        {
          "type": "Feature",
          "properties": {
            "id": "309963145",
            "osm_type": "node",
            "lat": 48.615527,
            "lon": 13.5374759,
            "name": "Metzgerei Edelfurtner",
            "shop": "butcher",
            "wheelchair": "yes"
          },
          "geometry": {
            "type": "Point",
            "coordinates": [
              13.5374759,
              48.615527
            ]
          }
        },
        {
          "type": "Feature",
          "properties": {
            "id": "331597110",
            "osm_type": "node",
            "lat": 48.572288,
            "lon": 13.9904386,
            "addr:city": "Rohrbach-Berg",
            "addr:housenumber": "27",
            "addr:postcode": "4150",
            "addr:street": "Stadtplatz",
            "contact:website": "https://www.essenvombesten.at/",
            "name": "Fleischwaren Leibetseder",
            "opening_hours": "Mo,Tu,Th,Fr 07:00-17:00; We 07:00-13:30; Sa 07:00-12:00",
            "shop": "butcher",
            "wheelchair": "yes"
          },
          "geometry": {
            "type": "Point",
            "coordinates": [
              13.9904386,
              48.572288
            ]
          }
        },
        {
          "type": "Feature",
          "properties": {
            "id": "331610395",
            "osm_type": "node",
            "lat": 48.6465362,
            "lon": 13.9713404,
            "addr:city": "Aigen-Schlägl",
            "addr:country": "AT",
            "addr:housenumber": "13",
            "addr:postcode": "4160",
            "addr:street": "Marktplatz",
            "name": "Fleischhauerei Bitter",
            "shop": "butcher",
            "wheelchair": "no"
          },
          "geometry": {
            "type": "Point",
            "coordinates": [
              13.9713404,
              48.6465362
            ]
          }
        },
        {
          "type": "Feature",
          "properties": {
            "id": "1177654580",
            "osm_type": "node",
            "lat": 48.6009633,
            "lon": 13.7872233,
            "name": "Metzgerei Reichardt",
            "shop": "butcher"
          },
          "geometry": {
            "type": "Point",
            "coordinates": [
              13.7872233,
              48.6009633
            ]
          }
        },
        {
          "type": "Feature",
          "properties": {
            "id": "1458904378",
            "osm_type": "node",
            "lat": 48.4443135,
            "lon": 13.9363262,
            "addr:city": "Kirchberg ob der Donau",
            "addr:country": "AT",
            "addr:housenumber": "8",
            "addr:postcode": "4131",
            "addr:street": "Ortsplatz",
            "name": "Schaufleischerei Zalto-Höglinger",
            "shop": "butcher",
            "website": "http://www.zalto-hoeglinger.at"
          },
          "geometry": {
            "type": "Point",
            "coordinates": [
              13.9363262,
              48.4443135
            ]
          }
        },
        {
          "type": "Feature",
          "properties": {
            "id": "1644188493",
            "osm_type": "node",
            "lat": 48.5066595,
            "lon": 13.7320403,
            "addr:city": "Engelhartszell",
            "addr:country": "AT",
            "addr:housenumber": "29",
            "addr:postcode": "4090",
            "addr:street": "Marktstraße",
            "contact:phone": "+43 7717 8027",
            "name": "Metzger Moser",
            "opening_hours": "Mo-Tu 07:00-12:15, 14:30-18:00; We 07:00-12:15; Th-Fr 07:00-12:15, 14:30-18:00; Sa 07:00-12:00",
            "shop": "butcher"
          },
          "geometry": {
            "type": "Point",
            "coordinates": [
              13.7320403,
              48.5066595
            ]
          }
        },
        {
          "type": "Feature",
          "properties": {
            "id": "1717617397",
            "osm_type": "node",
            "lat": 48.4104241,
            "lon": 13.5370714,
            "name": "Moser",
            "shop": "butcher"
          },
          "geometry": {
            "type": "Point",
            "coordinates": [
              13.5370714,
              48.4104241
            ]
          }
        },
        {
          "type": "Feature",
          "properties": {
            "id": "2169032888",
            "osm_type": "node",
            "lat": 48.4560742,
            "lon": 13.9922037,
            "shop": "butcher"
          },
          "geometry": {
            "type": "Point",
            "coordinates": [
              13.9922037,
              48.4560742
            ]
          }
        },
        {
          "type": "Feature",
          "properties": {
            "id": "6183079660",
            "osm_type": "node",
            "lat": 48.4834386,
            "lon": 13.8094642,
            "addr:city": "Hofkirchen im Mühlkreis",
            "addr:housenumber": "31",
            "addr:postcode": "4142",
            "addr:street": "Markt",
            "operator": "Wolfgang Binder",
            "shop": "butcher"
          },
          "geometry": {
            "type": "Point",
            "coordinates": [
              13.8094642,
              48.4834386
            ]
          }
        },
        {
          "type": "Feature",
          "properties": {
            "id": "8296593974",
            "osm_type": "node",
            "lat": 48.6221675,
            "lon": 13.6612823,
            "addr:city": "Hauzenberg",
            "addr:country": "DE",
            "addr:housenumber": "2",
            "addr:postcode": "94051",
            "addr:street": "Langheinrichstraße",
            "addr:suburb": "Kropfmühl",
            "name": "Kammermeier",
            "organic": "yes",
            "payment:cards": "yes",
            "payment:cash": "yes",
            "payment:qr_code": "no",
            "shop": "butcher",
            "website": "https://www.kammermeier.info"
          },
          "geometry": {
            "type": "Point",
            "coordinates": [
              13.6612823,
              48.6221675
            ]
          }
        },
        {
          "type": "Feature",
          "properties": {
            "id": "475737470",
            "osm_type": "node",
            "lat": 48.5519083,
            "lon": 14.2190772,
            "name": "Fleischhauerei Enzenhofer",
            "shop": "butcher"
          },
          "geometry": {
            "type": "Point",
            "coordinates": [
              14.2190772,
              48.5519083
            ]
          }
        },
        {
          "type": "Feature",
          "properties": {
            "id": "475763312",
            "osm_type": "node",
            "lat": 48.5439159,
            "lon": 14.1432668,
            "name": "Fleischhauerei Wagner",
            "shop": "butcher"
          },
          "geometry": {
            "type": "Point",
            "coordinates": [
              14.1432668,
              48.5439159
            ]
          }
        },
        {
          "type": "Feature",
          "properties": {
            "id": "618155936",
            "osm_type": "node",
            "lat": 48.5263116,
            "lon": 14.2955917,
            "contact:phone": "+43 7213 6328",
            "name": "Hochreiter Fleischwaren GmbH",
            "shop": "butcher",
            "website": "https://www.hochreiter.cc/kontakt/"
          },
          "geometry": {
            "type": "Point",
            "coordinates": [
              14.2955917,
              48.5263116
            ]
          }
        },
        {
          "type": "Feature",
          "properties": {
            "id": "1536971821",
            "osm_type": "node",
            "lat": 48.5021847,
            "lon": 14.0830692,
            "name": "Fleischerei Enzenhofer",
            "shop": "butcher"
          },
          "geometry": {
            "type": "Point",
            "coordinates": [
              14.0830692,
              48.5021847
            ]
          }
        },
        {
          "type": "Feature",
          "properties": {
            "id": "4397079643",
            "osm_type": "node",
            "lat": 48.6596541,
            "lon": 14.1652938,
            "addr:city": "Frymburk",
            "addr:conscriptionnumber": "36",
            "addr:country": "CZ",
            "addr:housenumber": "36",
            "addr:place": "Frymburk",
            "addr:postcode": "38279",
            "alt_name": "Řeznictví Boháč Frymburk",
            "name": "U Kostela",
            "opening_hours": "Mo-Fr 08:00-12:00,13:00-17:00; Sa 08:30-11:00",
            "operator": "Řeznictví Boháč Frymburk",
            "phone": "+420 603 894 177",
            "shop": "butcher",
            "source:addr": "cuzk:ruian",
            "website": "https://www.reznictvibohac.cz/"
          },
          "geometry": {
            "type": "Point",
            "coordinates": [
              14.1652938,
              48.6596541
            ]
          }
        },
        {
          "type": "Feature",
          "properties": {
            "id": "9269346021",
            "osm_type": "node",
            "lat": 48.5586366,
            "lon": 14.1734456,
            "name": "Fleischerei Schuster Bernhard",
            "shop": "butcher",
            "wheelchair": "no"
          },
          "geometry": {
            "type": "Point",
            "coordinates": [
              14.1734456,
              48.5586366
            ]
          }
        }
      ],
      "children": []
    },
    {
      "bbox": {
        "south": 48.355971499999995,
        "west": 14.2994695,
        "north": 48.68652475,
        "east": 15.253173
      },
      "poiCount": 14,
      "leafCount": 14,
      "averagePosition": [
        14.8383094,
        48.52590822142857
      ],
      "data": [
        {
          "type": "Feature",
          "properties": {
            "id": "1284492747",
            "osm_type": "node",
            "lat": 48.5030046,
            "lon": 14.3632456,
            "name": "Qualitäts-Fleischhauerei Kreuzer Günter",
            "shop": "butcher"
          },
          "geometry": {
            "type": "Point",
            "coordinates": [
              14.3632456,
              48.5030046
            ]
          }
        },
        {
          "type": "Feature",
          "properties": {
            "id": "3013857078",
            "osm_type": "node",
            "lat": 48.5435759,
            "lon": 14.3848908,
            "addr:city": "Reichenthal",
            "addr:country": "AT",
            "addr:housenumber": "7",
            "addr:postcode": "4193",
            "addr:street": "Marktplatz",
            "name": "Fleischerei Kreuzer",
            "opening_hours": "Mo-Fr 07:00-12:00,14:30-18:00; Sa 07:00-12:00",
            "shop": "butcher",
            "website": "https://www.fleischerei-kreuzer.at/"
          },
          "geometry": {
            "type": "Point",
            "coordinates": [
              14.3848908,
              48.5435759
            ]
          }
        },
        {
          "type": "Feature",
          "properties": {
            "id": "4010444495",
            "osm_type": "node",
            "lat": 48.6152331,
            "lon": 14.3123724,
            "addr:city": "Vyšší Brod",
            "addr:conscriptionnumber": "35",
            "addr:country": "CZ",
            "addr:housenumber": "35",
            "addr:place": "Vyšší Brod",
            "addr:postcode": "38273",
            "addr:street": "Náměstí",
            "facebook": "https://www.facebook.com/reznictvibohac/",
            "name": "Řeznictví uzenářství Boháč",
            "opening_hours": "Mo-Fr 08:00-12:00,13:00-17:00; Sa 08:30-11:00",
            "operator": "Řeznictví Boháč Frymburk",
            "phone": "+420 778 088 611",
            "shop": "butcher",
            "source:addr": "cuzk:ruian",
            "website": "https://www.reznictvibohac.cz/"
          },
          "geometry": {
            "type": "Point",
            "coordinates": [
              14.3123724,
              48.6152331
            ]
          }
        },
        {
          "type": "Feature",
          "properties": {
            "id": "582480123",
            "osm_type": "node",
            "lat": 48.5744691,
            "lon": 14.9584783,
            "name": "Fleischerei Hirsch",
            "shop": "butcher"
          },
          "geometry": {
            "type": "Point",
            "coordinates": [
              14.9584783,
              48.5744691
            ]
          }
        },
        {
          "type": "Feature",
          "properties": {
            "id": "1604792581",
            "osm_type": "node",
            "lat": 48.4447863,
            "lon": 14.6788361,
            "name": "Dorfladen St.Leonhard",
            "shop": "butcher"
          },
          "geometry": {
            "type": "Point",
            "coordinates": [
              14.6788361,
              48.4447863
            ]
          }
        },
        {
          "type": "Feature",
          "properties": {
            "id": "1784519511",
            "osm_type": "node",
            "lat": 48.4774389,
            "lon": 14.7271309,
            "name": "Fleischerei Pilshofer",
            "shop": "butcher"
          },
          "geometry": {
            "type": "Point",
            "coordinates": [
              14.7271309,
              48.4774389
            ]
          }
        },
        {
          "type": "Feature",
          "properties": {
            "id": "3429803276",
            "osm_type": "node",
            "lat": 48.5738605,
            "lon": 14.955677,
            "name": "Pangerl Fleischhandel GmbH",
            "shop": "butcher"
          },
          "geometry": {
            "type": "Point",
            "coordinates": [
              14.955677,
              48.5738605
            ]
          }
        },
        {
          "type": "Feature",
          "properties": {
            "id": "4117459668",
            "osm_type": "node",
            "lat": 48.3842061,
            "lon": 14.7469039,
            "addr:city": "Schönau im Mühlkreis",
            "addr:country": "AT",
            "addr:housenumber": "26",
            "addr:postcode": "4274",
            "addr:street": "Mühlenweg",
            "email": "office@schwarzbergerhof.at",
            "fax": "+43 7261 20 800-80",
            "name": "Schwarzbergerhof",
            "opening_hours": "Fr 12:00-17:00; Sa 10:00-15:00",
            "phone": "+43 7261 20 800",
            "shop": "butcher",
            "website": "https://www.schwarzbergerhof.at/"
          },
          "geometry": {
            "type": "Point",
            "coordinates": [
              14.7469039,
              48.3842061
            ]
          }
        },
        {
          "type": "Feature",
          "properties": {
            "id": "1628876946",
            "osm_type": "node",
            "lat": 48.6387219,
            "lon": 15.0313979,
            "check_date:opening_hours": "2023-03-11",
            "name": "Laister",
            "opening_hours:signed": "no",
            "shop": "butcher"
          },
          "geometry": {
            "type": "Point",
            "coordinates": [
              15.0313979,
              48.6387219
            ]
          }
        },
        {
          "type": "Feature",
          "properties": {
            "id": "4523156634",
            "osm_type": "node",
            "lat": 48.395423,
            "lon": 15.2198189,
            "addr:city": "Kirchschlag",
            "addr:country": "AT",
            "addr:housenumber": "68",
            "addr:place": "Kirchschlag",
            "addr:postcode": "3631",
            "at_bev:addr_date": "2021-10-01",
            "name": "Fleischhauerei Gruber Erwin",
            "shop": "butcher"
          },
          "geometry": {
            "type": "Point",
            "coordinates": [
              15.2198189,
              48.395423
            ]
          }
        },
        {
          "type": "Feature",
          "properties": {
            "id": "4639585953",
            "osm_type": "node",
            "lat": 48.5218045,
            "lon": 15.078255,
            "name": "Fröschl Johann, Fleischerei",
            "shop": "butcher"
          },
          "geometry": {
            "type": "Point",
            "coordinates": [
              15.078255,
              48.5218045
            ]
          }
        },
        {
          "type": "Feature",
          "properties": {
            "id": "5062095366",
            "osm_type": "node",
            "lat": 48.6044002,
            "lon": 15.1680515,
            "name": "Böck Martin GmbH",
            "shop": "butcher"
          },
          "geometry": {
            "type": "Point",
            "coordinates": [
              15.1680515,
              48.6044002
            ]
          }
        },
        {
          "type": "Feature",
          "properties": {
            "id": "5570713986",
            "osm_type": "node",
            "lat": 48.6327603,
            "lon": 15.0720023,
            "name": "Wurst und Fleisch Laister",
            "shop": "butcher"
          },
          "geometry": {
            "type": "Point",
            "coordinates": [
              15.0720023,
              48.6327603
            ]
          }
        },
        {
          "type": "Feature",
          "properties": {
            "id": "10203472658",
            "osm_type": "node",
            "lat": 48.4530307,
            "lon": 15.039271,
            "name": "Rexerei-Fleischerei-Catering, Grünsteid",
            "operator": "Grünsteidl Franz und Andrea",
            "shop": "butcher",
            "website": "http://www.eingrext.at"
          },
          "geometry": {
            "type": "Point",
            "coordinates": [
              15.039271,
              48.4530307
            ]
          }
        }
      ],
      "children": []
    },
    {
      "bbox": {
        "south": 48.68652475,
        "west": 13.345766,
        "north": 49.017078,
        "east": 14.2994695
      },
      "poiCount": 26,
      "leafCount": 26,
      "averagePosition": [
        13.530224061538462,
        48.827148157692314
      ],
      "data": [
        {
          "type": "Feature",
          "properties": {
            "id": "1056067626",
            "osm_type": "node",
            "lat": 48.7790176,
            "lon": 13.4422464,
            "name": "Metzgerei",
            "shop": "butcher"
          },
          "geometry": {
            "type": "Point",
            "coordinates": [
              13.4422464,
              48.7790176
            ]
          }
        },
        {
          "type": "Feature",
          "properties": {
            "id": "1056084420",
            "osm_type": "node",
            "lat": 48.8000617,
            "lon": 13.5136822,
            "name": "Metzgerei Streifinger",
            "shop": "butcher"
          },
          "geometry": {
            "type": "Point",
            "coordinates": [
              13.5136822,
              48.8000617
            ]
          }
        },
        {
          "type": "Feature",
          "properties": {
            "id": "1731647069",
            "osm_type": "node",
            "lat": 48.8152105,
            "lon": 13.3593319,
            "name": "Metzgerei",
            "shop": "butcher"
          },
          "geometry": {
            "type": "Point",
            "coordinates": [
              13.3593319,
              48.8152105
            ]
          }
        },
        {
          "type": "Feature",
          "properties": {
            "id": "1770556587",
            "osm_type": "node",
            "lat": 48.8615345,
            "lon": 13.3941936,
            "name": "Metzgerei Mayer",
            "shop": "butcher"
          },
          "geometry": {
            "type": "Point",
            "coordinates": [
              13.3941936,
              48.8615345
            ]
          }
        },
        {
          "type": "Feature",
          "properties": {
            "id": "3349737111",
            "osm_type": "node",
            "lat": 48.7265146,
            "lon": 13.3826272,
            "addr:city": "Tittling",
            "addr:country": "DE",
            "addr:housenumber": "16",
            "addr:postcode": "94104",
            "addr:street": "Passauer Straße",
            "name": "Metzgerei Königsbauer",
            "shop": "butcher",
            "toilets:wheelchair": "no",
            "wheelchair": "yes"
          },
          "geometry": {
            "type": "Point",
            "coordinates": [
              13.3826272,
              48.7265146
            ]
          }
        },
        {
          "type": "Feature",
          "properties": {
            "id": "3423514356",
            "osm_type": "node",
            "lat": 48.7286166,
            "lon": 13.3801951,
            "addr:city": "Tittling",
            "addr:country": "DE",
            "addr:housenumber": "2",
            "addr:postcode": "94104",
            "addr:street": "Herrenstraße",
            "name": "Metzgerei Ranzinger",
            "shop": "butcher"
          },
          "geometry": {
            "type": "Point",
            "coordinates": [
              13.3801951,
              48.7286166
            ]
          }
        },
        {
          "type": "Feature",
          "properties": {
            "id": "3435306356",
            "osm_type": "node",
            "lat": 48.7278605,
            "lon": 13.3819461,
            "addr:city": "Tittling",
            "addr:country": "DE",
            "addr:housenumber": "7",
            "addr:postcode": "94104",
            "addr:street": "Lederergasse",
            "name": "Metzgerei Wagner",
            "opening_hours": "Mo 06:30-12:30;Tu-Fr 07:00-18:00;Sa 06:30-12:00",
            "shop": "butcher"
          },
          "geometry": {
            "type": "Point",
            "coordinates": [
              13.3819461,
              48.7278605
            ]
          }
        },
        {
          "type": "Feature",
          "properties": {
            "id": "9907611206",
            "osm_type": "node",
            "lat": 48.8027863,
            "lon": 13.5142078,
            "shop": "butcher"
          },
          "geometry": {
            "type": "Point",
            "coordinates": [
              13.5142078,
              48.8027863
            ]
          }
        },
        {
          "type": "Feature",
          "properties": {
            "id": "10572722956",
            "osm_type": "node",
            "lat": 48.7206626,
            "lon": 13.4607484,
            "name": "Metzgerei Franz Stegbauer",
            "opening_hours": "Mo-Fr 07:00-13:00; Mo, Th, Fr 14:00-18:00; Sa 07:00-12:00",
            "operator": "Franz Stegbauer",
            "shop": "butcher"
          },
          "geometry": {
            "type": "Point",
            "coordinates": [
              13.4607484,
              48.7206626
            ]
          }
        },
        {
          "type": "Feature",
          "properties": {
            "id": "1500360892",
            "osm_type": "node",
            "lat": 48.8092397,
            "lon": 13.5471453,
            "addr:city": "Freyung",
            "addr:country": "DE",
            "addr:housenumber": "1",
            "addr:postcode": "94078",
            "addr:street": "Grafenauer Straße",
            "contact:phone": "+49 8551 6555",
            "name": "Lederer",
            "opening_hours": "Mo-Fr 06:00-18:00; Sa 06:00-12:30; PH off",
            "operator": "Metzgerei Lederer GdbR",
            "shop": "butcher",
            "website": "http://metzgerei-lederer.de/"
          },
          "geometry": {
            "type": "Point",
            "coordinates": [
              13.5471453,
              48.8092397
            ]
          }
        },
        {
          "type": "Feature",
          "properties": {
            "id": "1501106969",
            "osm_type": "node",
            "lat": 48.8081812,
            "lon": 13.5464075,
            "addr:city": "Freyung",
            "addr:country": "DE",
            "addr:housenumber": "15",
            "addr:postcode": "94078",
            "addr:street": "Schulgasse",
            "contact:facebook": "https://de-de.facebook.com/metzgereibrodinger/",
            "name": "Brodinger",
            "opening_hours": "Mo,We,Th 08:00-18:00; Tu 08:00-13:00; Fr 07:00-17:00; Sa 07:00-10:00; PH off",
            "operator": "Brodinger Josef",
            "shop": "butcher",
            "website": "https://www.metzgerei-brodinger.de/"
          },
          "geometry": {
            "type": "Point",
            "coordinates": [
              13.5464075,
              48.8081812
            ]
          }
        },
        {
          "type": "Feature",
          "properties": {
            "id": "1508489347",
            "osm_type": "node",
            "lat": 48.8006465,
            "lon": 13.5492584,
            "name": "Mayerhofer",
            "shop": "butcher"
          },
          "geometry": {
            "type": "Point",
            "coordinates": [
              13.5492584,
              48.8006465
            ]
          }
        },
        {
          "type": "Feature",
          "properties": {
            "id": "1509484740",
            "osm_type": "node",
            "lat": 48.8352708,
            "lon": 13.589294,
            "addr:housenumber": "12",
            "addr:postcode": "94146",
            "addr:street": "Kohlstatt",
            "name": "Fastner",
            "shop": "butcher"
          },
          "geometry": {
            "type": "Point",
            "coordinates": [
              13.589294,
              48.8352708
            ]
          }
        },
        {
          "type": "Feature",
          "properties": {
            "id": "2691174211",
            "osm_type": "node",
            "lat": 48.8247434,
            "lon": 13.7749406,
            "name": "Metzgerei Blöchl",
            "shop": "butcher"
          },
          "geometry": {
            "type": "Point",
            "coordinates": [
              13.7749406,
              48.8247434
            ]
          }
        },
        {
          "type": "Feature",
          "properties": {
            "id": "3692810338",
            "osm_type": "node",
            "lat": 48.8073642,
            "lon": 13.5477461,
            "addr:city": "Freyung",
            "addr:country": "DE",
            "addr:housenumber": "1",
            "addr:postcode": "94078",
            "addr:street": "Abteistraße",
            "contact:website": "https://www.metzgerei-beer.de/",
            "name": "Beer",
            "opening_hours": "Mo-Fr 07:00-12:30,13:30-18:00; Sa 07:00-12:00; PH off",
            "operator": "Metzgerei Beer GmbH",
            "shop": "butcher"
          },
          "geometry": {
            "type": "Point",
            "coordinates": [
              13.5477461,
              48.8073642
            ]
          }
        },
        {
          "type": "Feature",
          "properties": {
            "id": "5873326613",
            "osm_type": "node",
            "lat": 48.8225114,
            "lon": 13.6010511,
            "addr:city": "Hinterschmiding",
            "addr:housenumber": "2",
            "addr:postcode": "94146",
            "addr:street": "Sonnenstraße",
            "name": "Landmetzgerei Fastner",
            "opening_hours": "Mo - Fr 06:30-12:30, 14:00-18:00; Sa 06:30-13:00; Su 09:30-10:30",
            "payment:ec_cards": "yes",
            "shop": "butcher"
          },
          "geometry": {
            "type": "Point",
            "coordinates": [
              13.6010511,
              48.8225114
            ]
          }
        },
        {
          "type": "Feature",
          "properties": {
            "id": "7056422529",
            "osm_type": "node",
            "lat": 48.730702,
            "lon": 13.6014571,
            "name": "Waki",
            "opening_hours": "Mo-Fr 07:00-18:00; Sa 07:00-13:00",
            "shop": "butcher",
            "website": "https://metzgerei-meindl.de"
          },
          "geometry": {
            "type": "Point",
            "coordinates": [
              13.6014571,
              48.730702
            ]
          }
        },
        {
          "type": "Feature",
          "properties": {
            "id": "11280329876",
            "osm_type": "node",
            "lat": 48.8543931,
            "lon": 14.206671,
            "addr:city": "Chvalšiny",
            "addr:housenumber": "251",
            "addr:postcode": "38208",
            "description": "maso a ryby z Chvalšin",
            "name": "Bourárna Chvalšiny",
            "operator": "vojenské lesy a statky",
            "payment:cash": "yes",
            "payment:credit_cards": "yes",
            "phone": "+420 605 026 451",
            "shop": "butcher",
            "website": "https://www.masozchvalsin.cz/"
          },
          "geometry": {
            "type": "Point",
            "coordinates": [
              14.206671,
              48.8543931
            ]
          }
        },
        {
          "type": "Feature",
          "properties": {
            "id": "473728154",
            "osm_type": "node",
            "lat": 48.9067902,
            "lon": 13.3846343,
            "addr:city": "Sankt Oswald-Riedlhütte",
            "addr:country": "DE",
            "addr:housenumber": "4",
            "addr:postcode": "94566",
            "addr:street": "Geheimrat-Frank-Straße",
            "contact:email": "info@metzgerei-f-baumann.de",
            "contact:phone": "+49 8553 1780",
            "contact:website": "https://metzgerei-baumann.eu/",
            "name": "Metzgerei Baumann",
            "shop": "butcher",
            "wheelchair": "no"
          },
          "geometry": {
            "type": "Point",
            "coordinates": [
              13.3846343,
              48.9067902
            ]
          }
        },
        {
          "type": "Feature",
          "properties": {
            "id": "835886845",
            "osm_type": "node",
            "lat": 48.8840242,
            "lon": 13.4756516,
            "addr:city": "Neuschönau",
            "addr:housenumber": "8",
            "addr:postcode": "94556",
            "addr:street": "Kaiserstraße",
            "name": "Metzgerei Lederer",
            "opening_hours": "Mo,We-Fr 07:00-18:00; Tu 07:00-13:00; Sa 07:00-12:00",
            "shop": "butcher",
            "wheelchair": "yes"
          },
          "geometry": {
            "type": "Point",
            "coordinates": [
              13.4756516,
              48.8840242
            ]
          }
        },
        {
          "type": "Feature",
          "properties": {
            "id": "6766177638",
            "osm_type": "node",
            "lat": 48.9139217,
            "lon": 13.3622281,
            "name": "Metzgerei Meier",
            "phone": "+49 8553 1273",
            "shop": "butcher"
          },
          "geometry": {
            "type": "Point",
            "coordinates": [
              13.3622281,
              48.9139217
            ]
          }
        },
        {
          "type": "Feature",
          "properties": {
            "id": "6921733586",
            "osm_type": "node",
            "lat": 48.9157403,
            "lon": 13.3610533,
            "addr:city": "Spiegelau",
            "addr:country": "DE",
            "addr:housenumber": "26",
            "addr:postcode": "94518",
            "addr:street": "Hauptstraße",
            "name": "Metzgerei Schleinkofer",
            "phone": "+49 8553 1272",
            "shop": "butcher"
          },
          "geometry": {
            "type": "Point",
            "coordinates": [
              13.3610533,
              48.9157403
            ]
          }
        },
        {
          "type": "Feature",
          "properties": {
            "id": "6925535841",
            "osm_type": "node",
            "lat": 48.9165695,
            "lon": 13.3559926,
            "addr:city": "Spiegelau",
            "addr:housenumber": "1b",
            "addr:postcode": "94518",
            "addr:street": "Konrad-Wilsdorf-Straße",
            "name": "Metzgerei Baumann",
            "shop": "butcher"
          },
          "geometry": {
            "type": "Point",
            "coordinates": [
              13.3559926,
              48.9165695
            ]
          }
        },
        {
          "type": "Feature",
          "properties": {
            "id": "4956487221",
            "osm_type": "node",
            "lat": 48.9103272,
            "lon": 13.8910903,
            "shop": "butcher"
          },
          "geometry": {
            "type": "Point",
            "coordinates": [
              13.8910903,
              48.9103272
            ]
          }
        },
        {
          "type": "Feature",
          "properties": {
            "id": "8940342868",
            "osm_type": "node",
            "lat": 48.8878694,
            "lon": 13.584127,
            "addr:city": "Mauth",
            "addr:housenumber": "10",
            "addr:postcode": "94151",
            "addr:street": "Am Goldenen Steig",
            "name": "Metzgerei Beer",
            "opening_hours": "Mo,Tu,Th 06:30-13:00, 14:00-17:45; We 06:30-14:00; Fr 06:30-17:45; Sa 07:00-12:00",
            "phone": "+498557241",
            "shop": "butcher",
            "website": "https://www.metzgerei-beer.de/"
          },
          "geometry": {
            "type": "Point",
            "coordinates": [
              13.584127,
              48.8878694
            ]
          }
        },
        {
          "type": "Feature",
          "properties": {
            "id": "12047129380",
            "osm_type": "node",
            "lat": 48.9152924,
            "lon": 13.5778986,
            "addr:housenumber": "37",
            "name": "Lederer",
            "opening_hours": "Mo,Tu,Sa 07:00-13:00; We,Th,Fr 07:00-18:00; PH off",
            "shop": "butcher"
          },
          "geometry": {
            "type": "Point",
            "coordinates": [
              13.5778986,
              48.9152924
            ]
          }
        }
      ],
      "children": []
    },
    {
      "bbox": {
        "south": 48.68652475,
        "west": 14.2994695,
        "north": 49.017078,
        "east": 15.253173
      },
      "poiCount": 30,
      "leafCount": 30,
      "averagePosition": [
        14.782987636666666,
        48.88649046333333
      ],
      "data": [
        {
          "type": "Feature",
          "properties": {
            "id": "2410892467",
            "osm_type": "node",
            "lat": 48.828963,
            "lon": 14.4624828,
            "addr:city": "Velešín",
            "addr:conscriptionnumber": "70",
            "addr:country": "CZ",
            "addr:housenumber": "70",
            "addr:postcode": "38232",
            "addr:street": "náměstí J. V. Kamarýta",
            "name": "Foitl řeznictví uzenářství",
            "ref:ruian:addr": "8741352",
            "shop": "butcher",
            "source:addr": "cuzk:ruian"
          },
          "geometry": {
            "type": "Point",
            "coordinates": [
              14.4624828,
              48.828963
            ]
          }
        },
        {
          "type": "Feature",
          "properties": {
            "id": "7031888283",
            "osm_type": "node",
            "lat": 48.8103787,
            "lon": 14.324084,
            "addr:city": "Český Krumlov",
            "addr:housenumber": "300",
            "addr:postcode": "381 01",
            "addr:street": "Kaplická",
            "check_date:opening_hours": "2024-07-05",
            "name": "Eco Farm CZ",
            "opening_hours:signed": "no",
            "phone": "+420 606 79 79 79",
            "shop": "butcher",
            "website": "https://www.eco-farm.cz/"
          },
          "geometry": {
            "type": "Point",
            "coordinates": [
              14.324084,
              48.8103787
            ]
          }
        },
        {
          "type": "Feature",
          "properties": {
            "id": "2477786806",
            "osm_type": "node",
            "lat": 48.7731334,
            "lon": 14.9859332,
            "addr:city": "Gmünd",
            "addr:country": "AT",
            "addr:housenumber": "33",
            "addr:postcode": "3950",
            "addr:street": "Stadtplatz",
            "contact:phone": "+43 2852 523 38",
            "name": "Fleischerei Fichtenbauer",
            "opening_hours": "Mo-Fr 07:30-18:00, Sa 07:30-12:00",
            "shop": "butcher",
            "website": "https://fleischerei-fichtenbauer.at/"
          },
          "geometry": {
            "type": "Point",
            "coordinates": [
              14.9859332,
              48.7731334
            ]
          }
        },
        {
          "type": "Feature",
          "properties": {
            "id": "2509419347",
            "osm_type": "node",
            "lat": 48.7698958,
            "lon": 14.9712287,
            "name": "Antoni",
            "shop": "butcher",
            "source": "survey"
          },
          "geometry": {
            "type": "Point",
            "coordinates": [
              14.9712287,
              48.7698958
            ]
          }
        },
        {
          "type": "Feature",
          "properties": {
            "id": "2863791004",
            "osm_type": "node",
            "lat": 48.7727587,
            "lon": 14.9854665,
            "name": "Gebharter",
            "opening_hours": "Mo-Fr 7:30-12:00,14:30-18:00",
            "shop": "butcher"
          },
          "geometry": {
            "type": "Point",
            "coordinates": [
              14.9854665,
              48.7727587
            ]
          }
        },
        {
          "type": "Feature",
          "properties": {
            "id": "3329388983",
            "osm_type": "node",
            "lat": 48.865465,
            "lon": 15.0123447,
            "addr:city": "Brand",
            "addr:housenumber": "5",
            "addr:place": "Brand",
            "addr:postcode": "3873",
            "name": "Zeller",
            "opening_hours": "Mo-Fr 07:00-12:00,14:30-18:00; Sa 07:00-11:00; Th 07:00-12:00",
            "operator": "Fam. Zeller",
            "shop": "butcher",
            "website": "https://www.fleischerei-zeller.at/"
          },
          "geometry": {
            "type": "Point",
            "coordinates": [
              15.0123447,
              48.865465
            ]
          }
        },
        {
          "type": "Feature",
          "properties": {
            "id": "8746535139",
            "osm_type": "node",
            "lat": 48.7007799,
            "lon": 14.8933537,
            "addr:city": "Weitra",
            "addr:housenumber": "1",
            "addr:postcode": "3970",
            "addr:street": "Rathausplatz",
            "name": "Fleischerei Nordwaldhof",
            "shop": "butcher",
            "website": "https://www.nordwaldhof.at/"
          },
          "geometry": {
            "type": "Point",
            "coordinates": [
              14.8933537,
              48.7007799
            ]
          }
        },
        {
          "type": "Feature",
          "properties": {
            "id": "8752822197",
            "osm_type": "node",
            "lat": 48.7963949,
            "lon": 14.835417,
            "addr:city": "Nové Hrady",
            "addr:country": "CZ",
            "addr:housenumber": "6",
            "addr:postcode": "37333",
            "addr:street": "Nakolice",
            "contact:facebook": "https://www.facebook.com/Statek-u-dvou-dub%C5%AF-Novohradsk%C3%A9-hory-883209795091227/",
            "email": "nakolice@gmail.com",
            "name": "Statek u dvou dubů",
            "phone": "+420 723 278 812",
            "shop": "butcher",
            "website": "http://www.statekudvoudubu.cz/"
          },
          "geometry": {
            "type": "Point",
            "coordinates": [
              14.835417,
              48.7963949
            ]
          }
        },
        {
          "type": "Feature",
          "properties": {
            "id": "10135269657",
            "osm_type": "node",
            "lat": 48.8219798,
            "lon": 15.01496,
            "contact:phone": "+43 2859 610 50",
            "name": "Fleischerei Strohmer",
            "shop": "butcher",
            "website": "https://www.fleischerei-strohmer.at/"
          },
          "geometry": {
            "type": "Point",
            "coordinates": [
              15.01496,
              48.8219798
            ]
          }
        },
        {
          "type": "Feature",
          "properties": {
            "id": "11494328031",
            "osm_type": "node",
            "lat": 48.7727715,
            "lon": 14.9859731,
            "addr:housenumber": "30",
            "addr:street": "Stadtplatz",
            "check_date": "2024-01-06",
            "name": "Wandl",
            "shop": "butcher"
          },
          "geometry": {
            "type": "Point",
            "coordinates": [
              14.9859731,
              48.7727715
            ]
          }
        },
        {
          "type": "Feature",
          "properties": {
            "id": "1371488215",
            "osm_type": "node",
            "lat": 48.8665864,
            "lon": 15.1214585,
            "name": "Zipko",
            "shop": "butcher"
          },
          "geometry": {
            "type": "Point",
            "coordinates": [
              15.1214585,
              48.8665864
            ]
          }
        },
        {
          "type": "Feature",
          "properties": {
            "id": "1374227376",
            "osm_type": "node",
            "lat": 48.8652889,
            "lon": 15.1245503,
            "name": "Grossmann",
            "shop": "butcher"
          },
          "geometry": {
            "type": "Point",
            "coordinates": [
              15.1245503,
              48.8652889
            ]
          }
        },
        {
          "type": "Feature",
          "properties": {
            "id": "1423950526",
            "osm_type": "node",
            "lat": 48.8329038,
            "lon": 15.0919573,
            "addr:city": "Amaliendorf-Aalfang",
            "addr:housenumber": "12",
            "addr:postcode": "3872",
            "addr:street": "Hauptstraße",
            "image": "https://www.fleischerei-fichtenbauer.at/tl_files/fotos/amaliendorf1.jpg",
            "name": "Landfleischerei Fichtenbauer",
            "opening_hours": "Mo-Fr 08:00-12:00,14:30-18:00, Sa 07:00-11:00; PH off",
            "payment:cash": "yes",
            "shop": "butcher",
            "website": "https://www.fleischerei-fichtenbauer.at/",
            "wheelchair": "yes"
          },
          "geometry": {
            "type": "Point",
            "coordinates": [
              15.0919573,
              48.8329038
            ]
          }
        },
        {
          "type": "Feature",
          "properties": {
            "id": "1933418926",
            "osm_type": "node",
            "lat": 48.7587669,
            "lon": 15.1812679,
            "name": "HERZOG Gottfried - Fleischhauerei",
            "shop": "butcher"
          },
          "geometry": {
            "type": "Point",
            "coordinates": [
              15.1812679,
              48.7587669
            ]
          }
        },
        {
          "type": "Feature",
          "properties": {
            "id": "11895549475",
            "osm_type": "node",
            "lat": 48.7629929,
            "lon": 15.1492985,
            "check_date": "2024-05-10",
            "name": "Diglas",
            "shop": "butcher"
          },
          "geometry": {
            "type": "Point",
            "coordinates": [
              15.1492985,
              48.7629929
            ]
          }
        },
        {
          "type": "Feature",
          "properties": {
            "id": "296798171",
            "osm_type": "node",
            "lat": 48.9710984,
            "lon": 14.5024876,
            "addr:conscriptionnumber": "1040",
            "addr:housename": "Řeznictví - uzenářství",
            "addr:housenumber": "1040/1",
            "addr:place": "České Budějovice 5",
            "addr:postcode": "37006",
            "addr:street": "Karla Tomana",
            "addr:streetnumber": "1",
            "name": "Řeznictví - uzenářství Drs",
            "ref:ruian:addr": "25273809",
            "shop": "butcher"
          },
          "geometry": {
            "type": "Point",
            "coordinates": [
              14.5024876,
              48.9710984
            ]
          }
        },
        {
          "type": "Feature",
          "properties": {
            "id": "2485170148",
            "osm_type": "node",
            "lat": 48.9745011,
            "lon": 14.4813524,
            "name": "Dědouch",
            "opening_hours": "Mo,Tu 08:00-16:30; We-Fr 08:00-17:30; Sa 08:00-11:30",
            "shop": "butcher",
            "source": "survey"
          },
          "geometry": {
            "type": "Point",
            "coordinates": [
              14.4813524,
              48.9745011
            ]
          }
        },
        {
          "type": "Feature",
          "properties": {
            "id": "4424878593",
            "osm_type": "node",
            "lat": 48.9911722,
            "lon": 14.4753716,
            "name": "Jihočeská masna",
            "opening_hours": "Mo-Fr 08:00-18:00",
            "shop": "butcher"
          },
          "geometry": {
            "type": "Point",
            "coordinates": [
              14.4753716,
              48.9911722
            ]
          }
        },
        {
          "type": "Feature",
          "properties": {
            "id": "5209302888",
            "osm_type": "node",
            "lat": 48.9798716,
            "lon": 14.4969745,
            "check_date": "2025-05-29",
            "name": "Rynek",
            "opening_hours": "Mo-Fr 08:00-17:30; Sa 08:00-11:30",
            "organic": "yes",
            "payment:cash": "yes",
            "payment:credit_cards": "yes",
            "payment:debit_cards": "yes",
            "payment:meal_voucher": "Sodexo",
            "phone": "+420702208735",
            "shop": "butcher",
            "website": "https://www.agrorynek.cz/"
          },
          "geometry": {
            "type": "Point",
            "coordinates": [
              14.4969745,
              48.9798716
            ]
          }
        },
        {
          "type": "Feature",
          "properties": {
            "id": "7777481426",
            "osm_type": "node",
            "lat": 48.9784209,
            "lon": 14.4775352,
            "check_date": "2025-04-15",
            "name": "Číhalovo Lišovské uzeniny",
            "shop": "butcher"
          },
          "geometry": {
            "type": "Point",
            "coordinates": [
              14.4775352,
              48.9784209
            ]
          }
        },
        {
          "type": "Feature",
          "properties": {
            "id": "7832781202",
            "osm_type": "node",
            "lat": 48.9907242,
            "lon": 14.4696196,
            "shop": "butcher"
          },
          "geometry": {
            "type": "Point",
            "coordinates": [
              14.4696196,
              48.9907242
            ]
          }
        },
        {
          "type": "Feature",
          "properties": {
            "id": "9423743967",
            "osm_type": "node",
            "lat": 48.9751184,
            "lon": 14.4870324,
            "check_date": "2025-04-23",
            "name": "Dědouch",
            "shop": "butcher",
            "website": "https://obchod.reznictvidedouch.cz",
            "wheelchair": "yes"
          },
          "geometry": {
            "type": "Point",
            "coordinates": [
              14.4870324,
              48.9751184
            ]
          }
        },
        {
          "type": "Feature",
          "properties": {
            "id": "10939571269",
            "osm_type": "node",
            "lat": 48.9825115,
            "lon": 14.4418182,
            "level": "0",
            "name": "Řeznictví Frank",
            "shop": "butcher",
            "wheelchair": "yes"
          },
          "geometry": {
            "type": "Point",
            "coordinates": [
              14.4418182,
              48.9825115
            ]
          }
        },
        {
          "type": "Feature",
          "properties": {
            "id": "11469084403",
            "osm_type": "node",
            "lat": 48.9746883,
            "lon": 14.4870105,
            "name": "Chlazená drůbež",
            "shop": "butcher"
          },
          "geometry": {
            "type": "Point",
            "coordinates": [
              14.4870105,
              48.9746883
            ]
          }
        },
        {
          "type": "Feature",
          "properties": {
            "id": "913634748",
            "osm_type": "node",
            "lat": 48.9317575,
            "lon": 14.6192815,
            "shop": "butcher"
          },
          "geometry": {
            "type": "Point",
            "coordinates": [
              14.6192815,
              48.9317575
            ]
          }
        },
        {
          "type": "Feature",
          "properties": {
            "id": "1934736763",
            "osm_type": "node",
            "lat": 49.0148038,
            "lon": 14.612699,
            "name": "Maso uzeniny",
            "opening_hours": "Mo-Fr 07:00-17:30, Sa 07:00-11:00",
            "shop": "butcher",
            "wheelchair": "no"
          },
          "geometry": {
            "type": "Point",
            "coordinates": [
              14.612699,
              49.0148038
            ]
          }
        },
        {
          "type": "Feature",
          "properties": {
            "id": "3149503411",
            "osm_type": "node",
            "lat": 49.0048167,
            "lon": 14.7593848,
            "name": "Antoni",
            "shop": "butcher"
          },
          "geometry": {
            "type": "Point",
            "coordinates": [
              14.7593848,
              49.0048167
            ]
          }
        },
        {
          "type": "Feature",
          "properties": {
            "id": "3149503414",
            "osm_type": "node",
            "lat": 49.003725,
            "lon": 14.7608824,
            "name": "Rabbit",
            "opening_hours": "Mo-Fr 07:00-17:30; Sa 07:00-11:30",
            "shop": "butcher"
          },
          "geometry": {
            "type": "Point",
            "coordinates": [
              14.7608824,
              49.003725
            ]
          }
        },
        {
          "type": "Feature",
          "properties": {
            "id": "2371962036",
            "osm_type": "node",
            "lat": 48.9441003,
            "lon": 15.0452783,
            "name": "Geitzenauer",
            "shop": "butcher"
          },
          "geometry": {
            "type": "Point",
            "coordinates": [
              15.0452783,
              48.9441003
            ]
          }
        },
        {
          "type": "Feature",
          "properties": {
            "id": "11531394662",
            "osm_type": "node",
            "lat": 48.8783444,
            "lon": 15.2331249,
            "name": "Fleischerei Kainz e.U.",
            "shop": "butcher"
          },
          "geometry": {
            "type": "Point",
            "coordinates": [
              15.2331249,
              48.8783444
            ]
          }
        }
      ],
      "children": []
    }
  ]
}