{
  "bbox": {
    "south": 47.033758500000005,
    "west": 11.438358999999998,
    "north": 47.694865,
    "east": 13.345766
  },
  "poiCount": 82,
  "leafCount": 0,
  "averagePosition": [
    12.227111679268294,
    47.432882881707314
  ],
  "data": [],
  "children": [
    {
      "bbox": {
        "south": 47.033758500000005,
        "west": 11.438358999999998,
        "north": 47.36431175,
        "east": 12.392062499999998
      },
      "poiCount": 24,
      "leafCount": 24,
      "averagePosition": [
        11.726378599999999,
        47.24656847083333
      ],
      "data": [
        {
          "type": "Feature",
          "properties": {
            "id": "258163993",
            "osm_type": "node",
            "lat": 47.2522634,
            "lon": 11.5028526,
            "name": "Metzgerei Brunner",
            "shop": "butcher",
            "website": "http://www.brunnerhof.at/"
          },
          "geometry": {
            "type": "Point",
            "coordinates": [
              11.5028526,
              47.2522634
            ]
          }
        },
        {
          "type": "Feature",
          "properties": {
            "id": "4400677714",
            "osm_type": "node",
            "lat": 47.0620748,
            "lon": 11.4977306,
            "name": "Fleischhauerei/Selcherei Ulrich Gogl",
            "shop": "butcher"
          },
          "geometry": {
            "type": "Point",
            "coordinates": [
              11.4977306,
              47.0620748
            ]
          }
        },
        {
          "type": "Feature",
          "properties": {
            "id": "4403758498",
            "osm_type": "node",
            "lat": 47.2827649,
            "lon": 11.5079716,
            "addr:city": "Hall in Tirol",
            "addr:country": "AT",
            "addr:housenumber": "10",
            "addr:postcode": "6060",
            "addr:street": "Wallpachgasse",
            "name": "Hörtnagl",
            "opening_hours": "Mo-Fr 08:00-18:15; Sa 08:00-12:15",
            "phone": "+43 5223 54294",
            "shop": "butcher",
            "website": "https://www.hoertnagl.at/",
            "wheelchair": "no"
          },
          "geometry": {
            "type": "Point",
            "coordinates": [
              11.5079716,
              47.2827649
            ]
          }
        },
        {
          "type": "Feature",
          "properties": {
            "id": "4790645721",
            "osm_type": "node",
            "lat": 47.2364075,
            "lon": 11.4468257,
            "name": "Piegger",
            "name:de": "Piegger",
            "opening_hours": "Mo-Tu, Th 07:30-13:00, 15:00-18:30; Fr 07:30-18:30; We 07:30-13:00; Sa 07:30-12:00",
            "phone": "+43 512 5383-2500",
            "shop": "butcher",
            "website": "https://www.piegger.at/"
          },
          "geometry": {
            "type": "Point",
            "coordinates": [
              11.4468257,
              47.2364075
            ]
          }
        },
        {
          "type": "Feature",
          "properties": {
            "id": "4790647122",
            "osm_type": "node",
            "lat": 47.2521214,
            "lon": 11.4476919,
            "name": "Piegger",
            "name:de": "Piegger",
            "opening_hours": "Mo-Th 08:00-12:00, 15:00-18:30; Sa 08:00-12:00; Fr 08:00-18:30",
            "shop": "butcher",
            "website": "https://www.piegger.at/meistermetzger-filialen.php"
          },
          "geometry": {
            "type": "Point",
            "coordinates": [
              11.4476919,
              47.2521214
            ]
          }
        },
        {
          "type": "Feature",
          "properties": {
            "id": "5927511179",
            "osm_type": "node",
            "lat": 47.2867054,
            "lon": 11.457707,
            "addr:city": "Rum",
            "addr:country": "AT",
            "addr:housenumber": "16",
            "addr:postcode": "6063",
            "addr:street": "Langer Graben",
            "name": "Metzgerei Brindlinger",
            "operator": "Metzgerei Brindlinger",
            "shop": "butcher"
          },
          "geometry": {
            "type": "Point",
            "coordinates": [
              11.457707,
              47.2867054
            ]
          }
        },
        {
          "type": "Feature",
          "properties": {
            "id": "6404076204",
            "osm_type": "node",
            "lat": 47.133124,
            "lon": 11.452032,
            "name": "Gerhard Türk",
            "shop": "butcher",
            "wheelchair": "yes"
          },
          "geometry": {
            "type": "Point",
            "coordinates": [
              11.452032,
              47.133124
            ]
          }
        },
        {
          "type": "Feature",
          "properties": {
            "id": "8176892200",
            "osm_type": "node",
            "lat": 47.2936337,
            "lon": 11.4751347,
            "addr:city": "Thaur",
            "addr:housenumber": "8",
            "addr:postcode": "6065",
            "addr:street": "Solegasse",
            "name": "Bartl's Hofmetzgerei",
            "shop": "butcher"
          },
          "geometry": {
            "type": "Point",
            "coordinates": [
              11.4751347,
              47.2936337
            ]
          }
        },
        {
          "type": "Feature",
          "properties": {
            "id": "10185420566",
            "osm_type": "node",
            "lat": 47.0905952,
            "lon": 11.4667627,
            "name": "Metzgerei Holzmann",
            "shop": "butcher"
          },
          "geometry": {
            "type": "Point",
            "coordinates": [
              11.4667627,
              47.0905952
            ]
          }
        },
        {
          "type": "Feature",
          "properties": {
            "id": "357592958",
            "osm_type": "node",
            "lat": 47.163307,
            "lon": 11.8612233,
            "diet:halal": "no",
            "diet:kosher": "no",
            "name": "Gasser",
            "opening_hours": "Mo-Fr 07:00-18:00; Sa 08:00-12:00",
            "payment:credit_cards": "yes",
            "payment:debit_cards": "yes",
            "shop": "butcher",
            "wheelchair": "yes"
          },
          "geometry": {
            "type": "Point",
            "coordinates": [
              11.8612233,
              47.163307
            ]
          }
        },
        {
          "type": "Feature",
          "properties": {
            "id": "1362526367",
            "osm_type": "node",
            "lat": 47.3418808,
            "lon": 11.682657,
            "name": "Prem",
            "shop": "butcher",
            "website": "https://metzgerei-prem.at/",
            "wheelchair": "yes"
          },
          "geometry": {
            "type": "Point",
            "coordinates": [
              11.682657,
              47.3418808
            ]
          }
        },
        {
          "type": "Feature",
          "properties": {
            "id": "1629694813",
            "osm_type": "node",
            "lat": 47.2317775,
            "lon": 11.8847612,
            "check_date": "2023-06-25",
            "diet:halal": "no",
            "diet:kosher": "no",
            "name": "Gasser",
            "opening_hours": "Mo-Sa 07:30-12:30",
            "payment:credit_cards": "yes",
            "payment:debit_cards": "yes",
            "shop": "butcher",
            "wheelchair": "yes"
          },
          "geometry": {
            "type": "Point",
            "coordinates": [
              11.8847612,
              47.2317775
            ]
          }
        },
        {
          "type": "Feature",
          "properties": {
            "id": "1730667520",
            "osm_type": "node",
            "lat": 47.34762,
            "lon": 11.7071033,
            "addr:city": "Schwaz",
            "addr:housenumber": "10",
            "addr:postcode": "6130",
            "addr:street": "Andreas-Hofer-Straße",
            "check_date:opening_hours": "2023-07-21",
            "level": "0",
            "name": "Hörtnagl",
            "opening_hours": "Mo-Fr 09:00-19:00; Sa 09:00-18:00",
            "opening_hours:signed": "no",
            "phone": "+43 5242 62132",
            "shop": "butcher",
            "website": "https://www.hoertnagl.at/",
            "wheelchair": "yes"
          },
          "geometry": {
            "type": "Point",
            "coordinates": [
              11.7071033,
              47.34762
            ]
          }
        },
        {
          "type": "Feature",
          "properties": {
            "id": "1752782126",
            "osm_type": "node",
            "lat": 47.165612,
            "lon": 11.864134,
            "addr:country": "AT",
            "addr:housenumber": "382",
            "addr:postcode": "6290",
            "addr:street": "Scheulingstraße",
            "name": "Metzgerei Kröll",
            "shop": "butcher",
            "website": "www.kroell.at"
          },
          "geometry": {
            "type": "Point",
            "coordinates": [
              11.864134,
              47.165612
            ]
          }
        },
        {
          "type": "Feature",
          "properties": {
            "id": "1809959554",
            "osm_type": "node",
            "lat": 47.2911908,
            "lon": 11.886662,
            "addr:country": "AT",
            "addr:postcode": "6275",
            "addr:street": "Dorf 24",
            "name": "Metzgerei Nester",
            "shop": "butcher",
            "source": "local_knowledge",
            "website": "https://www.nester.at/"
          },
          "geometry": {
            "type": "Point",
            "coordinates": [
              11.886662,
              47.2911908
            ]
          }
        },
        {
          "type": "Feature",
          "properties": {
            "id": "2414534300",
            "osm_type": "node",
            "lat": 47.3498435,
            "lon": 11.8476952,
            "name": "Zillertaler Speckstuben",
            "shop": "butcher"
          },
          "geometry": {
            "type": "Point",
            "coordinates": [
              11.8476952,
              47.3498435
            ]
          }
        },
        {
          "type": "Feature",
          "properties": {
            "id": "2433779978",
            "osm_type": "node",
            "lat": 47.3476042,
            "lon": 11.8486489,
            "shop": "butcher"
          },
          "geometry": {
            "type": "Point",
            "coordinates": [
              11.8486489,
              47.3476042
            ]
          }
        },
        {
          "type": "Feature",
          "properties": {
            "id": "6610974790",
            "osm_type": "node",
            "lat": 47.2220536,
            "lon": 11.8698507,
            "shop": "butcher"
          },
          "geometry": {
            "type": "Point",
            "coordinates": [
              11.8698507,
              47.2220536
            ]
          }
        },
        {
          "type": "Feature",
          "properties": {
            "id": "8524732587",
            "osm_type": "node",
            "lat": 47.2824739,
            "lon": 11.8792444,
            "name": "Wegscheider",
            "shop": "butcher"
          },
          "geometry": {
            "type": "Point",
            "coordinates": [
              11.8792444,
              47.2824739
            ]
          }
        },
        {
          "type": "Feature",
          "properties": {
            "id": "8624737824",
            "osm_type": "node",
            "lat": 47.2056411,
            "lon": 11.8700671,
            "name": "Hörtnagl",
            "shop": "butcher",
            "website": "https://ezeb.at/"
          },
          "geometry": {
            "type": "Point",
            "coordinates": [
              11.8700671,
              47.2056411
            ]
          }
        },
        {
          "type": "Feature",
          "properties": {
            "id": "10982921563",
            "osm_type": "node",
            "lat": 47.295876,
            "lon": 11.9073651,
            "addr:city": "Stummerberg",
            "addr:place": "Stummerberg",
            "addr:postcode": "6276",
            "description": "Speck und  Wurst, aus eigener Herstellung, Bergkäse",
            "name": "Tannen - Alm",
            "shop": "butcher"
          },
          "geometry": {
            "type": "Point",
            "coordinates": [
              11.9073651,
              47.295876
            ]
          }
        },
        {
          "type": "Feature",
          "properties": {
            "id": "11417775234",
            "osm_type": "node",
            "lat": 47.2916365,
            "lon": 11.5918278,
            "name": "Metzgerei Strasser",
            "shop": "butcher"
          },
          "geometry": {
            "type": "Point",
            "coordinates": [
              11.5918278,
              47.2916365
            ]
          }
        },
        {
          "type": "Feature",
          "properties": {
            "id": "1376753209",
            "osm_type": "node",
            "lat": 47.2385275,
            "lon": 12.2010754,
            "addr:city": "Wald im Pinzgau",
            "addr:housenumber": "70",
            "addr:postcode": "5742",
            "addr:street": "Vorderkrimml",
            "contact:website": "http://www.speckdorf.at",
            "name": "Pinzga Speckdorf",
            "opening_hours": "Mo-Fr 08:00-18:00; Sa 07:00-12:00",
            "shop": "butcher"
          },
          "geometry": {
            "type": "Point",
            "coordinates": [
              12.2010754,
              47.2385275
            ]
          }
        },
        {
          "type": "Feature",
          "properties": {
            "id": "3358096694",
            "osm_type": "node",
            "lat": 47.2529086,
            "lon": 12.2760622,
            "addr:city": "Neukirchen am Großvenediger",
            "addr:country": "AT",
            "addr:housenumber": "33",
            "addr:postcode": "5741",
            "addr:street": "Marktstraße",
            "name": "Rumpold",
            "opening_hours": "Mo,We-Fr 07:30-12:30,14:30-18:00; Tu 07:30-12:30; Sa 07:30-12:00",
            "phone": "+43 6565 6228",
            "shop": "butcher",
            "website": "https://fleischhauerei-rumpold.at/"
          },
          "geometry": {
            "type": "Point",
            "coordinates": [
              12.2760622,
              47.2529086
            ]
          }
        }
      ],
      "children": []
    },
    {
      "bbox": {
        "south": 47.033758500000005,
        "west": 12.392062499999998,
        "north": 47.36431175,
        "east": 13.345766
      },
      "poiCount": 8,
      "leafCount": 8,
      "averagePosition": [
        12.871860550000001,
        47.27858575
      ],
      "data": [
        {
          "type": "Feature",
          "properties": {
            "id": "2151148241",
            "osm_type": "node",
            "lat": 47.280099,
            "lon": 12.482581,
            "addr:city": "Mittersill",
            "addr:housenumber": "5",
            "addr:postcode": "5730",
            "addr:street": "Kirchgasse",
            "email": "info@oberbrau.at",
            "fax": "+43 6562/6255-8",
            "name": "Oberbräu",
            "opening_hours": "Mo-Th 08:00-13:00,15:00-18:00; Sa 08:00-12:00; Fr 08:00-13:00,15:00-18:00",
            "operator": "Fam. Feuersinger",
            "phone": "+43656262550",
            "shop": "butcher",
            "website": "https://www.oberbrau.at/"
          },
          "geometry": {
            "type": "Point",
            "coordinates": [
              12.482581,
              47.280099
            ]
          }
        },
        {
          "type": "Feature",
          "properties": {
            "id": "8779568073",
            "osm_type": "node",
            "lat": 47.2865131,
            "lon": 12.5275435,
            "addr:city": "Stuhlfelden",
            "addr:country": "AT",
            "addr:housenumber": "2",
            "addr:postcode": "5724",
            "addr:street": "Bahnhofstraße",
            "at_bev:addr_date": "2021-04-01",
            "fax": "+43656242364",
            "name": "Fleischhauerei Altenberger",
            "phone": "+4365624236",
            "shop": "butcher"
          },
          "geometry": {
            "type": "Point",
            "coordinates": [
              12.5275435,
              47.2865131
            ]
          }
        },
        {
          "type": "Feature",
          "properties": {
            "id": "4429460249",
            "osm_type": "node",
            "lat": 47.3065679,
            "lon": 12.7919161,
            "name": "Schultes",
            "shop": "butcher",
            "website": "https://www.schultes-kg.at/"
          },
          "geometry": {
            "type": "Point",
            "coordinates": [
              12.7919161,
              47.3065679
            ]
          }
        },
        {
          "type": "Feature",
          "properties": {
            "id": "4429460251",
            "osm_type": "node",
            "lat": 47.3038288,
            "lon": 12.7923439,
            "shop": "butcher"
          },
          "geometry": {
            "type": "Point",
            "coordinates": [
              12.7923439,
              47.3038288
            ]
          }
        },
        {
          "type": "Feature",
          "properties": {
            "id": "7865012360",
            "osm_type": "node",
            "lat": 47.2928638,
            "lon": 12.9639646,
            "addr:city": "Taxenbach",
            "addr:country": "AT",
            "addr:housenumber": "31",
            "addr:postcode": "5660",
            "addr:street": "Marktstraße",
            "name": "Tauernlamm",
            "shop": "butcher",
            "website": "https://www.tauernlamm.at/"
          },
          "geometry": {
            "type": "Point",
            "coordinates": [
              12.9639646,
              47.2928638
            ]
          }
        },
        {
          "type": "Feature",
          "properties": {
            "id": "3441893507",
            "osm_type": "node",
            "lat": 47.3469771,
            "lon": 13.2023992,
            "addr:city": "Sankt Johann im Pongau",
            "addr:country": "AT",
            "addr:housenumber": "9",
            "addr:postcode": "5600",
            "addr:street": "Hans-Kappacher-Straße",
            "check_date:opening_hours": "2023-06-27",
            "email": "rettensteiner.office@sbg.at",
            "name": "Metzgerei Rettensteiner-Scharfetter",
            "opening_hours": "Mo-Fr 07:30-18:00; Sa 07:00-12:00",
            "phone": "+43 6412 20245",
            "shop": "butcher",
            "website": "https://www.metzgerei-rettensteiner-scharfetter.at/"
          },
          "geometry": {
            "type": "Point",
            "coordinates": [
              13.2023992,
              47.3469771
            ]
          }
        },
        {
          "type": "Feature",
          "properties": {
            "id": "4449516189",
            "osm_type": "node",
            "lat": 47.2421105,
            "lon": 13.1053465,
            "check_date": "2024-03-09",
            "name": "Dorfmetzgerei",
            "opening_hours": "Mo-Tu,Th-Fr 07:30-12:15,15:00-18:00; Sa 08:00-12:00",
            "payment:credit_cards": "yes",
            "payment:debit_cards": "yes",
            "shop": "butcher"
          },
          "geometry": {
            "type": "Point",
            "coordinates": [
              13.1053465,
              47.2421105
            ]
          }
        },
        {
          "type": "Feature",
          "properties": {
            "id": "5646074979",
            "osm_type": "node",
            "lat": 47.1697258,
            "lon": 13.1087896,
            "name": "Hutegger",
            "opening_hours": "Mo-Fr 07:30-12:00,15:00-17:00; Sa 07:30-12:00",
            "shop": "butcher",
            "website": "https://www.hutegger.at/"
          },
          "geometry": {
            "type": "Point",
            "coordinates": [
              13.1087896,
              47.1697258
            ]
          }
        }
      ],
      "children": []
    },
    {
      "bbox": {
        "south": 47.36431175,
        "west": 11.438358999999998,
        "north": 47.694865,
        "east": 12.392062499999998
      },
      "poiCount": 27,
      "leafCount": 27,
      "averagePosition": [
        12.03945665925926,
        47.536704092592586
      ],
      "data": [
        {
          "type": "Feature",
          "properties": {
            "id": "5926937113",
            "osm_type": "node",
            "lat": 47.368837,
            "lon": 11.7193454,
            "addr:city": "Stans",
            "addr:country": "AT",
            "addr:housenumber": "97",
            "addr:postcode": "6135",
            "addr:street": "Unterdorf",
            "name": "Steiner Bruno",
            "operator": "Bruno Steiner",
            "shop": "butcher"
          },
          "geometry": {
            "type": "Point",
            "coordinates": [
              11.7193454,
              47.368837
            ]
          }
        },
        {
          "type": "Feature",
          "properties": {
            "id": "419518862",
            "osm_type": "node",
            "lat": 47.4174209,
            "lon": 11.8781648,
            "addr:city": "Reith im Alpbachtal",
            "addr:country": "AT",
            "addr:housenumber": "4",
            "addr:postcode": "6235",
            "addr:street": "Dorf",
            "name": "Wimpissinger",
            "opening_hours": "Mo-Fr 08:00-12:00, 14:30-18:00; Sa 07:30-12:00",
            "operator": "Metzgerei Wimpissinger",
            "phone": "+43 5337 64307",
            "shop": "butcher",
            "website": "https://www.metzgerei-wimpissinger.at/"
          },
          "geometry": {
            "type": "Point",
            "coordinates": [
              11.8781648,
              47.4174209
            ]
          }
        },
        {
          "type": "Feature",
          "properties": {
            "id": "1782911096",
            "osm_type": "node",
            "lat": 47.4041772,
            "lon": 11.798245,
            "addr:country": "AT",
            "addr:housenumber": "18",
            "addr:place": "Dorf",
            "addr:postcode": "6210",
            "name": "Emmerich's Partyservice-Fleisch- u Feinkostladen",
            "name:ru": "Мясная лавка",
            "shop": "butcher"
          },
          "geometry": {
            "type": "Point",
            "coordinates": [
              11.798245,
              47.4041772
            ]
          }
        },
        {
          "type": "Feature",
          "properties": {
            "id": "2037071020",
            "osm_type": "node",
            "lat": 47.6741722,
            "lon": 12.0121297,
            "name": "Linderer",
            "shop": "butcher"
          },
          "geometry": {
            "type": "Point",
            "coordinates": [
              12.0121297,
              47.6741722
            ]
          }
        },
        {
          "type": "Feature",
          "properties": {
            "id": "5743866882",
            "osm_type": "node",
            "lat": 47.4687477,
            "lon": 11.9847094,
            "name": "Kerber",
            "shop": "butcher"
          },
          "geometry": {
            "type": "Point",
            "coordinates": [
              11.9847094,
              47.4687477
            ]
          }
        },
        {
          "type": "Feature",
          "properties": {
            "id": "7919189683",
            "osm_type": "node",
            "lat": 47.5307074,
            "lon": 11.7062701,
            "addr:city": "Achenkirch",
            "addr:housenumber": "407",
            "addr:postcode": "6215",
            "addr:street": "Untere Dorfstraße",
            "email": "metzgerei.maier@aon.at",
            "name": "Metzgerei Maier",
            "opening_hours": "Mo-Fr 08:00-18:00, Sa 07:45-12:30",
            "phone": "+43 5246 6257",
            "shop": "butcher"
          },
          "geometry": {
            "type": "Point",
            "coordinates": [
              11.7062701,
              47.5307074
            ]
          }
        },
        {
          "type": "Feature",
          "properties": {
            "id": "8202480290",
            "osm_type": "node",
            "lat": 47.441622,
            "lon": 11.891082,
            "name": "Metzgerei Osl",
            "shop": "butcher"
          },
          "geometry": {
            "type": "Point",
            "coordinates": [
              11.891082,
              47.441622
            ]
          }
        },
        {
          "type": "Feature",
          "properties": {
            "id": "8626098570",
            "osm_type": "node",
            "lat": 47.422399,
            "lon": 11.750935,
            "name": "Leitner",
            "shop": "butcher"
          },
          "geometry": {
            "type": "Point",
            "coordinates": [
              11.750935,
              47.422399
            ]
          }
        },
        {
          "type": "Feature",
          "properties": {
            "id": "12676700457",
            "osm_type": "node",
            "lat": 47.6872698,
            "lon": 11.7959384,
            "name": "Metzgerei Stephan Hagn",
            "opening_hours": "Mo-Sa 08:00-13:00",
            "phone": "+49 160 92949415",
            "shop": "butcher"
          },
          "geometry": {
            "type": "Point",
            "coordinates": [
              11.7959384,
              47.6872698
            ]
          }
        },
        {
          "type": "Feature",
          "properties": {
            "id": "12865022531",
            "osm_type": "node",
            "lat": 47.6911288,
            "lon": 11.7709305,
            "addr:city": "Rottach-Egern",
            "addr:housenumber": "16",
            "addr:postcode": "83700",
            "addr:street": "Nördliche Hauptstraße",
            "name": "Vinzenzmurr Metzgerei",
            "shop": "butcher"
          },
          "geometry": {
            "type": "Point",
            "coordinates": [
              11.7709305,
              47.6911288
            ]
          }
        },
        {
          "type": "Feature",
          "properties": {
            "id": "327436401",
            "osm_type": "node",
            "lat": 47.6377998,
            "lon": 12.2169346,
            "name": "Metzgerei Wäger",
            "shop": "butcher"
          },
          "geometry": {
            "type": "Point",
            "coordinates": [
              12.2169346,
              47.6377998
            ]
          }
        },
        {
          "type": "Feature",
          "properties": {
            "id": "538728090",
            "osm_type": "node",
            "lat": 47.4854341,
            "lon": 12.0644399,
            "contact:website": "http://metzgerei-schloegl.at/",
            "name": "Schlögl",
            "opening_hours": "Mo-Fr 07:30-13:00, 15:00-18:00; Sa 07:30-12:00",
            "shop": "butcher"
          },
          "geometry": {
            "type": "Point",
            "coordinates": [
              12.0644399,
              47.4854341
            ]
          }
        },
        {
          "type": "Feature",
          "properties": {
            "id": "860205535",
            "osm_type": "node",
            "lat": 47.4868888,
            "lon": 12.0667034,
            "name": "Graus",
            "shop": "butcher",
            "wheelchair": "limited"
          },
          "geometry": {
            "type": "Point",
            "coordinates": [
              12.0667034,
              47.4868888
            ]
          }
        },
        {
          "type": "Feature",
          "properties": {
            "id": "1264156634",
            "osm_type": "node",
            "lat": 47.6486148,
            "lon": 12.1717112,
            "name": "Metzgerei & Imbiss \"Am Krandl\"",
            "opening_hours": "Mo-Fr 08:00-18:00; Sa 08:00-13:00",
            "shop": "butcher",
            "website": "https://www.krandl.de/"
          },
          "geometry": {
            "type": "Point",
            "coordinates": [
              12.1717112,
              47.6486148
            ]
          }
        },
        {
          "type": "Feature",
          "properties": {
            "id": "1451226832",
            "osm_type": "node",
            "lat": 47.6671442,
            "lon": 12.1689287,
            "addr:country": "DE",
            "addr:housename": "Metzgerei Keindl",
            "addr:housenumber": "2",
            "addr:postcode": "83080",
            "addr:street": "Dorfstraße",
            "name": "Metzgerei Keindl",
            "shop": "butcher",
            "website": "https://www.hotel-keindl.de"
          },
          "geometry": {
            "type": "Point",
            "coordinates": [
              12.1689287,
              47.6671442
            ]
          }
        },
        {
          "type": "Feature",
          "properties": {
            "id": "1457847373",
            "osm_type": "node",
            "lat": 47.5068246,
            "lon": 12.0639008,
            "name": "Wimpissinger",
            "opening_hours": "Mo-Fr 08:00-12:00,14:30-18:00;Sa 07:30-12:00",
            "shop": "butcher",
            "website": "https://www.metzgerei-wimpissinger.at/"
          },
          "geometry": {
            "type": "Point",
            "coordinates": [
              12.0639008,
              47.5068246
            ]
          }
        },
        {
          "type": "Feature",
          "properties": {
            "id": "1479364903",
            "osm_type": "node",
            "lat": 47.5941933,
            "lon": 12.1174168,
            "shop": "butcher"
          },
          "geometry": {
            "type": "Point",
            "coordinates": [
              12.1174168,
              47.5941933
            ]
          }
        },
        {
          "type": "Feature",
          "properties": {
            "id": "1481252241",
            "osm_type": "node",
            "lat": 47.6286266,
            "lon": 12.2145648,
            "shop": "butcher"
          },
          "geometry": {
            "type": "Point",
            "coordinates": [
              12.2145648,
              47.6286266
            ]
          }
        },
        {
          "type": "Feature",
          "properties": {
            "id": "1555606309",
            "osm_type": "node",
            "lat": 47.5940562,
            "lon": 12.1187602,
            "name": "Metzgerei Pfluger",
            "shop": "butcher"
          },
          "geometry": {
            "type": "Point",
            "coordinates": [
              12.1187602,
              47.5940562
            ]
          }
        },
        {
          "type": "Feature",
          "properties": {
            "id": "1711272374",
            "osm_type": "node",
            "lat": 47.5139661,
            "lon": 12.0892792,
            "name": "Metzgerei Schroll",
            "shop": "butcher",
            "source": "geoimage.at MaxRes"
          },
          "geometry": {
            "type": "Point",
            "coordinates": [
              12.0892792,
              47.5139661
            ]
          }
        },
        {
          "type": "Feature",
          "properties": {
            "id": "2290781756",
            "osm_type": "node",
            "lat": 47.4837969,
            "lon": 12.3792636,
            "addr:city": "Oberndorf in Tirol",
            "addr:country": "AT",
            "addr:housenumber": "3b",
            "addr:postcode": "6372",
            "addr:street": "Pass-Thurn-Straße",
            "description": "Martlingmetzger - Produktion & Fleischgrosshandel",
            "name": "Huber",
            "official_name": "Metzgerei Huber GmbH",
            "phone": "Metzgerei Huber GmbH",
            "shop": "butcher",
            "website": "https://www.huber-metzger.at/"
          },
          "geometry": {
            "type": "Point",
            "coordinates": [
              12.3792636,
              47.4837969
            ]
          }
        },
        {
          "type": "Feature",
          "properties": {
            "id": "2952457732",
            "osm_type": "node",
            "lat": 47.6019146,
            "lon": 12.1458133,
            "addr:city": "Thiersee",
            "addr:housenumber": "15",
            "addr:postcode": "6335",
            "addr:street": "Marbling",
            "contact:email": "mail@biometzger.at",
            "contact:fax": "+43 5376 21300-15",
            "contact:phone": "+43 5376 21300",
            "contact:website": "http://www.biometzger.at/",
            "name": "Juffinger Bio-Metzgerei",
            "shop": "butcher",
            "source": "knowledge"
          },
          "geometry": {
            "type": "Point",
            "coordinates": [
              12.1458133,
              47.6019146
            ]
          }
        },
        {
          "type": "Feature",
          "properties": {
            "id": "3685465106",
            "osm_type": "node",
            "lat": 47.4894123,
            "lon": 12.0618785,
            "contact:website": "https://www.hoertnagl.at",
            "name": "Hörtnagl",
            "opening_hours": "Mo-Fr 08:00-18:00, 08:00-17:00",
            "shop": "butcher",
            "wheelchair": "yes"
          },
          "geometry": {
            "type": "Point",
            "coordinates": [
              12.0618785,
              47.4894123
            ]
          }
        },
        {
          "type": "Feature",
          "properties": {
            "id": "4271111793",
            "osm_type": "node",
            "lat": 47.4505763,
            "lon": 12.2490359,
            "name": "Knauer",
            "opening_hours": "Mo-Fr 07:30-12:00,15:00-18:00; Sa 07:30-12:00",
            "shop": "butcher"
          },
          "geometry": {
            "type": "Point",
            "coordinates": [
              12.2490359,
              47.4505763
            ]
          }
        },
        {
          "type": "Feature",
          "properties": {
            "id": "5318875323",
            "osm_type": "node",
            "lat": 47.4885888,
            "lon": 12.0695305,
            "level": "0",
            "name": "Hörtnagl",
            "opening_hours": "Mo-Fr 09:00-18:30; Sa 09:00-18:00",
            "shop": "butcher",
            "website": "https://www.hoertnagl.at/"
          },
          "geometry": {
            "type": "Point",
            "coordinates": [
              12.0695305,
              47.4885888
            ]
          }
        },
        {
          "type": "Feature",
          "properties": {
            "id": "8852593671",
            "osm_type": "node",
            "lat": 47.4573044,
            "lon": 12.3866437,
            "name": "Fuchs",
            "shop": "butcher"
          },
          "geometry": {
            "type": "Point",
            "coordinates": [
              12.3866437,
              47.4573044
            ]
          }
        },
        {
          "type": "Feature",
          "properties": {
            "id": "9888230463",
            "osm_type": "node",
            "lat": 47.6493867,
            "lon": 12.1727744,
            "addr:postcode": "83080",
            "name": "Hampp",
            "outdoor_seating": "no",
            "shop": "butcher"
          },
          "geometry": {
            "type": "Point",
            "coordinates": [
              12.1727744,
              47.6493867
            ]
          }
        }
      ],
      "children": []
    },
    {
      "bbox": {
        "south": 47.36431175,
        "west": 12.392062499999998,
        "north": 47.694865,
        "east": 13.345766
      },
      "poiCount": 23,
      "leafCount": 23,
      "averagePosition": [
        12.745645960869567,
        47.55908941304347
      ],
      "data": [
        {
          "type": "Feature",
          "properties": {
            "id": "631906535",
            "osm_type": "node",
            "lat": 47.6774672,
            "lon": 12.4695798,
            "addr:city": "Reit im Winkl",
            "addr:country": "DE",
            "addr:housenumber": "8",
            "addr:postcode": "83242",
            "addr:street": "Rathausplatz",
            "brand": "Vinzenzmurr",
            "brand:wikidata": "Q2527361",
            "brand:wikipedia": "de:Vinzenzmurr",
            "name": "Vinzenzmurr",
            "opening_hours": "Mo,We-Fr 08:30-17:30; Sa 08:00-13:00; PH off",
            "phone": "+49 8640 5468",
            "shop": "butcher",
            "website": "https://vinzenzmurr.de/metzgerei/reit-im-winkl/"
          },
          "geometry": {
            "type": "Point",
            "coordinates": [
              12.4695798,
              47.6774672
            ]
          }
        },
        {
          "type": "Feature",
          "properties": {
            "id": "1408668300",
            "osm_type": "node",
            "lat": 47.6689283,
            "lon": 12.4043274,
            "name": "Wäger",
            "shop": "butcher"
          },
          "geometry": {
            "type": "Point",
            "coordinates": [
              12.4043274,
              47.6689283
            ]
          }
        },
        {
          "type": "Feature",
          "properties": {
            "id": "2129528190",
            "osm_type": "node",
            "lat": 47.4451321,
            "lon": 12.3921246,
            "addr:city": "Kitzbühel",
            "addr:country": "AT",
            "addr:housenumber": "14",
            "addr:postcode": "6370",
            "addr:street": "Bichlstraße",
            "check_date": "2024-11-02",
            "name": "Huber",
            "opening_hours": "Mo-Fr 08:15-18:00; Sa 08:15-12:30; Su,PH off",
            "operator": "Josef Huber Martlingmetzger e.U.",
            "phone": "+43 5356 62480",
            "shop": "butcher",
            "source": "website",
            "website": "https://huber-metzger.at",
            "wheelchair": "no"
          },
          "geometry": {
            "type": "Point",
            "coordinates": [
              12.3921246,
              47.4451321
            ]
          }
        },
        {
          "type": "Feature",
          "properties": {
            "id": "6027859044",
            "osm_type": "node",
            "lat": 47.5208308,
            "lon": 12.427417,
            "addr:city": "St. Johann in Tirol",
            "addr:country": "AT",
            "addr:housenumber": "1",
            "addr:postcode": "6380",
            "addr:street": "Brauweg",
            "check_date:opening_hours": "2021-08-02",
            "name": "Hörtnagl",
            "opening_hours": "Mo-Fr 08:00-18:00; Sa 08:00-12:30",
            "operator": "Martin Fahringer",
            "phone": "+43535290405",
            "shop": "butcher",
            "source": "Lokalerhebung 2012-2019",
            "website": "https://www.hoertnagl.at/"
          },
          "geometry": {
            "type": "Point",
            "coordinates": [
              12.427417,
              47.5208308
            ]
          }
        },
        {
          "type": "Feature",
          "properties": {
            "id": "8856125679",
            "osm_type": "node",
            "lat": 47.3811495,
            "lon": 12.419242,
            "name": "Krimbacher",
            "shop": "butcher"
          },
          "geometry": {
            "type": "Point",
            "coordinates": [
              12.419242,
              47.3811495
            ]
          }
        },
        {
          "type": "Feature",
          "properties": {
            "id": "8887807053",
            "osm_type": "node",
            "lat": 47.6616223,
            "lon": 12.4042988,
            "name": "Gründler",
            "shop": "butcher"
          },
          "geometry": {
            "type": "Point",
            "coordinates": [
              12.4042988,
              47.6616223
            ]
          }
        },
        {
          "type": "Feature",
          "properties": {
            "id": "12478710804",
            "osm_type": "node",
            "lat": 47.4458436,
            "lon": 12.3928784,
            "check_date": "2025-01-06",
            "contact:instagram": "https://www.instagram.com/_Oezers_",
            "name": "Feinkost Özer",
            "shop": "butcher"
          },
          "geometry": {
            "type": "Point",
            "coordinates": [
              12.3928784,
              47.4458436
            ]
          }
        },
        {
          "type": "Feature",
          "properties": {
            "id": "256004287",
            "osm_type": "node",
            "lat": 47.6108721,
            "lon": 12.9783963,
            "check_date": "2023-07-31",
            "level": "0",
            "name": "Landmetzgerei Hölzl",
            "opening_hours": "Mo-Fr 07:30-12:30,14:30-18:00; Sa 07:30-12:00; PH closed",
            "shop": "butcher",
            "wheelchair": "no",
            "wheelchair:description": "2 Stufen mit je 15cm Höhe",
            "wheelchair:step_height": "15"
          },
          "geometry": {
            "type": "Point",
            "coordinates": [
              12.9783963,
              47.6108721
            ]
          }
        },
        {
          "type": "Feature",
          "properties": {
            "id": "475708324",
            "osm_type": "node",
            "lat": 47.6255118,
            "lon": 13.0012812,
            "addr:city": "Berchtesgaden",
            "addr:country": "DE",
            "addr:housenumber": "3",
            "addr:postcode": "83471",
            "addr:street": "Königsseer Straße",
            "contact:email": "heidi.kastner@t-online.de",
            "contact:phone": "+49 8652 2270",
            "contact:website": "https://www.landhaus-kastner.de/eigene-metzgerei/",
            "name": "Kastner",
            "opening_hours": "Mo-Fr 07:30-17:00, Sa 07:30-12:00, Su,PH off",
            "shop": "butcher",
            "wheelchair": "no"
          },
          "geometry": {
            "type": "Point",
            "coordinates": [
              13.0012812,
              47.6255118
            ]
          }
        },
        {
          "type": "Feature",
          "properties": {
            "id": "648664657",
            "osm_type": "node",
            "lat": 47.582686,
            "lon": 12.5693893,
            "name": "Metzgerei Stigger",
            "shop": "butcher"
          },
          "geometry": {
            "type": "Point",
            "coordinates": [
              12.5693893,
              47.582686
            ]
          }
        },
        {
          "type": "Feature",
          "properties": {
            "id": "802511282",
            "osm_type": "node",
            "lat": 47.5857598,
            "lon": 12.6913733,
            "addr:city": "Lofer",
            "addr:country": "AT",
            "addr:housenumber": "47",
            "addr:place": "Lofer",
            "addr:postcode": "5090",
            "contact:email": "info@rass.at",
            "contact:fax": "43 6588 8209-15",
            "contact:phone": "+43 6588 8209",
            "level": "0",
            "name": "Fleischhauerei Rass",
            "opening_hours": "Mo-Fr 07:30-13:00 ,14:30-18:00 ; Sa 07:30-12:00",
            "shop": "butcher",
            "website": "https://www.rass.at/"
          },
          "geometry": {
            "type": "Point",
            "coordinates": [
              12.6913733,
              47.5857598
            ]
          }
        },
        {
          "type": "Feature",
          "properties": {
            "id": "1829804291",
            "osm_type": "node",
            "lat": 47.6036809,
            "lon": 12.9858544,
            "addr:city": "Schönau am Königssee",
            "addr:country": "DE",
            "addr:housenumber": "11",
            "addr:postcode": "83471",
            "addr:street": "Untersteiner Straße",
            "check_date": "2025-07-21",
            "level": "0",
            "name": "Fritz Kastner",
            "opening_hours": "Mo-Fr 07:30-12:30,14:30-18:00; Sa 07:30-12:30",
            "payment:credit_cards": "yes",
            "payment:debit_cards": "yes",
            "shop": "butcher",
            "wheelchair": "limited",
            "wheelchair:description": "2 Stufen mit je 15cm Höhe",
            "wheelchair:entrance_width": "100",
            "wheelchair:step_height": "15"
          },
          "geometry": {
            "type": "Point",
            "coordinates": [
              12.9858544,
              47.6036809
            ]
          }
        },
        {
          "type": "Feature",
          "properties": {
            "id": "2130665127",
            "osm_type": "node",
            "lat": 47.424445,
            "lon": 12.8474754,
            "check_date:opening_hours": "2021-11-05",
            "name": "Fleischerei Fürstauer",
            "opening_hours": "Mo-Fr 08:00-12:00, Mo,Tu,Th,Fr 15:00-18:00; Sa 07:30-12:00; PH off",
            "shop": "butcher"
          },
          "geometry": {
            "type": "Point",
            "coordinates": [
              12.8474754,
              47.424445
            ]
          }
        },
        {
          "type": "Feature",
          "properties": {
            "id": "2427851658",
            "osm_type": "node",
            "lat": 47.5217378,
            "lon": 12.6015176,
            "name": "Stolzlechner",
            "shop": "butcher"
          },
          "geometry": {
            "type": "Point",
            "coordinates": [
              12.6015176,
              47.5217378
            ]
          }
        },
        {
          "type": "Feature",
          "properties": {
            "id": "6783525998",
            "osm_type": "node",
            "lat": 47.376743,
            "lon": 12.5846806,
            "name": "Feiersinger",
            "shop": "butcher",
            "website": "https://www.metzgerei-feiersinger.at/"
          },
          "geometry": {
            "type": "Point",
            "coordinates": [
              12.5846806,
              47.376743
            ]
          }
        },
        {
          "type": "Feature",
          "properties": {
            "id": "8904540489",
            "osm_type": "node",
            "lat": 47.4761358,
            "lon": 12.5466159,
            "name": "Horngacher",
            "shop": "butcher"
          },
          "geometry": {
            "type": "Point",
            "coordinates": [
              12.5466159,
              47.4761358
            ]
          }
        },
        {
          "type": "Feature",
          "properties": {
            "id": "10710053242",
            "osm_type": "node",
            "lat": 47.6500099,
            "lon": 12.7306661,
            "addr:housenumber": "33",
            "addr:place": "Niederland",
            "check_date": "2023-03-04",
            "name": "Dornauer",
            "shop": "butcher"
          },
          "geometry": {
            "type": "Point",
            "coordinates": [
              12.7306661,
              47.6500099
            ]
          }
        },
        {
          "type": "Feature",
          "properties": {
            "id": "12699713188",
            "osm_type": "node",
            "lat": 47.6473857,
            "lon": 12.9690539,
            "addr:city": "Bischofswiesen",
            "addr:country": "DE",
            "addr:housenumber": "3a",
            "addr:postcode": "83483",
            "addr:street": "Aschauerweiherstraße",
            "contact:email": "metzgerei-ehlermax@gmx.de",
            "contact:facebook": "https://fb.com/100093058523294",
            "contact:phone": "+49 8652 6556 036",
            "fixme": "Bitte Öffnungszeiten ergänzen",
            "name": "Ehler",
            "operator": "Maximilian Ehler",
            "shop": "butcher"
          },
          "geometry": {
            "type": "Point",
            "coordinates": [
              12.9690539,
              47.6473857
            ]
          }
        },
        {
          "type": "Feature",
          "properties": {
            "id": "1859773877",
            "osm_type": "node",
            "lat": 47.6837943,
            "lon": 13.0994377,
            "addr:city": "Hallein",
            "addr:country": "AT",
            "addr:housenumber": "2",
            "addr:postcode": "5400",
            "addr:street": "Lacknerweg",
            "name": "Metzger Lindlbauer",
            "shop": "butcher",
            "wheelchair": "yes"
          },
          "geometry": {
            "type": "Point",
            "coordinates": [
              13.0994377,
              47.6837943
            ]
          }
        },
        {
          "type": "Feature",
          "properties": {
            "id": "3534987610",
            "osm_type": "node",
            "lat": 47.6263517,
            "lon": 13.1429524,
            "addr:country": "AT",
            "addr:housenumber": "127",
            "addr:street": "Markt",
            "name": "Gumpold",
            "operator": "Gallus Gumpold",
            "shop": "butcher"
          },
          "geometry": {
            "type": "Point",
            "coordinates": [
              13.1429524,
              47.6263517
            ]
          }
        },
        {
          "type": "Feature",
          "properties": {
            "id": "3534991062",
            "osm_type": "node",
            "lat": 47.6261284,
            "lon": 13.1446462,
            "addr:city": "Kuchl",
            "addr:country": "AT",
            "addr:housenumber": "7",
            "addr:postcode": "5431",
            "addr:street": "Markt",
            "name": "Schnöll",
            "operator": "Fam. Schnöll",
            "shop": "butcher"
          },
          "geometry": {
            "type": "Point",
            "coordinates": [
              13.1446462,
              47.6261284
            ]
          }
        },
        {
          "type": "Feature",
          "properties": {
            "id": "4177731581",
            "osm_type": "node",
            "lat": 47.5975878,
            "lon": 13.1678164,
            "addr:city": "Golling an der Salzach",
            "addr:country": "AT",
            "addr:housenumber": "54",
            "addr:postcode": "5440",
            "addr:street": "Markt",
            "name": "Leutgeb",
            "shop": "butcher"
          },
          "geometry": {
            "type": "Point",
            "coordinates": [
              13.1678164,
              47.5975878
            ]
          }
        },
        {
          "type": "Feature",
          "properties": {
            "id": "12123674601",
            "osm_type": "node",
            "lat": 47.4192527,
            "lon": 13.1788324,
            "addr:housenumber": "7",
            "addr:postcode": "5500",
            "addr:street": "Gainfeld",
            "name": "Schreckbauer",
            "opening_hours": "Sa 09:00-12:00",
            "shop": "butcher",
            "website": "https://www.schreckbauer.at"
          },
          "geometry": {
            "type": "Point",
            "coordinates": [
              13.1788324,
              47.4192527
            ]
          }
        }
      ],
      "children": []
    }
  ]
}