{
  "bbox": {
    "south": 46.372652,
    "west": 11.438358999999998,
    "north": 47.033758500000005,
    "east": 13.345766
  },
  "poiCount": 185,
  "leafCount": 0,
  "averagePosition": [
    12.279654710810812,
    46.72398686918919
  ],
  "data": [],
  "children": [
    {
      "bbox": {
        "south": 46.372652,
        "west": 11.438358999999998,
        "north": 46.70320525,
        "east": 12.392062499999998
      },
      "poiCount": 27,
      "leafCount": 27,
      "averagePosition": [
        11.732749755555554,
        46.58152930740741
      ],
      "data": [
        {
          "type": "Feature",
          "properties": {
            "id": "751963093",
            "osm_type": "node",
            "lat": 46.5388561,
            "lon": 11.4590225,
            "amenity": "school",
            "name": "Mittelschule Ritten \"Hans von Hoffensthal\"",
            "website": "https://www.ssp-ritten.it/schulstellen/ms-ritten/"
          },
          "geometry": {
            "type": "Point",
            "coordinates": [
              11.4590225,
              46.5388561
            ]
          }
        },
        {
          "type": "Feature",
          "properties": {
            "id": "1579602881",
            "osm_type": "node",
            "lat": 46.5164565,
            "lon": 11.5022474,
            "amenity": "school",
            "name": "Grundschule Völs am Schlern"
          },
          "geometry": {
            "type": "Point",
            "coordinates": [
              11.5022474,
              46.5164565
            ]
          }
        },
        {
          "type": "Feature",
          "properties": {
            "id": "2448694071",
            "osm_type": "node",
            "lat": 46.4687448,
            "lon": 11.5261321,
            "addr:city": "Tiers",
            "addr:country": "IT",
            "addr:housenumber": "65",
            "addr:postcode": "39050",
            "addr:street": "St.-Georg-Straße - Via San Giorgio",
            "amenity": "school",
            "building": "school",
            "isced:level": "1",
            "name": "Grundschule Tiers - Scuola elementare di Tires",
            "name:de": "Grundschule Tiers",
            "name:it": "Scuola elementare in lingua tedesca di Tires",
            "phone": "+39 0471 642050"
          },
          "geometry": {
            "type": "Point",
            "coordinates": [
              11.5261321,
              46.4687448
            ]
          }
        },
        {
          "type": "Feature",
          "properties": {
            "id": "2584241176",
            "osm_type": "node",
            "lat": 46.4852397,
            "lon": 11.4556074,
            "amenity": "school",
            "name": "Grundschule Stephan Schroffenegger - Scuola elementare in lingua tedesca Collepietra",
            "name:de": "Volksschule Steinegg",
            "name:it": "Scuola elementare in lingua tedesca Collepietra"
          },
          "geometry": {
            "type": "Point",
            "coordinates": [
              11.4556074,
              46.4852397
            ]
          }
        },
        {
          "type": "Feature",
          "properties": {
            "id": "3801003145",
            "osm_type": "node",
            "lat": 46.5966212,
            "lon": 11.530175,
            "amenity": "school",
            "name": "Grundschule Waidbruck"
          },
          "geometry": {
            "type": "Point",
            "coordinates": [
              11.530175,
              46.5966212
            ]
          }
        },
        {
          "type": "Feature",
          "properties": {
            "id": "4861170877",
            "osm_type": "node",
            "lat": 46.5906641,
            "lon": 11.524875,
            "addr:city": "Kollmann - Colma",
            "addr:housenumber": "1",
            "addr:postcode": "39040",
            "addr:street": "Kirchweg - Via Chiesa",
            "amenity": "school",
            "email": "gs.kollmann@schule.suedtirol.it",
            "fax": "+39 0471 654530",
            "name": "Grundschule",
            "operator": "Grundschulsprengel Klausen II",
            "phone": "+39 0471 654530",
            "website": "https://www.klausen2.it/index.php/kollmann"
          },
          "geometry": {
            "type": "Point",
            "coordinates": [
              11.524875,
              46.5906641
            ]
          }
        },
        {
          "type": "Feature",
          "properties": {
            "id": "10111813320",
            "osm_type": "node",
            "lat": 46.5579308,
            "lon": 11.5213088,
            "addr:city": "Kastelruth - Castelrotto",
            "addr:city:de": "Kastelruth",
            "addr:city:it": "Castelrotto",
            "addr:housenumber": "16",
            "addr:place": "St. Oswald - San Osvaldo",
            "addr:place:de": "St. Oswald",
            "addr:place:it": "San Osvaldo",
            "addr:postcode": "39040",
            "amenity": "school",
            "name": "Grundschule St. Oswald"
          },
          "geometry": {
            "type": "Point",
            "coordinates": [
              11.5213088,
              46.5579308
            ]
          }
        },
        {
          "type": "Feature",
          "properties": {
            "id": "492811070",
            "osm_type": "node",
            "lat": 46.578943,
            "lon": 11.5994516,
            "amenity": "school",
            "name": "Grundschule St. Michael - Scuola elementare San Michele",
            "name:de": "Grundschule St. Michael",
            "name:it": "Scuola elementare San Michele"
          },
          "geometry": {
            "type": "Point",
            "coordinates": [
              11.5994516,
              46.578943
            ]
          }
        },
        {
          "type": "Feature",
          "properties": {
            "id": "1623822127",
            "osm_type": "node",
            "lat": 46.5502115,
            "lon": 11.8731841,
            "addr:country": "IT",
            "addr:housenumber": "9",
            "addr:postcode": "39033",
            "addr:street": "Strada Rütort",
            "amenity": "school",
            "name": "Scola Elementara",
            "name:de": "Volksschule",
            "name:it": "Scuola Elementare",
            "name:lld": "Scola Elementara"
          },
          "geometry": {
            "type": "Point",
            "coordinates": [
              11.8731841,
              46.5502115
            ]
          }
        },
        {
          "type": "Feature",
          "properties": {
            "id": "1659070145",
            "osm_type": "node",
            "lat": 46.6316967,
            "lon": 11.5402258,
            "amenity": "school",
            "name": "Volksschule Villanders - Scuola elementare di Villandro",
            "name:de": "Volksschule Villanders",
            "name:it": "Scuola elementare di Villandro"
          },
          "geometry": {
            "type": "Point",
            "coordinates": [
              11.5402258,
              46.6316967
            ]
          }
        },
        {
          "type": "Feature",
          "properties": {
            "id": "2301706486",
            "osm_type": "node",
            "lat": 46.5775563,
            "lon": 11.6703045,
            "amenity": "school",
            "check_date": "2024-08-09",
            "name": "Volksschule"
          },
          "geometry": {
            "type": "Point",
            "coordinates": [
              11.6703045,
              46.5775563
            ]
          }
        },
        {
          "type": "Feature",
          "properties": {
            "id": "2352648810",
            "osm_type": "node",
            "lat": 46.5449635,
            "lon": 11.5629922,
            "amenity": "school",
            "name": "Musikschule Seis",
            "wheelchair": "yes"
          },
          "geometry": {
            "type": "Point",
            "coordinates": [
              11.5629922,
              46.5449635
            ]
          }
        },
        {
          "type": "Feature",
          "properties": {
            "id": "2429582172",
            "osm_type": "node",
            "lat": 46.6405191,
            "lon": 11.5689245,
            "amenity": "school",
            "name": "Mittelschule Klausen - Scuola media di Chiusa",
            "name:de": "Mittelschule Klausen",
            "name:it": "Scuola media di Chiusa",
            "ref": "TBMM013006"
          },
          "geometry": {
            "type": "Point",
            "coordinates": [
              11.5689245,
              46.6405191
            ]
          }
        },
        {
          "type": "Feature",
          "properties": {
            "id": "2628881129",
            "osm_type": "node",
            "lat": 46.6662007,
            "lon": 11.5778531,
            "amenity": "school",
            "name": "Grundschule Garn"
          },
          "geometry": {
            "type": "Point",
            "coordinates": [
              11.5778531,
              46.6662007
            ]
          }
        },
        {
          "type": "Feature",
          "properties": {
            "id": "2749721081",
            "osm_type": "node",
            "lat": 46.6683371,
            "lon": 11.5998858,
            "addr:city": "Feldthurns - Velturno",
            "addr:city:de": "Feldthurns",
            "addr:city:it": "Velturno",
            "addr:housenumber": "3",
            "addr:postcode": "39040",
            "addr:street": "Kirchsteig - Vicolo della Chiesa",
            "addr:street:de": "Kirchsteig",
            "addr:street:it": "Vicolo della Chiesa",
            "amenity": "school"
          },
          "geometry": {
            "type": "Point",
            "coordinates": [
              11.5998858,
              46.6683371
            ]
          }
        },
        {
          "type": "Feature",
          "properties": {
            "id": "2755712458",
            "osm_type": "node",
            "lat": 46.65539,
            "lon": 11.5711156,
            "addr:city": "Klausen - Chiusa",
            "addr:city:de": "Klausen",
            "addr:city:it": "Chiusa",
            "addr:housenumber": "55a",
            "addr:place": "Verdings - Verdignes",
            "addr:place:de": "Verdings",
            "addr:place:it": "Verdignes",
            "addr:postcode": "39043",
            "amenity": "school",
            "name": "Grundschule"
          },
          "geometry": {
            "type": "Point",
            "coordinates": [
              11.5711156,
              46.65539
            ]
          }
        },
        {
          "type": "Feature",
          "properties": {
            "id": "3925743940",
            "osm_type": "node",
            "lat": 46.6410702,
            "lon": 11.8630034,
            "amenity": "school",
            "contact:city": "San Martin de Tor - St. Martin in Thurn - San Martino in Badia",
            "contact:city:de": "St. Martin in Thurn",
            "contact:city:it": "San Martino in Badia",
            "contact:city:lld": "San Martin de Tor",
            "contact:email": "gs.kampill@schule.suedtirol.it",
            "contact:hamlet": "Lungiarü - Campill - Longiarù",
            "contact:hamlet:de": "Campill",
            "contact:hamlet:it": "Longiarù",
            "contact:hamlet:lld": "Lungiarü",
            "contact:housenumber": "170",
            "contact:pec": "dir.raionala.alpllan@pec.prov.bz.it",
            "contact:phone": "+39 0474 590032",
            "contact:postcode": "39030",
            "contact:street": "Streda Santa Lizia - Straße Santa Lizia - Strada Santa Lizia",
            "contact:street:de": "Straße Santa Lizia",
            "contact:street:it": "Strada Santa Lizia",
            "contact:street:lld": "Streda Santa Lizia",
            "contact:website": "https://www.direziunalplan.it/luoghi?id=52",
            "grades": "1-5",
            "isced:level": "1",
            "name": "Scora elementara Lungiarü - Grundschule Campill - Scuola elementare di Longiarù",
            "name:de": "Grundschule Campill",
            "name:it": "Scuola elementare di Longiarù",
            "name:lld": "Scora elementara Lungiarü",
            "operator": "Direziun Raionala de scora Ladina Al Plan de Mareo - Ladinischer Schulsprengel St. Vigil in Enneberg - Istituto comprensivo delle località Ladine San Vigilio di Marebbe",
            "operator:de": "Ladinischer Schulsprengel St. Vigil in Enneberg",
            "operator:it": "Istituto comprensivo delle località Ladine San Vigilio di Marebbe",
            "operator:lld": "Direziun Raionala de scora Ladina Al Plan de Mareo",
            "operator:ref": "LBIC803006",
            "operator:short:de": "SSP St. Vigil",
            "operator:type": "public",
            "operator:website": "https://www.direziunalplan.it/",
            "ref": "LBEE80305C",
            "ref:tax_id": "81009960212",
            "school:gender": "mixed",
            "school:language": "de",
            "short_name:de": "GS Campill"
          },
          "geometry": {
            "type": "Point",
            "coordinates": [
              11.8630034,
              46.6410702
            ]
          }
        },
        {
          "type": "Feature",
          "properties": {
            "id": "4396324100",
            "osm_type": "node",
            "lat": 46.5718906,
            "lon": 11.6784688,
            "amenity": "school",
            "name": "Assudei",
            "name:de": "Assudei",
            "name:it": "Assudei"
          },
          "geometry": {
            "type": "Point",
            "coordinates": [
              11.6784688,
              46.5718906
            ]
          }
        },
        {
          "type": "Feature",
          "properties": {
            "id": "4861172802",
            "osm_type": "node",
            "lat": 46.6681316,
            "lon": 11.6917297,
            "addr:city": "Afers - Eores",
            "addr:housenumber": "180c",
            "amenity": "school",
            "email": "GS.Afers@schule.suedtirol.it",
            "name": "Grundschule",
            "operator": "Schulsprengel Brixen/ Milland",
            "phone": "+39 0472 521396"
          },
          "geometry": {
            "type": "Point",
            "coordinates": [
              11.6917297,
              46.6681316
            ]
          }
        },
        {
          "type": "Feature",
          "properties": {
            "id": "7200827804",
            "osm_type": "node",
            "lat": 46.5717354,
            "lon": 11.6791594,
            "amenity": "school",
            "check_date": "2025-07-29",
            "name": "ITE Wirtschaftsfachoberschule"
          },
          "geometry": {
            "type": "Point",
            "coordinates": [
              11.6791594,
              46.5717354
            ]
          }
        },
        {
          "type": "Feature",
          "properties": {
            "id": "10745392417",
            "osm_type": "node",
            "lat": 46.6424616,
            "lon": 11.7114625,
            "amenity": "school",
            "name": "Grundschule",
            "ref": "TBEE014047"
          },
          "geometry": {
            "type": "Point",
            "coordinates": [
              11.7114625,
              46.6424616
            ]
          }
        },
        {
          "type": "Feature",
          "properties": {
            "id": "13032320490",
            "osm_type": "node",
            "lat": 46.682127,
            "lon": 11.8983476,
            "amenity": "school",
            "contact:city": "San Martin de Tor - St. Martin in Thurn - San Martino in Badia",
            "contact:city:de": "St. Martin in Thurn",
            "contact:city:it": "San Martino in Badia",
            "contact:city:lld": "San Martin de Tor",
            "contact:email": "gs.stmartinthurm@schule.suedtirol.it",
            "contact:fax": "+39 0474 523137",
            "contact:hamlet": "San Martino",
            "contact:hamlet:de": "St. Martin",
            "contact:hamlet:it": "San Martino",
            "contact:hamlet:lld": "San Martino",
            "contact:housenumber": "25",
            "contact:pec": "dir.raionala.alpllan@pec.prov.bz.it",
            "contact:phone": "+39 0474 523137",
            "contact:postcode": "39030",
            "contact:street": "Strada Tor",
            "contact:street:de": "Straße Tor",
            "contact:street:it": "Strada Tor",
            "contact:street:lld": "Strada Tor",
            "contact:website": "https://www.direziunalplan.it/luoghi?id=54",
            "grades": "1-5",
            "isced:level": "1",
            "name": "Scora elementara San Martin de Tor - Grundschule St. Martin in Thurn - Scuola elementare di San Martino in Badia",
            "name:de": "Grundschule St. Martin in Thurn",
            "name:it": "Scuola elementare di San Martino in Badia",
            "name:lld": "Scora elementara San Martin de Tor",
            "operator": "Direziun Raionala de scora Ladina Al Plan de Mareo - Ladinischer Schulsprengel St. Vigil in Enneberg - Istituto comprensivo delle località Ladine San Vigilio di Marebbe",
            "operator:de": "Ladinischer Schulsprengel St. Vigil in Enneberg",
            "operator:it": "Istituto comprensivo delle località Ladine San Vigilio di Marebbe",
            "operator:lld": "Direziun Raionala de scora Ladina Al Plan de Mareo",
            "operator:ref": "LBIC803006",
            "operator:short:de": "SSP St. Vigil",
            "operator:type": "public",
            "operator:website": "https://www.direziunalplan.it/",
            "ref": "LBEE80304B",
            "ref:tax_id": "81009960212",
            "school:gender": "mixed",
            "school:language": "de",
            "short_name:de": "GS St. Martin in Thurn"
          },
          "geometry": {
            "type": "Point",
            "coordinates": [
              11.8983476,
              46.682127
            ]
          }
        },
        {
          "type": "Feature",
          "properties": {
            "id": "13032364564",
            "osm_type": "node",
            "lat": 46.570446,
            "lon": 11.933219,
            "amenity": "school",
            "name": "Scola Elementara Jamati Declara"
          },
          "geometry": {
            "type": "Point",
            "coordinates": [
              11.933219,
              46.570446
            ]
          }
        },
        {
          "type": "Feature",
          "properties": {
            "id": "685103509",
            "osm_type": "node",
            "lat": 46.7006053,
            "lon": 12.3527961,
            "amenity": "school",
            "name": "Sexten-Sesto"
          },
          "geometry": {
            "type": "Point",
            "coordinates": [
              12.3527961,
              46.7006053
            ]
          }
        },
        {
          "type": "Feature",
          "properties": {
            "id": "1987823095",
            "osm_type": "node",
            "lat": 46.4247234,
            "lon": 12.3718813,
            "amenity": "school",
            "details": "sede, Liceo Scientifico",
            "name": "Istituto d'istruzione superiore \"Fermi\"",
            "source": "survey",
            "website": "www.cadorescuola.net",
            "wikidata": "Q52812907"
          },
          "geometry": {
            "type": "Point",
            "coordinates": [
              12.3718813,
              46.4247234
            ]
          }
        },
        {
          "type": "Feature",
          "properties": {
            "id": "1987835852",
            "osm_type": "node",
            "lat": 46.4283163,
            "lon": 12.3737945,
            "addr:housenumber": "41",
            "addr:postcode": "32044",
            "addr:street": "Via Nazionale",
            "amenity": "school",
            "name": "Scuola Materna"
          },
          "geometry": {
            "type": "Point",
            "coordinates": [
              12.3737945,
              46.4283163
            ]
          }
        },
        {
          "type": "Feature",
          "properties": {
            "id": "11075127007",
            "osm_type": "node",
            "lat": 46.5314528,
            "lon": 12.1470757,
            "amenity": "school",
            "name": "Ex Liceo Linguistico Ursoline"
          },
          "geometry": {
            "type": "Point",
            "coordinates": [
              12.1470757,
              46.5314528
            ]
          }
        }
      ],
      "children": []
    },
    {
      "bbox": {
        "south": 46.372652,
        "west": 12.392062499999998,
        "north": 46.70320525,
        "east": 13.345766
      },
      "poiCount": 31,
      "leafCount": 31,
      "averagePosition": [
        12.963075677419354,
        46.4788162483871
      ],
      "data": [
        {
          "type": "Feature",
          "properties": {
            "id": "12343379083",
            "osm_type": "node",
            "lat": 46.59057,
            "lon": 12.5104619,
            "amenity": "school",
            "name": "Scuola dell'infanzia Comelico Superiore"
          },
          "geometry": {
            "type": "Point",
            "coordinates": [
              12.5104619,
              46.59057
            ]
          }
        },
        {
          "type": "Feature",
          "properties": {
            "id": "12343379084",
            "osm_type": "node",
            "lat": 46.5906838,
            "lon": 12.5101668,
            "alt_name": "Scuola Secondaria di I Grado Papa Luciani",
            "amenity": "school",
            "name": "Scuola Media Statale Papa Luciani",
            "name:it": "Scuola Media Statale Papa Luciani"
          },
          "geometry": {
            "type": "Point",
            "coordinates": [
              12.5101668,
              46.5906838
            ]
          }
        },
        {
          "type": "Feature",
          "properties": {
            "id": "473519884",
            "osm_type": "node",
            "lat": 46.6723618,
            "lon": 13.0008709,
            "amenity": "school",
            "name": "Volks- und Musikschule Kötschach-Mauthen"
          },
          "geometry": {
            "type": "Point",
            "coordinates": [
              13.0008709,
              46.6723618
            ]
          }
        },
        {
          "type": "Feature",
          "properties": {
            "id": "702492919",
            "osm_type": "node",
            "lat": 46.6724904,
            "lon": 12.9994194,
            "amenity": "school",
            "name": "Neue Mittel Schule"
          },
          "geometry": {
            "type": "Point",
            "coordinates": [
              12.9994194,
              46.6724904
            ]
          }
        },
        {
          "type": "Feature",
          "properties": {
            "id": "2623543539",
            "osm_type": "node",
            "lat": 46.4025598,
            "lon": 12.8222385,
            "amenity": "school",
            "name": "Scuola Elementare"
          },
          "geometry": {
            "type": "Point",
            "coordinates": [
              12.8222385,
              46.4025598
            ]
          }
        },
        {
          "type": "Feature",
          "properties": {
            "id": "6240378721",
            "osm_type": "node",
            "lat": 46.394231,
            "lon": 12.670207,
            "amenity": "school",
            "name": "Scuola Primaria"
          },
          "geometry": {
            "type": "Point",
            "coordinates": [
              12.670207,
              46.394231
            ]
          }
        },
        {
          "type": "Feature",
          "properties": {
            "id": "6240382021",
            "osm_type": "node",
            "lat": 46.4217123,
            "lon": 12.5818911,
            "amenity": "school",
            "name": "Scuola Primaria"
          },
          "geometry": {
            "type": "Point",
            "coordinates": [
              12.5818911,
              46.4217123
            ]
          }
        },
        {
          "type": "Feature",
          "properties": {
            "id": "6240382022",
            "osm_type": "node",
            "lat": 46.421606,
            "lon": 12.582198,
            "amenity": "school",
            "name": "Scuola Secondaria di Primo Grado Marco Davanzo"
          },
          "geometry": {
            "type": "Point",
            "coordinates": [
              12.582198,
              46.421606
            ]
          }
        },
        {
          "type": "Feature",
          "properties": {
            "id": "6240382057",
            "osm_type": "node",
            "lat": 46.467285,
            "lon": 12.708616,
            "amenity": "school",
            "name": "Scuola Primaria"
          },
          "geometry": {
            "type": "Point",
            "coordinates": [
              12.708616,
              46.467285
            ]
          }
        },
        {
          "type": "Feature",
          "properties": {
            "id": "6241352304",
            "osm_type": "node",
            "lat": 46.389432,
            "lon": 12.981741,
            "amenity": "school",
            "name": "Scuola Primaria di Verzegnis",
            "name:fur": "Scuele Primarie di Verzegnis"
          },
          "geometry": {
            "type": "Point",
            "coordinates": [
              12.981741,
              46.389432
            ]
          }
        },
        {
          "type": "Feature",
          "properties": {
            "id": "6241363258",
            "osm_type": "node",
            "lat": 46.460585,
            "lon": 13.02618,
            "amenity": "school",
            "name": "Scuola Primaria di Zuglio Carnico"
          },
          "geometry": {
            "type": "Point",
            "coordinates": [
              13.02618,
              46.460585
            ]
          }
        },
        {
          "type": "Feature",
          "properties": {
            "id": "6241763927",
            "osm_type": "node",
            "lat": 46.410466,
            "lon": 12.882302,
            "amenity": "school",
            "name": "Scuola Primaria di Enemonzo"
          },
          "geometry": {
            "type": "Point",
            "coordinates": [
              12.882302,
              46.410466
            ]
          }
        },
        {
          "type": "Feature",
          "properties": {
            "id": "6242640632",
            "osm_type": "node",
            "lat": 46.527168,
            "lon": 12.987078,
            "amenity": "school",
            "name": "Scuola Primaria di Cercivento"
          },
          "geometry": {
            "type": "Point",
            "coordinates": [
              12.987078,
              46.527168
            ]
          }
        },
        {
          "type": "Feature",
          "properties": {
            "id": "6245338450",
            "osm_type": "node",
            "lat": 46.527883,
            "lon": 13.016677,
            "amenity": "school",
            "name": "Scuola Primaria di Paluzza"
          },
          "geometry": {
            "type": "Point",
            "coordinates": [
              13.016677,
              46.527883
            ]
          }
        },
        {
          "type": "Feature",
          "properties": {
            "id": "6245338451",
            "osm_type": "node",
            "lat": 46.527633,
            "lon": 13.01576,
            "amenity": "school",
            "name": "Scuola Secondaria di Primo Grado A. Matiz"
          },
          "geometry": {
            "type": "Point",
            "coordinates": [
              13.01576,
              46.527633
            ]
          }
        },
        {
          "type": "Feature",
          "properties": {
            "id": "6246974438",
            "osm_type": "node",
            "lat": 46.516857,
            "lon": 12.8697,
            "amenity": "school",
            "name": "Scuola Secondaria di Primo Grado Michele Gortani"
          },
          "geometry": {
            "type": "Point",
            "coordinates": [
              12.8697,
              46.516857
            ]
          }
        },
        {
          "type": "Feature",
          "properties": {
            "id": "6249077298",
            "osm_type": "node",
            "lat": 46.47299,
            "lon": 13.023329,
            "amenity": "school",
            "name": "Scuola Primaria di Arta Terme"
          },
          "geometry": {
            "type": "Point",
            "coordinates": [
              13.023329,
              46.47299
            ]
          }
        },
        {
          "type": "Feature",
          "properties": {
            "id": "6249077299",
            "osm_type": "node",
            "lat": 46.473179,
            "lon": 13.02323,
            "amenity": "school",
            "name": "Scuola Secondaria di Primo Grado di Via Roma - Arta Terme"
          },
          "geometry": {
            "type": "Point",
            "coordinates": [
              13.02323,
              46.473179
            ]
          }
        },
        {
          "type": "Feature",
          "properties": {
            "id": "6249258345",
            "osm_type": "node",
            "lat": 46.569117,
            "lon": 13.010027,
            "amenity": "school",
            "name": "Scuola Primaria di Timau/Cleulis"
          },
          "geometry": {
            "type": "Point",
            "coordinates": [
              13.010027,
              46.569117
            ]
          }
        },
        {
          "type": "Feature",
          "properties": {
            "id": "7919921032",
            "osm_type": "node",
            "lat": 46.4019303,
            "lon": 13.0095197,
            "amenity": "school",
            "description:it": "istituto professionale per l'industria e l'artigianato",
            "isced:level": "3",
            "name": "IPSIA A. Candoni",
            "operator": "Comune di Tolmezzo"
          },
          "geometry": {
            "type": "Point",
            "coordinates": [
              13.0095197,
              46.4019303
            ]
          }
        },
        {
          "type": "Feature",
          "properties": {
            "id": "7919921033",
            "osm_type": "node",
            "lat": 46.4017122,
            "lon": 13.0099416,
            "amenity": "school",
            "description:it": "istituto professionale per i servizi commerciali",
            "isced:level": "3",
            "name": "IPSC Jacopo Linussio",
            "operator": "Comune di Tolmezzo"
          },
          "geometry": {
            "type": "Point",
            "coordinates": [
              13.0099416,
              46.4017122
            ]
          }
        },
        {
          "type": "Feature",
          "properties": {
            "id": "7919921034",
            "osm_type": "node",
            "lat": 46.4011303,
            "lon": 13.009828,
            "amenity": "school",
            "isced:level": "3",
            "name": "ITI Fermo Solari",
            "operator": "Comune di Tolmezzo"
          },
          "geometry": {
            "type": "Point",
            "coordinates": [
              13.009828,
              46.4011303
            ]
          }
        },
        {
          "type": "Feature",
          "properties": {
            "id": "7919921035",
            "osm_type": "node",
            "lat": 46.4009205,
            "lon": 13.0099984,
            "amenity": "school",
            "description:it": "istituto tecnico commerciale per geometri",
            "isced:level": "3",
            "name": "ITC Michele Gortani",
            "operator": "Comune di Tolmezzo"
          },
          "geometry": {
            "type": "Point",
            "coordinates": [
              13.0099984,
              46.4009205
            ]
          }
        },
        {
          "type": "Feature",
          "properties": {
            "id": "5211473326",
            "osm_type": "node",
            "lat": 46.6623357,
            "lon": 13.0759646,
            "addr:city": "Dellach im Gailtal",
            "addr:housenumber": "122",
            "addr:postcode": "9635",
            "addr:street": "Dellach",
            "amenity": "school",
            "check_date": "2024-07-04",
            "name": "Volksschule"
          },
          "geometry": {
            "type": "Point",
            "coordinates": [
              13.0759646,
              46.6623357
            ]
          }
        },
        {
          "type": "Feature",
          "properties": {
            "id": "5434252462",
            "osm_type": "node",
            "lat": 46.6410251,
            "lon": 13.1893966,
            "addr:city": "Kirchbach",
            "addr:country": "AT",
            "addr:housenumber": "101",
            "addr:place": "Kirchbach",
            "addr:postcode": "9632",
            "amenity": "school",
            "at_bev:addr_date": "2017-10-01",
            "name": "Volksschule Kirchbach"
          },
          "geometry": {
            "type": "Point",
            "coordinates": [
              13.1893966,
              46.6410251
            ]
          }
        },
        {
          "type": "Feature",
          "properties": {
            "id": "6241363248",
            "osm_type": "node",
            "lat": 46.44889,
            "lon": 13.037956,
            "amenity": "school",
            "name": "Scuola Primaria di Imponzo"
          },
          "geometry": {
            "type": "Point",
            "coordinates": [
              13.037956,
              46.44889
            ]
          }
        },
        {
          "type": "Feature",
          "properties": {
            "id": "6249061058",
            "osm_type": "node",
            "lat": 46.375278,
            "lon": 13.296554,
            "amenity": "school",
            "name": "Scuola Secondaria di Primo Grado di Resia"
          },
          "geometry": {
            "type": "Point",
            "coordinates": [
              13.296554,
              46.375278
            ]
          }
        },
        {
          "type": "Feature",
          "properties": {
            "id": "6249061060",
            "osm_type": "node",
            "lat": 46.375668,
            "lon": 13.295955,
            "amenity": "school",
            "name": "Scuola Primaria di Resia"
          },
          "geometry": {
            "type": "Point",
            "coordinates": [
              13.295955,
              46.375668
            ]
          }
        },
        {
          "type": "Feature",
          "properties": {
            "id": "6249069982",
            "osm_type": "node",
            "lat": 46.405602,
            "lon": 13.304275,
            "amenity": "school",
            "name": "Scuola Primaria di Chiusaforte"
          },
          "geometry": {
            "type": "Point",
            "coordinates": [
              13.304275,
              46.405602
            ]
          }
        },
        {
          "type": "Feature",
          "properties": {
            "id": "6249075238",
            "osm_type": "node",
            "lat": 46.409874,
            "lon": 13.196966,
            "amenity": "school",
            "isced:level": "1",
            "name": "Scuola Primaria di Via Roma",
            "ref": "UDEE84503T"
          },
          "geometry": {
            "type": "Point",
            "coordinates": [
              13.196966,
              46.409874
            ]
          }
        },
        {
          "type": "Feature",
          "properties": {
            "id": "8658886262",
            "osm_type": "node",
            "lat": 46.4101275,
            "lon": 13.1968975,
            "amenity": "school",
            "isced:level": "2",
            "name": "Scuola media statale Giorgio Ermolli",
            "ref": "UDMM84505V"
          },
          "geometry": {
            "type": "Point",
            "coordinates": [
              13.1968975,
              46.4101275
            ]
          }
        }
      ],
      "children": []
    },
    {
      "bbox": {
        "south": 46.70320525,
        "west": 11.438358999999998,
        "north": 47.033758500000005,
        "east": 12.392062499999998
      },
      "poiCount": 71,
      "leafCount": 0,
      "averagePosition": [
        11.850621687323942,
        46.80595646760564
      ],
      "data": [],
      "children": [
        {
          "bbox": {
            "south": 46.70320525,
            "west": 11.438358999999998,
            "north": 46.868481875,
            "east": 11.915210749999998
          },
          "poiCount": 31,
          "leafCount": 31,
          "averagePosition": [
            11.676417374193548,
            46.75625338387096
          ],
          "data": [
            {
              "type": "Feature",
              "properties": {
                "id": "4871636796",
                "osm_type": "node",
                "lat": 46.8647522,
                "lon": 11.4776942,
                "addr:city": "Freienfeld - Campo di Trens",
                "addr:housenumber": "39b",
                "addr:postcode": "39040",
                "addr:street": "Stilfes - Stilves",
                "amenity": "school",
                "name": "Grundschule Stilfes - Scuola elementare di lingua tedesca Stilves",
                "name:de": "Grundschule Stilfes",
                "name:it": "Scuola elementare di lingua tedesca Stilves",
                "operator": "Schulsprengel Sterzing III",
                "phone": "+39 0472 647100",
                "website": "https://schulsprengel-sterzing3.it/grundschule-mittelschule/grundschule/grundschule-stilfes/"
              },
              "geometry": {
                "type": "Point",
                "coordinates": [
                  11.4776942,
                  46.8647522
                ]
              }
            },
            {
              "type": "Feature",
              "properties": {
                "id": "343750773",
                "osm_type": "node",
                "lat": 46.7839343,
                "lon": 11.9019155,
                "amenity": "school",
                "name": "Grundschule \"Vinzenz Goller\"",
                "ref": "TBEE10206X"
              },
              "geometry": {
                "type": "Point",
                "coordinates": [
                  11.9019155,
                  46.7839343
                ]
              }
            },
            {
              "type": "Feature",
              "properties": {
                "id": "614388185",
                "osm_type": "node",
                "lat": 46.7076632,
                "lon": 11.6539735,
                "amenity": "school",
                "email": "bbz.hellenstainer@schule.suedtirol.it",
                "name": "Berufsbildungszentrum Emma Hellenstainer - Centro di formazione professionale Emma Hellenstainer",
                "name:de": "Berufsbildungszentrum Emma Hellenstainer",
                "name:it": "Centro di formazione professionale Emma Hellenstainer",
                "phone": "+39 0472 273800",
                "website": "https://www.hellenstainer.berufsschule.it",
                "wikidata": "Q1802125",
                "wikipedia": "de:Landesberufsschule für das Gast- und Nahrungsmittelgewerbe „Emma Hellenstainer“"
              },
              "geometry": {
                "type": "Point",
                "coordinates": [
                  11.6539735,
                  46.7076632
                ]
              }
            },
            {
              "type": "Feature",
              "properties": {
                "id": "614388239",
                "osm_type": "node",
                "lat": 46.708389,
                "lon": 11.6548102,
                "amenity": "school",
                "isced:level": "2",
                "name": "Mittelschule Michael Pacher",
                "name:de": "Mittelschule Michael Pacher"
              },
              "geometry": {
                "type": "Point",
                "coordinates": [
                  11.6548102,
                  46.708389
                ]
              }
            },
            {
              "type": "Feature",
              "properties": {
                "id": "614388284",
                "osm_type": "node",
                "lat": 46.7082727,
                "lon": 11.6561814,
                "amenity": "school",
                "name": "Fachoberschule für Wirtschaft, Grafik und Kommunikation",
                "name:de": "Fachoberschule für Wirtschaft, Grafik und Kommunikation"
              },
              "geometry": {
                "type": "Point",
                "coordinates": [
                  11.6561814,
                  46.7082727
                ]
              }
            },
            {
              "type": "Feature",
              "properties": {
                "id": "614388302",
                "osm_type": "node",
                "lat": 46.7078831,
                "lon": 11.6564521,
                "amenity": "school",
                "isced:level": "1",
                "name": "Grundschule Tschurtschenthaler"
              },
              "geometry": {
                "type": "Point",
                "coordinates": [
                  11.6564521,
                  46.7078831
                ]
              }
            },
            {
              "type": "Feature",
              "properties": {
                "id": "614388359",
                "osm_type": "node",
                "lat": 46.7101534,
                "lon": 11.6579428,
                "amenity": "school",
                "name": "Italienisches Oberschulzentrum 'Falcone & Borsellino'"
              },
              "geometry": {
                "type": "Point",
                "coordinates": [
                  11.6579428,
                  46.7101534
                ]
              }
            },
            {
              "type": "Feature",
              "properties": {
                "id": "614388378",
                "osm_type": "node",
                "lat": 46.7196002,
                "lon": 11.650137,
                "amenity": "school",
                "name": "Italienische Mittelschule - A. Manzoni - Scuola media di lingua italiana",
                "name:de": "Italienische Mittelschule A. Manzoni",
                "name:it": "Scuola media di lingua italiana A. Manzoni"
              },
              "geometry": {
                "type": "Point",
                "coordinates": [
                  11.650137,
                  46.7196002
                ]
              }
            },
            {
              "type": "Feature",
              "properties": {
                "id": "614388394",
                "osm_type": "node",
                "lat": 46.7202676,
                "lon": 11.6499395,
                "amenity": "school",
                "name": "Grundschule Vinzenz Goller"
              },
              "geometry": {
                "type": "Point",
                "coordinates": [
                  11.6499395,
                  46.7202676
                ]
              }
            },
            {
              "type": "Feature",
              "properties": {
                "id": "757148978",
                "osm_type": "node",
                "lat": 46.7461667,
                "lon": 11.7611151,
                "addr:city": "Lüsen - Luson",
                "addr:housenumber": "21",
                "addr:postcode": "39040",
                "addr:street": "Dorfgasse - Vicolo Dorf",
                "amenity": "school",
                "name": "Grundschule Anton Kuen"
              },
              "geometry": {
                "type": "Point",
                "coordinates": [
                  11.7611151,
                  46.7461667
                ]
              }
            },
            {
              "type": "Feature",
              "properties": {
                "id": "1175483103",
                "osm_type": "node",
                "lat": 46.8128676,
                "lon": 11.6620098,
                "amenity": "school",
                "name": "Grundschule Meransen",
                "ref": "TBEE83302D"
              },
              "geometry": {
                "type": "Point",
                "coordinates": [
                  11.6620098,
                  46.8128676
                ]
              }
            },
            {
              "type": "Feature",
              "properties": {
                "id": "1187809855",
                "osm_type": "node",
                "lat": 46.7885388,
                "lon": 11.6518108,
                "amenity": "school",
                "name": "Grundschule Spinges",
                "ref": "TBEE83303E"
              },
              "geometry": {
                "type": "Point",
                "coordinates": [
                  11.6518108,
                  46.7885388
                ]
              }
            },
            {
              "type": "Feature",
              "properties": {
                "id": "1190256554",
                "osm_type": "node",
                "lat": 46.7952263,
                "lon": 11.6671795,
                "amenity": "school",
                "name": "Herz-Jesu-Institut",
                "ref": "TB1M008007",
                "wikidata": "Q1614920"
              },
              "geometry": {
                "type": "Point",
                "coordinates": [
                  11.6671795,
                  46.7952263
                ]
              }
            },
            {
              "type": "Feature",
              "properties": {
                "id": "1190256613",
                "osm_type": "node",
                "lat": 46.7968517,
                "lon": 11.66641,
                "amenity": "school",
                "building": "yes",
                "name": "Mittelschule \"Katharina Lanz\"",
                "ref": "TBMM83301B"
              },
              "geometry": {
                "type": "Point",
                "coordinates": [
                  11.66641,
                  46.7968517
                ]
              }
            },
            {
              "type": "Feature",
              "properties": {
                "id": "1190256638",
                "osm_type": "node",
                "lat": 46.7967828,
                "lon": 11.6663234,
                "amenity": "school",
                "name": "Grundschule Mühlbach",
                "ref": "TBEE83301C"
              },
              "geometry": {
                "type": "Point",
                "coordinates": [
                  11.6663234,
                  46.7967828
                ]
              }
            },
            {
              "type": "Feature",
              "properties": {
                "id": "1226188520",
                "osm_type": "node",
                "lat": 46.8139256,
                "lon": 11.8030917,
                "amenity": "school",
                "name": "Grundschule \"Benno Rutz\" - Scuola elementare",
                "name:it": "Scuola elementare di lingua tedesca \"Benno Rutz\"",
                "ref": "TBEE10204T"
              },
              "geometry": {
                "type": "Point",
                "coordinates": [
                  11.8030917,
                  46.8139256
                ]
              }
            },
            {
              "type": "Feature",
              "properties": {
                "id": "1229638126",
                "osm_type": "node",
                "lat": 46.8084951,
                "lon": 11.8401193,
                "amenity": "school",
                "name": "Grundschule Kiens - Scuola elementare di lingua tedesca Chienes",
                "name:de": "Grundschule Kiens",
                "name:it": "Scuola elementare di lingua tedesca Chienes",
                "ref": "TBEE10201P"
              },
              "geometry": {
                "type": "Point",
                "coordinates": [
                  11.8401193,
                  46.8084951
                ]
              }
            },
            {
              "type": "Feature",
              "properties": {
                "id": "1246128544",
                "osm_type": "node",
                "lat": 46.7382373,
                "lon": 11.6371132,
                "amenity": "school",
                "name": "Volksschule Vahrn - Scuola elementare di Varna",
                "name:de": "Volksschule Vahrn",
                "name:it": "Scuola elementare di Varna"
              },
              "geometry": {
                "type": "Point",
                "coordinates": [
                  11.6371132,
                  46.7382373
                ]
              }
            },
            {
              "type": "Feature",
              "properties": {
                "id": "1246141067",
                "osm_type": "node",
                "lat": 46.7379409,
                "lon": 11.6303276,
                "amenity": "school",
                "name": "Landwirtschaftsschule Salern - Scuola professionale per l'agricoltura ed economia domestica Salern",
                "name:de": "Landwirtschaftsschule Salern",
                "name:it": "Scuola professionale per l'agricoltura ed economia domestica Salern"
              },
              "geometry": {
                "type": "Point",
                "coordinates": [
                  11.6303276,
                  46.7379409
                ]
              }
            },
            {
              "type": "Feature",
              "properties": {
                "id": "1623696408",
                "osm_type": "node",
                "lat": 46.8161732,
                "lon": 11.7213403,
                "amenity": "school",
                "building": "yes",
                "name": "Mittelschule \"Josef Mayr-Nusser\" Vintl",
                "ref": "TBMM826018"
              },
              "geometry": {
                "type": "Point",
                "coordinates": [
                  11.7213403,
                  46.8161732
                ]
              }
            },
            {
              "type": "Feature",
              "properties": {
                "id": "1623699527",
                "osm_type": "node",
                "lat": 46.8291032,
                "lon": 11.777389,
                "amenity": "school",
                "name": "Grundschule \"Simon Aichner\"",
                "ref": "TBEE82605D"
              },
              "geometry": {
                "type": "Point",
                "coordinates": [
                  11.777389,
                  46.8291032
                ]
              }
            },
            {
              "type": "Feature",
              "properties": {
                "id": "1979936382",
                "osm_type": "node",
                "lat": 46.7709814,
                "lon": 11.6665921,
                "amenity": "school",
                "name": "Grundschule Schabs - Scuola elementare Sciaves",
                "name:de": "Grundschule Schabs",
                "name:it": "Scuola elementare Sciaves"
              },
              "geometry": {
                "type": "Point",
                "coordinates": [
                  11.6665921,
                  46.7709814
                ]
              }
            },
            {
              "type": "Feature",
              "properties": {
                "id": "2201916560",
                "osm_type": "node",
                "lat": 46.7333694,
                "lon": 11.6673649,
                "addr:city": "Elvas",
                "addr:housenumber": "7",
                "addr:postcode": "39042",
                "addr:street": "Hofstattweg - Via Hofstatt",
                "amenity": "school",
                "name": "Grundschule Elvas - Scuola elementare",
                "name:de": "Grundschule Elvas",
                "name:it": "Scuola elementare"
              },
              "geometry": {
                "type": "Point",
                "coordinates": [
                  11.6673649,
                  46.7333694
                ]
              }
            },
            {
              "type": "Feature",
              "properties": {
                "id": "2405495241",
                "osm_type": "node",
                "lat": 46.7092192,
                "lon": 11.6530953,
                "amenity": "school",
                "name": "Berufsschule Tschuggmall, Nebengebäude"
              },
              "geometry": {
                "type": "Point",
                "coordinates": [
                  11.6530953,
                  46.7092192
                ]
              }
            },
            {
              "type": "Feature",
              "properties": {
                "id": "2430896376",
                "osm_type": "node",
                "lat": 46.7206911,
                "lon": 11.6498413,
                "amenity": "school",
                "name": "Mittelschule Oswald von Wolkenstein"
              },
              "geometry": {
                "type": "Point",
                "coordinates": [
                  11.6498413,
                  46.7206911
                ]
              }
            },
            {
              "type": "Feature",
              "properties": {
                "id": "4865279940",
                "osm_type": "node",
                "lat": 46.7101813,
                "lon": 11.6309351,
                "addr:city": "Brixen - Bressanone",
                "addr:city:de": "Brixen",
                "addr:city:it": "Bressanone",
                "addr:housenumber": "43a",
                "addr:postcode": "39042",
                "addr:street": "Tils - Tiles",
                "amenity": "school",
                "email": "gstils1@yahoo.at",
                "name": "Grundschule Tils",
                "operator": "Grundschulsprengel Brixen",
                "phone": "+39 0472 832050"
              },
              "geometry": {
                "type": "Point",
                "coordinates": [
                  11.6309351,
                  46.7101813
                ]
              }
            },
            {
              "type": "Feature",
              "properties": {
                "id": "5741237096",
                "osm_type": "node",
                "lat": 46.7531896,
                "lon": 11.6821607,
                "amenity": "school"
              },
              "geometry": {
                "type": "Point",
                "coordinates": [
                  11.6821607,
                  46.7531896
                ]
              }
            },
            {
              "type": "Feature",
              "properties": {
                "id": "8848237579",
                "osm_type": "node",
                "lat": 46.7204161,
                "lon": 11.6534307,
                "amenity": "school",
                "name": "Volkshochschule Südtirol",
                "name:de": "Volkshochschule Südtirol",
                "website": "www.vhs.it"
              },
              "geometry": {
                "type": "Point",
                "coordinates": [
                  11.6534307,
                  46.7204161
                ]
              }
            },
            {
              "type": "Feature",
              "properties": {
                "id": "11134662828",
                "osm_type": "node",
                "lat": 46.7201304,
                "lon": 11.6563178,
                "amenity": "school",
                "email": "musikschuldirektion.brixen@schule.suedtirol.it",
                "name": "Musikschule Brixen - Scuola di musica Bressanone",
                "name:de": "Musikschule Brixen",
                "name:it": "Scuola di musica Bressanone",
                "phone": "+39 0472 832222",
                "website": "https://musikschulen.provinz.bz.it/deutsch-ladinischsprachige/musikschuldirektion-brixen.asp"
              },
              "geometry": {
                "type": "Point",
                "coordinates": [
                  11.6563178,
                  46.7201304
                ]
              }
            },
            {
              "type": "Feature",
              "properties": {
                "id": "12122364675",
                "osm_type": "node",
                "lat": 46.7079983,
                "lon": 11.6523075,
                "amenity": "school",
                "name": "Berufsbildungszentrum Christian Josef Tschuggmall - Centro di formazione professionale Christian Josef Tschuggmall",
                "name:de": "Berufsbildungszentrum Christian Josef Tschuggmall",
                "name:it": "Centro di formazione professionale Christian Josef Tschuggmall"
              },
              "geometry": {
                "type": "Point",
                "coordinates": [
                  11.6523075,
                  46.7079983
                ]
              }
            },
            {
              "type": "Feature",
              "properties": {
                "id": "12997760932",
                "osm_type": "node",
                "lat": 46.7864532,
                "lon": 11.6136173,
                "amenity": "school",
                "contact:city": "Franzensfeste - Fortezza",
                "contact:city:de": "Franzensfeste",
                "contact:city:it": "Fortezza",
                "contact:email": "gs.franzensfeste@schule.suedtirol.it",
                "contact:housenumber": "1",
                "contact:pec": "gsd.vahrn@pec.prov.bz.it",
                "contact:phone": "+39 0472 458044",
                "contact:postcode": "39045",
                "contact:street": "Rathausplatz - Piazza Municipio",
                "contact:street:de": "Rathausplatz",
                "contact:street:it": "Piazza Municipio",
                "contact:website": "https://www.gsp-vahrn.it/de/schulstellen/",
                "grades": "1-5",
                "isced:level": "1",
                "name": "Grundschule Franzensfeste - Scuola elementare di Fortezza",
                "name:de": "Grundschule Franzensfeste",
                "name:it": "Scuola elementare di Fortezza",
                "operator": "Grundschulsprengel Vahrn - Circolo didattico di Varna",
                "operator:de": "Grundschulsprengel Vahrn",
                "operator:email": "gsd.vahrn@schule.suedtirol.it",
                "operator:it": "Circolo didattico di Varna",
                "operator:ref": "TBEE042007",
                "operator:short:de": "GSP Vahrn",
                "operator:type": "public",
                "operator:website": "https://www.gsp-vahrn.it/",
                "ref": "TBEE04204B",
                "school:gender": "mixed",
                "school:language": "de",
                "short_name:de": "GS Franzensfeste"
              },
              "geometry": {
                "type": "Point",
                "coordinates": [
                  11.6136173,
                  46.7864532
                ]
              }
            }
          ],
          "children": []
        },
        {
          "bbox": {
            "south": 46.70320525,
            "west": 11.915210749999998,
            "north": 46.868481875,
            "east": 12.392062499999998
          },
          "poiCount": 24,
          "leafCount": 24,
          "averagePosition": [
            12.064951645833332,
            46.7806973125
          ],
          "data": [
            {
              "type": "Feature",
              "properties": {
                "id": "658869821",
                "osm_type": "node",
                "lat": 46.8044727,
                "lon": 11.9487638,
                "amenity": "school",
                "name": "Grundschule"
              },
              "geometry": {
                "type": "Point",
                "coordinates": [
                  11.9487638,
                  46.8044727
                ]
              }
            },
            {
              "type": "Feature",
              "properties": {
                "id": "768708848",
                "osm_type": "node",
                "lat": 46.8042579,
                "lon": 11.9562556,
                "amenity": "school",
                "name": "Fachschule für Hauswirtschaft"
              },
              "geometry": {
                "type": "Point",
                "coordinates": [
                  11.9562556,
                  46.8042579
                ]
              }
            },
            {
              "type": "Feature",
              "properties": {
                "id": "2133321340",
                "osm_type": "node",
                "lat": 46.7974542,
                "lon": 11.9248653,
                "amenity": "school",
                "name": "Grundschule Georg Kaneider"
              },
              "geometry": {
                "type": "Point",
                "coordinates": [
                  11.9248653,
                  46.7974542
                ]
              }
            },
            {
              "type": "Feature",
              "properties": {
                "id": "2258908591",
                "osm_type": "node",
                "lat": 46.7899663,
                "lon": 11.9924479,
                "amenity": "school",
                "check_date": "2025-08-10",
                "contact:city": "Percha - Perca",
                "contact:housenumber": "29",
                "contact:postcode": "39030",
                "contact:street": "Römerstraße - Via Römer",
                "name": "Grundschule Percha - Scuola elementare in lingua tedesca di Perca",
                "name:de": "Grundschule Percha",
                "name:it": "Scuola elementare in lingua tedesca di Perca"
              },
              "geometry": {
                "type": "Point",
                "coordinates": [
                  11.9924479,
                  46.7899663
                ]
              }
            },
            {
              "type": "Feature",
              "properties": {
                "id": "2755906843",
                "osm_type": "node",
                "lat": 46.8159141,
                "lon": 12.0014468,
                "amenity": "school",
                "contact:city": "Percha - Perca",
                "contact:city:de": "Percha",
                "contact:city:it": "Perca",
                "contact:hamlet": "Oberwielenbach - Vila di Sopra",
                "contact:hamlet:de": "Oberwielenbach",
                "contact:hamlet:it": "Vila di Sopra",
                "contact:housenumber": "27",
                "contact:postcode": "39030",
                "contact:street": "St.-Nikolaus-Straße - St. Nikolaus",
                "contact:street:de": "St.-Nikolaus-Straße",
                "contact:street:it": "St. Nikolaus",
                "name": "Grundschule"
              },
              "geometry": {
                "type": "Point",
                "coordinates": [
                  12.0014468,
                  46.8159141
                ]
              }
            },
            {
              "type": "Feature",
              "properties": {
                "id": "6012435117",
                "osm_type": "node",
                "lat": 46.7955831,
                "lon": 11.9350047,
                "amenity": "school",
                "check_date": "2024-03-09",
                "contact:city": "Bruneck - Brunico",
                "contact:housenumber": "2",
                "contact:postcode": "39031",
                "contact:street": "Enrico-Fermi-Straße - Via Enrico Fermi",
                "name": "Mittelschule Karl Meusburger",
                "website": "https://www.ssp-bruneck2.it/"
              },
              "geometry": {
                "type": "Point",
                "coordinates": [
                  11.9350047,
                  46.7955831
                ]
              }
            },
            {
              "type": "Feature",
              "properties": {
                "id": "11525050958",
                "osm_type": "node",
                "lat": 46.8148467,
                "lon": 11.9329907,
                "amenity": "school",
                "grades": "1-5",
                "name": "Hubert Pfalzer Schule",
                "religion": "christian"
              },
              "geometry": {
                "type": "Point",
                "coordinates": [
                  11.9329907,
                  46.8148467
                ]
              }
            },
            {
              "type": "Feature",
              "properties": {
                "id": "11563828576",
                "osm_type": "node",
                "lat": 46.767864,
                "lon": 12.0176477,
                "amenity": "school",
                "check_date": "2024-01-29",
                "contact:email": "gs.niederolang@schule.suedtirol.it",
                "contact:housenumber": "3",
                "contact:street": "Pfarrstraße - Via Parrocchia",
                "name": "Grundschule Niederolang",
                "phone": "+39 0474 496010"
              },
              "geometry": {
                "type": "Point",
                "coordinates": [
                  12.0176477,
                  46.767864
                ]
              }
            },
            {
              "type": "Feature",
              "properties": {
                "id": "12987340774",
                "osm_type": "node",
                "lat": 46.7913613,
                "lon": 11.932091,
                "amenity": "school",
                "contact:city": "Bruneck - Brunico",
                "contact:city:de": "Bruneck",
                "contact:city:it": "Brunico",
                "contact:email": "spc.brunico@scuola.alto-adige.it",
                "contact:facebook": "https://www.facebook.com/istitutopluricomprensivo.brunico",
                "contact:housenumber": "16",
                "contact:instagram": "https://www.instagram.com/ipcbrunico/",
                "contact:pec": "spc.brunico@pec.prov.bz.it",
                "contact:phone": "+39 0474 555864",
                "contact:postcode": "39031",
                "contact:street": "Josef-Ferrari-Straße - Via Josef Ferrari",
                "contact:street:de": "Josef-Ferrari-Straße",
                "contact:street:it": "Via Josef Ferrari",
                "contact:website": "https://www.ipcbrunico.it/",
                "contact:youtube": "https://www.youtube.com/channel/UCDMcac8RqTgMgrtSsTi8AGw",
                "grades": "1-5",
                "isced:level": "1",
                "name": "Scuola primaria Galileo Galilei",
                "operator": "Istituto Pluricomprensivo Brunico-Val Pusteria",
                "operator:type": "public",
                "ref:tax_id": "81007360217",
                "school:gender": "mixed",
                "school:language": "it"
              },
              "geometry": {
                "type": "Point",
                "coordinates": [
                  11.932091,
                  46.7913613
                ]
              }
            },
            {
              "type": "Feature",
              "properties": {
                "id": "12987340775",
                "osm_type": "node",
                "lat": 46.791519,
                "lon": 11.9323587,
                "amenity": "school",
                "contact:city": "Bruneck - Brunico",
                "contact:city:de": "Bruneck",
                "contact:city:it": "Brunico",
                "contact:email": "spc.brunico@scuola.alto-adige.it",
                "contact:facebook": "https://www.facebook.com/istitutopluricomprensivo.brunico",
                "contact:housenumber": "16",
                "contact:instagram": "https://www.instagram.com/ipcbrunico/",
                "contact:pec": "spc.brunico@pec.prov.bz.it",
                "contact:phone": "+39 0474 555864",
                "contact:postcode": "39031",
                "contact:street": "Josef-Ferrari-Straße - Via Josef Ferrari",
                "contact:street:de": "Josef-Ferrari-Straße",
                "contact:street:it": "Via Josef Ferrari",
                "contact:website": "https://www.ipcbrunico.it/",
                "contact:youtube": "https://www.youtube.com/channel/UCDMcac8RqTgMgrtSsTi8AGw",
                "grades": "6-8",
                "isced:level": "2",
                "name": "Scuola secondaria di primo grado Don Milani",
                "operator": "Istituto Pluricomprensivo Brunico-Val Pusteria",
                "operator:type": "public",
                "ref:tax_id": "81007360217",
                "school:gender": "mixed",
                "school:language": "it"
              },
              "geometry": {
                "type": "Point",
                "coordinates": [
                  11.9323587,
                  46.791519
                ]
              }
            },
            {
              "type": "Feature",
              "properties": {
                "id": "12987340776",
                "osm_type": "node",
                "lat": 46.7917915,
                "lon": 11.9325379,
                "amenity": "school",
                "contact:city": "Bruneck - Brunico",
                "contact:city:de": "Bruneck",
                "contact:city:it": "Brunico",
                "contact:email": "spc.brunico@scuola.alto-adige.it",
                "contact:facebook": "https://www.facebook.com/istitutopluricomprensivo.brunico",
                "contact:housenumber": "16",
                "contact:instagram": "https://www.instagram.com/ipcbrunico/",
                "contact:pec": "spc.brunico@pec.prov.bz.it",
                "contact:phone": "+39 0474 555864",
                "contact:postcode": "39031",
                "contact:street": "Josef-Ferrari-Straße - Via Josef Ferrari",
                "contact:street:de": "Josef-Ferrari-Straße",
                "contact:street:it": "Via Josef Ferrari",
                "contact:website": "https://www.ipcbrunico.it/",
                "contact:youtube": "https://www.youtube.com/channel/UCDMcac8RqTgMgrtSsTi8AGw",
                "grades": "9-13",
                "isced:level": "3",
                "name": "Istituto di Istruzione secondaria di secondo Grado Antonio Cantore Brunico",
                "operator": "Istituto Pluricomprensivo Brunico-Val Pusteria",
                "operator:type": "public",
                "ref": "IBPC03000N",
                "ref:tax_id": "81007360217",
                "school:gender": "mixed",
                "school:language": "it"
              },
              "geometry": {
                "type": "Point",
                "coordinates": [
                  11.9325379,
                  46.7917915
                ]
              }
            },
            {
              "type": "Feature",
              "properties": {
                "id": "13039146411",
                "osm_type": "node",
                "lat": 46.7769546,
                "lon": 11.9521983,
                "amenity": "school",
                "contact:city": "Bruneck - Brunico",
                "contact:city:de": "Bruneck",
                "contact:city:it": "Brunico",
                "contact:hamlet": "Reischach - Riscone",
                "contact:hamlet:de": "Reischach",
                "contact:hamlet:it": "Riscone",
                "contact:housenumber": "20",
                "contact:postcode": "39031",
                "contact:street": "Prack-Zu-Asch-Straße - Via Prack Zu Asch",
                "contact:street:de": "Prack-Zu-Asch-Straße",
                "contact:street:it": "Via Prack Zu Asch",
                "name": "Grundschule Reischach"
              },
              "geometry": {
                "type": "Point",
                "coordinates": [
                  11.9521983,
                  46.7769546
                ]
              }
            },
            {
              "type": "Feature",
              "properties": {
                "id": "836103977",
                "osm_type": "node",
                "lat": 46.7598148,
                "lon": 12.0326487,
                "amenity": "school",
                "check_date": "2024-11-03",
                "name": "Mittelschule Olang"
              },
              "geometry": {
                "type": "Point",
                "coordinates": [
                  12.0326487,
                  46.7598148
                ]
              }
            },
            {
              "type": "Feature",
              "properties": {
                "id": "1414760015",
                "osm_type": "node",
                "lat": 46.7675085,
                "lon": 12.1119037,
                "amenity": "school",
                "check_date": "2024-08-15",
                "name": "Schule Msgr. Johannes Baur"
              },
              "geometry": {
                "type": "Point",
                "coordinates": [
                  12.1119037,
                  46.7675085
                ]
              }
            },
            {
              "type": "Feature",
              "properties": {
                "id": "2171925115",
                "osm_type": "node",
                "lat": 46.7758875,
                "lon": 12.1806284,
                "amenity": "school",
                "name": "Grundschule"
              },
              "geometry": {
                "type": "Point",
                "coordinates": [
                  12.1806284,
                  46.7758875
                ]
              }
            },
            {
              "type": "Feature",
              "properties": {
                "id": "2206643972",
                "osm_type": "node",
                "lat": 46.7564513,
                "lon": 12.0398385,
                "amenity": "school",
                "int_name": "Scuola elementare Valdaora di Sopra",
                "name": "Volksschule Oberolang"
              },
              "geometry": {
                "type": "Point",
                "coordinates": [
                  12.0398385,
                  46.7564513
                ]
              }
            },
            {
              "type": "Feature",
              "properties": {
                "id": "2333490640",
                "osm_type": "node",
                "lat": 46.7327674,
                "lon": 12.2843855,
                "amenity": "school",
                "name": "Grundschule - Scuola Elementare",
                "name:de": "Grundschule",
                "name:it": "Scuola Elementare"
              },
              "geometry": {
                "type": "Point",
                "coordinates": [
                  12.2843855,
                  46.7327674
                ]
              }
            },
            {
              "type": "Feature",
              "properties": {
                "id": "2333490704",
                "osm_type": "node",
                "lat": 46.7323357,
                "lon": 12.2850655,
                "amenity": "school",
                "name": "Mittelschule - Scuola Media",
                "name:de": "Mittelschule",
                "name:it": "Scuola Media"
              },
              "geometry": {
                "type": "Point",
                "coordinates": [
                  12.2850655,
                  46.7323357
                ]
              }
            },
            {
              "type": "Feature",
              "properties": {
                "id": "2333491122",
                "osm_type": "node",
                "lat": 46.7322766,
                "lon": 12.2855587,
                "addr:city": "Innichen - San Candido",
                "addr:housenumber": "13",
                "addr:postcode": "39038",
                "addr:street": "Freisinger-Straße - Via Freising",
                "amenity": "school",
                "name": "Wirtschaftsfachoberschule - Istituto tecnico economico",
                "name:de": "Wirtschaftsfachoberschule",
                "name:it": "Istituto tecnico economico"
              },
              "geometry": {
                "type": "Point",
                "coordinates": [
                  12.2855587,
                  46.7322766
                ]
              }
            },
            {
              "type": "Feature",
              "properties": {
                "id": "3060956435",
                "osm_type": "node",
                "lat": 46.8082734,
                "lon": 12.3718659,
                "addr:city": "Innervillgraten",
                "addr:housenumber": "78",
                "addr:postcode": "9932",
                "addr:street": "Gasse",
                "amenity": "school",
                "email": "direktion@VS-Innervillgraten.tsn.at",
                "name": "Volksschule Innervillgraten",
                "phone": "+43 4843 531721",
                "website": "https://vs-innervillgraten.tsn.at"
              },
              "geometry": {
                "type": "Point",
                "coordinates": [
                  12.3718659,
                  46.8082734
                ]
              }
            },
            {
              "type": "Feature",
              "properties": {
                "id": "3085150787",
                "osm_type": "node",
                "lat": 46.8363638,
                "lon": 12.2388508,
                "amenity": "school"
              },
              "geometry": {
                "type": "Point",
                "coordinates": [
                  12.2388508,
                  46.8363638
                ]
              }
            },
            {
              "type": "Feature",
              "properties": {
                "id": "4862132241",
                "osm_type": "node",
                "lat": 46.7782883,
                "lon": 12.0504858,
                "amenity": "school",
                "contact:city": "Niederrasen - Rasun di Sotto",
                "contact:city:de": "Niederrasen",
                "contact:city:it": "Rasun di Sotto",
                "contact:email": "Gs.Niederrasen@schule.suedtirol.it",
                "contact:housenumber": "12",
                "contact:postcode": "39030",
                "contact:street": "Kirchdorf",
                "name": "Grundschule Niederrasen",
                "operator": "Schulsprengel Olang",
                "phone": "+39 0474 498065"
              },
              "geometry": {
                "type": "Point",
                "coordinates": [
                  12.0504858,
                  46.7782883
                ]
              }
            },
            {
              "type": "Feature",
              "properties": {
                "id": "13057947511",
                "osm_type": "node",
                "lat": 46.7571631,
                "lon": 12.10953,
                "amenity": "school",
                "contact:city": "Welsberg - Monguelfo",
                "contact:city:de": "Welsberg",
                "contact:city:it": "Monguelfo",
                "contact:housenumber": "14a",
                "contact:postcode": "39035",
                "contact:street": "Schlossweg - Via Castello",
                "contact:street:de": "Schlossweg",
                "contact:street:it": "Via Castello",
                "name": "Mittelschule Welsberg - Scuola secondaria di primo grado di Monguelfo",
                "name:de": "Mittelschule Welsberg",
                "name:it": "Scuola secondaria di primo grado di Monguelfo"
              },
              "geometry": {
                "type": "Point",
                "coordinates": [
                  12.10953,
                  46.7571631
                ]
              }
            },
            {
              "type": "Feature",
              "properties": {
                "id": "13057947512",
                "osm_type": "node",
                "lat": 46.7576197,
                "lon": 12.1094696,
                "amenity": "school",
                "contact:city": "Welsberg - Monguelfo",
                "contact:city:de": "Welsberg",
                "contact:city:it": "Monguelfo",
                "contact:housenumber": "14a",
                "contact:postcode": "39035",
                "contact:street": "Schlossweg - Via Castello",
                "contact:street:de": "Schlossweg",
                "contact:street:it": "Via Castello",
                "name": "Grundschule Welsberg - Scuola elementare di Monguelfo",
                "name:de": "Grundschule Welsberg",
                "name:it": "Scuola elementare di Monguelfo"
              },
              "geometry": {
                "type": "Point",
                "coordinates": [
                  12.1094696,
                  46.7576197
                ]
              }
            }
          ],
          "children": []
        },
        {
          "bbox": {
            "south": 46.868481875,
            "west": 11.438358999999998,
            "north": 47.033758500000005,
            "east": 11.915210749999998
          },
          "poiCount": 7,
          "leafCount": 7,
          "averagePosition": [
            11.720518114285714,
            46.93093067142858
          ],
          "data": [
            {
              "type": "Feature",
              "properties": {
                "id": "2296807332",
                "osm_type": "node",
                "lat": 46.9002331,
                "lon": 11.46023,
                "addr:city": "Pfitsch - Val di Vizze",
                "addr:housenumber": "100",
                "addr:postcode": "39049",
                "addr:street": "Wiesen",
                "amenity": "school",
                "email": "gs.wiesen.ssp3@gmail.com",
                "fax": "+39 0472 762700",
                "name": "Grundschule Wiesen",
                "operator": "Schulsprengel Sterzing III",
                "phone": "+39 0472 764044",
                "source": "local_knowledge"
              },
              "geometry": {
                "type": "Point",
                "coordinates": [
                  11.46023,
                  46.9002331
                ]
              }
            },
            {
              "type": "Feature",
              "properties": {
                "id": "1104358438",
                "osm_type": "node",
                "lat": 46.9254328,
                "lon": 11.9033416,
                "amenity": "school",
                "name": "Skischule Speikboden - Scuola di sci Monte Spico",
                "name:de": "Skischule Speikboden",
                "name:it": "Scuola di sci Monte Spico"
              },
              "geometry": {
                "type": "Point",
                "coordinates": [
                  11.9033416,
                  46.9254328
                ]
              }
            },
            {
              "type": "Feature",
              "properties": {
                "id": "4876415936",
                "osm_type": "node",
                "lat": 46.9695475,
                "lon": 11.6026826,
                "addr:city": "Pfitsch - Val di Vizze",
                "addr:housenumber": "50",
                "addr:postcode": "39049",
                "addr:street": "St. Jakob - San Giacomo",
                "amenity": "school",
                "check_date": "2024-12-27",
                "email": "gs.jakob.ssp3@gmail.com",
                "fax": "+39 0472 630145",
                "name": "Grundschule St. Jakob",
                "operator": "Schulsprengel Sterzing III",
                "phone": "+39 0472 630145"
              },
              "geometry": {
                "type": "Point",
                "coordinates": [
                  11.6026826,
                  46.9695475
                ]
              }
            },
            {
              "type": "Feature",
              "properties": {
                "id": "4876699730",
                "osm_type": "node",
                "lat": 46.9589984,
                "lon": 11.5442599,
                "addr:city": "Pfitsch - Val di Vizze",
                "addr:housenumber": "63",
                "addr:postcode": "39049",
                "addr:street": "Kematen - Caminata",
                "amenity": "school",
                "email": "gs.kematen@ssp3.it",
                "fax": "+39 0472 646040",
                "name": "Grundschule Kematen",
                "operator": "Schulsprengel Sterzing III",
                "phone": "+39 0472 646040"
              },
              "geometry": {
                "type": "Point",
                "coordinates": [
                  11.5442599,
                  46.9589984
                ]
              }
            },
            {
              "type": "Feature",
              "properties": {
                "id": "12996488632",
                "osm_type": "node",
                "lat": 46.9191317,
                "lon": 11.8036817,
                "amenity": "school",
                "contact:city": "Mühlwald - Selva dei Molini",
                "contact:city:de": "Mühlwald",
                "contact:city:it": "Selva dei Molini",
                "contact:email": "gs.lappach@schule.suedtirol.it",
                "contact:housenumber": "213a",
                "contact:pec": "sz.sandintaufers@pec.prov.bz.it",
                "contact:phone": "+39 0474 685015",
                "contact:place": "Lappach - Lappago",
                "contact:place:de": "Lappach",
                "contact:place:it": "Lappago",
                "contact:postcode": "39030",
                "contact:website": "https://www.sz-sandintaufers.it/grundschulen/gs-lappach/",
                "grades": "1-5",
                "isced:level": "1",
                "name": "Grundschule Lappach - Scuola elementare di Lappago",
                "name:de": "Grundschule Lappach",
                "name:it": "Scuola elementare di Lappago",
                "operator": "Schulzentrum Sand in Taufers - Centro scolastico di Campo Tures",
                "operator:de": "Schulzentrum Sand in Taufers",
                "operator:email": "sz.sandintaufers@schule.suedtirol.it",
                "operator:it": "Centro scolastico di Campo Tures",
                "operator:ref": "TBIC83100P",
                "operator:short:de": "SZ Sand in Taufers",
                "operator:type": "public",
                "operator:website": "https://www.sz-sandintaufers.it/",
                "ref": "TBEE831051",
                "ref:tax_id": "81010030211",
                "school:gender": "mixed",
                "school:language": "de",
                "short_name:de": "GS Lappach"
              },
              "geometry": {
                "type": "Point",
                "coordinates": [
                  11.8036817,
                  46.9191317
                ]
              }
            },
            {
              "type": "Feature",
              "properties": {
                "id": "12997423818",
                "osm_type": "node",
                "lat": 46.9515205,
                "lon": 11.872127,
                "amenity": "school",
                "contact:city": "Ahrntal - Valle Aurina",
                "contact:city:de": "Ahrntal",
                "contact:city:it": "Valle Aurina",
                "contact:email": "gs.weissenbach@schule.suedtirol.it",
                "contact:housenumber": "70",
                "contact:pec": "ssp.ahrntal@pec.prov.bz.it",
                "contact:phone": "+39 0474 680100",
                "contact:place": "Weißenbach - Riobianco",
                "contact:place:de": "Weißenbach",
                "contact:place:it": "Riobianco",
                "contact:postcode": "39030",
                "contact:street": "Am Mitterbach",
                "contact:website": "https://www.ssp-ahrntal.it/lernorte/grundschule-weissenbach/",
                "grades": "1-5",
                "isced:level": "1",
                "name": "Grundschule Weißenbach - Scuola elementare di Riobianco",
                "name:de": "Grundschule Weißenbach",
                "name:it": "Scuola elementare di Riobianco",
                "operator": "Schulsprengel Ahrntal - Istituto Comprensivo di Valle Aurina",
                "operator:de": "Schulsprengel Ahrntal",
                "operator:email": "ssp.ahrntal@schule.suedtirol.it",
                "operator:it": "Istituto Comprensivo di Valle Aurina",
                "operator:ref": "TBIC80400A",
                "operator:short:de": "SSP Ahrntal",
                "operator:type": "public",
                "operator:website": "https://www.ssp-ahrntal.it/",
                "ref": "TBEE80406N",
                "ref:tax_id": "92022480211",
                "school:gender": "mixed",
                "school:language": "de",
                "short_name:de": "GS Weißenbach"
              },
              "geometry": {
                "type": "Point",
                "coordinates": [
                  11.872127,
                  46.9515205
                ]
              }
            },
            {
              "type": "Feature",
              "properties": {
                "id": "13013302369",
                "osm_type": "node",
                "lat": 46.8916507,
                "lon": 11.857304,
                "amenity": "school",
                "contact:city": "Mühlwald - Selva dei Molini",
                "contact:city:de": "Mühlwald",
                "contact:city:it": "Selva dei Molini",
                "contact:email": "gs.muehlwald@schule.suedtirol.it",
                "contact:housenumber": "27",
                "contact:pec": "sz.sandintaufers@pec.prov.bz.it",
                "contact:phone": "+39 0474 653321",
                "contact:postcode": "39030",
                "contact:street": "Hauptort - Strada Paese",
                "contact:street:de": "Hauptort",
                "contact:street:it": "Strada Paese",
                "contact:website": "https://www.sz-sandintaufers.it/grundschulen/gs-m%C3%BChlwald/",
                "grades": "1-5",
                "isced:level": "1",
                "name": "Grundschule Mühlwald - Scuola elementare di Selva dei Molini",
                "name:de": "Grundschule Mühlwald",
                "name:it": "Scuola elementare di Selva dei Molini",
                "operator": "Schulzentrum Sand in Taufers - Centro scolastico di Campo Tures",
                "operator:de": "Schulzentrum Sand in Taufers",
                "operator:email": "sz.sandintaufers@schule.suedtirol.it",
                "operator:it": "Centro scolastico di Campo Tures",
                "operator:ref": "TBIC83100P",
                "operator:short:de": "SZ Sand in Taufers",
                "operator:type": "public",
                "operator:website": "https://www.sz-sandintaufers.it/",
                "ref": "TBEE83104X",
                "ref:tax_id": "81010030211",
                "school:gender": "mixed",
                "school:language": "de",
                "short_name:de": "GS Mühlwald"
              },
              "geometry": {
                "type": "Point",
                "coordinates": [
                  11.857304,
                  46.8916507
                ]
              }
            }
          ],
          "children": []
        },
        {
          "bbox": {
            "south": 46.868481875,
            "west": 11.915210749999998,
            "north": 47.033758500000005,
            "east": 12.392062499999998
          },
          "poiCount": 9,
          "leafCount": 9,
          "averagePosition": [
            11.980303877777779,
            46.94731156666667
          ],
          "data": [
            {
              "type": "Feature",
              "properties": {
                "id": "12996453710",
                "osm_type": "node",
                "lat": 46.9101389,
                "lon": 11.9477284,
                "amenity": "school",
                "contact:city": "Sand in Taufers - Campo Tures",
                "contact:city:de": "Sand in Taufers",
                "contact:city:it": "Campo Tures",
                "contact:email": "sz.sandintaufers@schule.suedtirol.it",
                "contact:facebook": "https://www.facebook.com/oberschulesandintaufers/",
                "contact:fax": "+39 0474 679404",
                "contact:hamlet": "Mühlen in Taufers - Molini di Tures",
                "contact:hamlet:de": "Mühlen in Taufers",
                "contact:hamlet:it": "Molini di Tures",
                "contact:housenumber": "1",
                "contact:instagram": "https://www.instagram.com/oberschule_sand/",
                "contact:pec": "sz.sandintaufers@pec.prov.bz.it",
                "contact:phone": "+39 0474 678166",
                "contact:postcode": "39032",
                "contact:street": "Pfarre - Parrocchia",
                "contact:street:de": "Pfarre",
                "contact:street:it": "Parrocchia",
                "contact:website": "https://www.sz-sandintaufers.it/oberschule/sozialwissenschaftliches-gymnasium/",
                "grades": "9-13",
                "isced:level": "3",
                "name": "Sozialwissenschaftliches Gymnasium Sand in Taufers - Liceo delle Scienze Umane di Campo Tures",
                "name:de": "Sozialwissenschaftliches Gymnasium Sand in Taufers",
                "name:it": "Liceo delle Scienze Umane di Campo Tures",
                "operator": "Schulzentrum Sand in Taufers - Centro scolastico di Campo Tures",
                "operator:de": "Schulzentrum Sand in Taufers",
                "operator:it": "Centro scolastico di Campo Tures",
                "operator:ref": "TBIC83100P",
                "operator:short:de": "SZ Sand in Taufers",
                "operator:type": "public",
                "operator:website": "https://www.sz-sandintaufers.it/",
                "ref": "TBRC13000T",
                "ref:tax_id": "81010030211",
                "school:gender": "mixed",
                "school:language": "de",
                "short_name": "SOGYM Sand in Taufers - LSU Campo Tures",
                "short_name:de": "SOGYM Sand in Taufers",
                "short_name:it": "LSU Campo Tures"
              },
              "geometry": {
                "type": "Point",
                "coordinates": [
                  11.9477284,
                  46.9101389
                ]
              }
            },
            {
              "type": "Feature",
              "properties": {
                "id": "12996453716",
                "osm_type": "node",
                "lat": 46.9100786,
                "lon": 11.9471065,
                "alt_name:de": "Mittelschule Sand",
                "alt_name:it": "Scuola media di Campo Tures",
                "amenity": "school",
                "contact:city": "Sand in Taufers - Campo Tures",
                "contact:city:de": "Sand in Taufers",
                "contact:city:it": "Campo Tures",
                "contact:email": "sz.sandintaufers@schule.suedtirol.it",
                "contact:fax": "+39 0474 678558",
                "contact:hamlet": "Mühlen in Taufers - Molini di Tures",
                "contact:hamlet:de": "Mühlen in Taufers",
                "contact:hamlet:it": "Molini di Tures",
                "contact:housenumber": "1",
                "contact:pec": "sz.sandintaufers@pec.prov.bz.it",
                "contact:phone": "+39 0474 678089",
                "contact:postcode": "39032",
                "contact:street": "Pfarre - Parrocchia",
                "contact:street:de": "Pfarre",
                "contact:street:it": "Parrocchia",
                "contact:website": "https://www.sz-sandintaufers.it/mittelschule/",
                "grades": "6-8",
                "isced:level": "2",
                "name": "Mittelschule Sand in Taufers - Scuola secondaria di primo grado di Campo Tures",
                "name:de": "Mittelschule Sand in Taufers",
                "name:it": "Scuola secondaria di primo grado di Campo Tures",
                "operator": "Schulzentrum Sand in Taufers - Centro scolastico di Campo Tures",
                "operator:de": "Schulzentrum Sand in Taufers",
                "operator:it": "Centro scolastico di Campo Tures",
                "operator:ref": "TBIC83100P",
                "operator:short:de": "SZ Sand in Taufers",
                "operator:type": "public",
                "operator:website": "https://www.sz-sandintaufers.it/",
                "ref": "TBMM83101Q",
                "ref:tax_id": "81010030211",
                "school:gender": "mixed",
                "school:language": "de"
              },
              "geometry": {
                "type": "Point",
                "coordinates": [
                  11.9471065,
                  46.9100786
                ]
              }
            },
            {
              "type": "Feature",
              "properties": {
                "id": "12996453717",
                "osm_type": "node",
                "lat": 46.9101983,
                "lon": 11.9474651,
                "amenity": "school",
                "contact:city": "Sand in Taufers - Campo Tures",
                "contact:city:de": "Sand in Taufers",
                "contact:city:it": "Campo Tures",
                "contact:email": "sz.sandintaufers@schule.suedtirol.it",
                "contact:facebook": "https://www.facebook.com/oberschulesandintaufers/",
                "contact:fax": "+39 0474 679404",
                "contact:hamlet": "Mühlen in Taufers - Molini di Tures",
                "contact:hamlet:de": "Mühlen in Taufers",
                "contact:hamlet:it": "Molini di Tures",
                "contact:housenumber": "1",
                "contact:instagram": "https://www.instagram.com/oberschule_sand/",
                "contact:pec": "sz.sandintaufers@pec.prov.bz.it",
                "contact:phone": "+39 0474 678166",
                "contact:postcode": "39032",
                "contact:street": "Pfarre - Parrocchia",
                "contact:street:de": "Pfarre",
                "contact:street:it": "Parrocchia",
                "contact:website": "https://www.sz-sandintaufers.it/oberschule/fachoberschule-f%C3%BCr-wirtschaft-tourismus/",
                "grades": "9-13",
                "isced:level": "3",
                "name": "Wirtschaftsfachoberschule Sand in Taufers - Istituto Tecnico Economico di Campo Tures",
                "name:de": "Wirtschaftsfachoberschule Sand in Taufers",
                "name:it": "Istituto Tecnico Economico di Campo Tures",
                "operator": "Schulzentrum Sand in Taufers - Centro scolastico di Campo Tures",
                "operator:de": "Schulzentrum Sand in Taufers",
                "operator:it": "Centro scolastico di Campo Tures",
                "operator:ref": "TBIC83100P",
                "operator:short:de": "SZ Sand in Taufers",
                "operator:type": "public",
                "operator:website": "https://www.sz-sandintaufers.it/",
                "ref": "TBRC13000T",
                "ref:tax_id": "81010030211",
                "school:gender": "mixed",
                "school:language": "de",
                "short_name": "WFO Sand in Taufers - ITE Campo Tures",
                "short_name:de": "WFO Sand in Taufers",
                "short_name:it": "ITE Campo Tures"
              },
              "geometry": {
                "type": "Point",
                "coordinates": [
                  11.9474651,
                  46.9101983
                ]
              }
            },
            {
              "type": "Feature",
              "properties": {
                "id": "12996466474",
                "osm_type": "node",
                "lat": 46.9261609,
                "lon": 11.9779359,
                "amenity": "school",
                "contact:city": "Sand in Taufers - Campo Tures",
                "contact:city:de": "Sand in Taufers",
                "contact:city:it": "Campo Tures",
                "contact:email": "gs.ahornach@schule.suedtirol.it",
                "contact:housenumber": "73",
                "contact:pec": "sz.sandintaufers@pec.prov.bz.it",
                "contact:phone": "+39 0474 690014",
                "contact:place": "Ahornach - Acereto",
                "contact:place:de": "Ahornach",
                "contact:place:it": "Acereto",
                "contact:postcode": "39032",
                "contact:street": "Kirchdorf - Via Kirchdorf",
                "contact:street:de": "Kirchdorf",
                "contact:street:it": "Via Kirchdorf",
                "contact:website": "https://www.sz-sandintaufers.it/grundschulen/gs-ahornach/",
                "grades": "1-5",
                "isced:level": "1",
                "name": "Grundschule Ahornach - Scuola elementare di Acereto",
                "name:de": "Grundschule Ahornach",
                "name:it": "Scuola elementare di Acereto",
                "operator": "Schulzentrum Sand in Taufers - Centro scolastico di Campo Tures",
                "operator:de": "Schulzentrum Sand in Taufers",
                "operator:email": "sz.sandintaufers@schule.suedtirol.it",
                "operator:it": "Centro scolastico di Campo Tures",
                "operator:ref": "TBIC83100P",
                "operator:short:de": "SZ Sand in Taufers",
                "operator:type": "public",
                "operator:website": "https://www.sz-sandintaufers.it/",
                "ref": "TBEE83102T",
                "ref:tax_id": "81010030211",
                "school:gender": "mixed",
                "school:language": "de",
                "short_name:de": "GS Ahornach"
              },
              "geometry": {
                "type": "Point",
                "coordinates": [
                  11.9779359,
                  46.9261609
                ]
              }
            },
            {
              "type": "Feature",
              "properties": {
                "id": "12997470670",
                "osm_type": "node",
                "lat": 46.9792346,
                "lon": 11.9396249,
                "amenity": "school",
                "contact:city": "Ahrntal - Valle Aurina",
                "contact:city:de": "Ahrntal",
                "contact:city:it": "Valle Aurina",
                "contact:email": "gs.st-johann@schule.suedtirol.it",
                "contact:housenumber": "65",
                "contact:pec": "ssp.ahrntal@pec.prov.bz.it",
                "contact:phone": "+39 0474 670535",
                "contact:place": "St. Johann - San Giovanni",
                "contact:place:de": "St. Johann",
                "contact:place:it": "San Giovanni",
                "contact:postcode": "39030",
                "contact:street": "Im Dorf",
                "contact:website": "https://www.ssp-ahrntal.it/lernorte/grundschule-st-johann/",
                "grades": "1-5",
                "isced:level": "1",
                "name": "Grundschule St. Johann - Scuola elementare di San Giovanni",
                "name:de": "Grundschule St. Johann",
                "name:it": "Scuola elementare di San Giovanni",
                "operator": "Schulsprengel Ahrntal - Istituto Comprensivo di Valle Aurina",
                "operator:de": "Schulsprengel Ahrntal",
                "operator:email": "ssp.ahrntal@schule.suedtirol.it",
                "operator:it": "Istituto Comprensivo di Valle Aurina",
                "operator:ref": "TBIC80400A",
                "operator:short:de": "SSP Ahrntal",
                "operator:type": "public",
                "operator:website": "https://www.ssp-ahrntal.it/",
                "ref": "TBEE80401C",
                "ref:tax_id": "92022480211",
                "school:gender": "mixed",
                "school:language": "de",
                "short_name:de": "GS St. Johann"
              },
              "geometry": {
                "type": "Point",
                "coordinates": [
                  11.9396249,
                  46.9792346
                ]
              }
            },
            {
              "type": "Feature",
              "properties": {
                "id": "12997534009",
                "osm_type": "node",
                "lat": 47.0113456,
                "lon": 12.0121336,
                "amenity": "school",
                "contact:city": "Ahrntal - Valle Aurina",
                "contact:city:de": "Ahrntal",
                "contact:city:it": "Valle Aurina",
                "contact:email": "gs.st-jakob@schule.suedtirol.it",
                "contact:housenumber": "6",
                "contact:pec": "ssp.ahrntal@pec.prov.bz.it",
                "contact:phone": "+39 0474 650198",
                "contact:place": "St. Jakob - San Giacomo",
                "contact:place:de": "St. Jakob",
                "contact:place:it": "San Giacomo",
                "contact:postcode": "39030",
                "contact:street": "Oberbühel",
                "contact:website": "https://www.ssp-ahrntal.it/lernorte/grundschule-st-jakob/",
                "grades": "1-5",
                "isced:level": "1",
                "name": "Grundschule St. Jakob - Scuola elementare di San Giacomo",
                "name:de": "Grundschule St. Jakob",
                "name:it": "Scuola elementare di San Giacomo",
                "operator": "Schulsprengel Ahrntal - Istituto Comprensivo di Valle Aurina",
                "operator:de": "Schulsprengel Ahrntal",
                "operator:email": "ssp.ahrntal@schule.suedtirol.it",
                "operator:it": "Istituto Comprensivo di Valle Aurina",
                "operator:ref": "TBIC80400A",
                "operator:short:de": "SSP Ahrntal",
                "operator:type": "public",
                "operator:website": "https://www.ssp-ahrntal.it/",
                "ref": "TBEE80403E",
                "ref:tax_id": "92022480211",
                "school:gender": "mixed",
                "school:language": "de",
                "short_name:de": "GS St. Jakob"
              },
              "geometry": {
                "type": "Point",
                "coordinates": [
                  12.0121336,
                  47.0113456
                ]
              }
            },
            {
              "type": "Feature",
              "properties": {
                "id": "13032298209",
                "osm_type": "node",
                "lat": 46.910904,
                "lon": 11.9479758,
                "amenity": "school",
                "contact:city": "Sand in Taufers - Campo Tures",
                "contact:city:de": "Sand in Taufers",
                "contact:city:it": "Campo Tures",
                "contact:email": "gs.sand-in-taufers@schule.suedtirol.it",
                "contact:fax": "+39 0474 678558",
                "contact:hamlet": "Mühlen in Taufers - Molini di Tures",
                "contact:hamlet:de": "Mühlen in Taufers",
                "contact:hamlet:it": "Molini di Tures",
                "contact:housenumber": "1",
                "contact:pec": "sz.sandintaufers@pec.prov.bz.it",
                "contact:phone": "+39 0474 678061",
                "contact:postcode": "39032",
                "contact:street": "Pfarre - Parrocchia",
                "contact:street:de": "Pfarre",
                "contact:street:it": "Parrocchia",
                "contact:website": "https://www.sz-sandintaufers.it/grundschulen/gs-sand/",
                "grades": "1-5",
                "isced:level": "1",
                "name": "Grundschule Sand in Taufers - Scuola elementare di Campo Tures",
                "name:de": "Grundschule Sand in Taufers",
                "name:it": "Scuola elementare di Campo Tures",
                "operator": "Schulzentrum Sand in Taufers - Centro scolastico di Campo Tures",
                "operator:de": "Schulzentrum Sand in Taufers",
                "operator:email": "sz.sandintaufers@schule.suedtirol.it",
                "operator:it": "Centro scolastico di Campo Tures",
                "operator:ref": "TBIC83100P",
                "operator:short:de": "SZ Sand in Taufers",
                "operator:type": "public",
                "operator:website": "https://www.sz-sandintaufers.it/",
                "ref": "TBEE83101R",
                "ref:tax_id": "81010030211",
                "school:gender": "mixed",
                "school:language": "de",
                "short_name:de": "GS Sand in Taufers"
              },
              "geometry": {
                "type": "Point",
                "coordinates": [
                  11.9479758,
                  46.910904
                ]
              }
            },
            {
              "type": "Feature",
              "properties": {
                "id": "10787049045",
                "osm_type": "node",
                "lat": 47.0183666,
                "lon": 12.0385342,
                "amenity": "school",
                "contact:city": "Ahrntal - Valle Aurina",
                "contact:city:de": "Ahrntal",
                "contact:city:it": "Valle Aurina",
                "contact:email": "gs.st-peter@schule.suedtirol.it",
                "contact:housenumber": "10",
                "contact:pec": "ssp.ahrntal@pec.prov.bz.it",
                "contact:phone": "+39 0474 650190",
                "contact:place": "St. Peter - San Pietro",
                "contact:place:de": "St. Peter",
                "contact:place:it": "San Pietro",
                "contact:postcode": "39030",
                "contact:street": "In der Marche",
                "contact:website": "https://www.ssp-ahrntal.it/lernorte/grundschule-st-peter/",
                "grades": "1-5",
                "isced:level": "1",
                "name": "Grundschule St. Peter - Scuola elementare di San Pietro",
                "name:de": "Grundschule St.Peter",
                "name:it": "Scuola elementare di San Pietro",
                "operator": "Schulsprengel Ahrntal - Istituto Comprensivo di Valle Aurina",
                "operator:de": "Schulsprengel Ahrntal",
                "operator:email": "ssp.ahrntal@schule.suedtirol.it",
                "operator:it": "Istituto Comprensivo di Valle Aurina",
                "operator:ref": "TBIC80400A",
                "operator:short:de": "SSP Ahrntal",
                "operator:type": "public",
                "operator:website": "https://www.ssp-ahrntal.it/",
                "ref": "TBEE80404G",
                "ref:tax_id": "92022480211",
                "school:gender": "mixed",
                "school:language": "de",
                "short_name:de": "GS St. Peter"
              },
              "geometry": {
                "type": "Point",
                "coordinates": [
                  12.0385342,
                  47.0183666
                ]
              }
            },
            {
              "type": "Feature",
              "properties": {
                "id": "12996447113",
                "osm_type": "node",
                "lat": 46.9493766,
                "lon": 12.0642305,
                "amenity": "school",
                "contact:city": "Sand in Taufers - Campo Tures",
                "contact:city:de": "Sand in Taufers",
                "contact:city:it": "Campo Tures",
                "contact:email": "gs.rein-in-taufers@schule.suedtirol.it",
                "contact:housenumber": "116",
                "contact:pec": "sz.sandintaufers@pec.prov.bz.it",
                "contact:phone": "+39 0474 672221",
                "contact:place": "Rein in Taufers - Riva di Tures",
                "contact:place:de": "Rein in Taufers",
                "contact:place:it": "Riva di Tures",
                "contact:postcode": "39032",
                "contact:street": "Reintalstraße - Via Riva di Tures",
                "contact:street:de": "Reintalstraße",
                "contact:street:it": "Via Riva di Tures",
                "contact:website": "https://www.sz-sandintaufers.it/",
                "grades": "1-5",
                "isced:level": "1",
                "name": "Grundschule Rein in Taufers - Scuola elementare di Riva di Tures",
                "name:de": "Grundschule Rein in Taufers",
                "name:it": "Scuola elementare di Riva di Tures",
                "operator": "Schulzentrum Sand in Taufers - Centro scolastico di Campo Tures",
                "operator:de": "Schulzentrum Sand in Taufers",
                "operator:email": "sz.sandintaufers@schule.suedtirol.it",
                "operator:it": "Centro scolastico di Campo Tures",
                "operator:ref": "TBIC83100P",
                "operator:type": "public",
                "ref": "TBEE83103V",
                "ref:tax_id": "81010030211",
                "school:gender": "mixed",
                "school:language": "de",
                "short_name:de": "GS Rein in Taufers"
              },
              "geometry": {
                "type": "Point",
                "coordinates": [
                  12.0642305,
                  46.9493766
                ]
              }
            }
          ],
          "children": []
        }
      ]
    },
    {
      "bbox": {
        "south": 46.70320525,
        "west": 12.392062499999998,
        "north": 47.033758500000005,
        "east": 13.345766
      },
      "poiCount": 56,
      "leafCount": 0,
      "averagePosition": [
        12.708971291071427,
        46.824465475
      ],
      "data": [],
      "children": [
        {
          "bbox": {
            "south": 46.70320525,
            "west": 12.392062499999998,
            "north": 46.868481875,
            "east": 12.86891425
          },
          "poiCount": 39,
          "leafCount": 39,
          "averagePosition": [
            12.656866225641025,
            46.79695847948718
          ],
          "data": [
            {
              "type": "Feature",
              "properties": {
                "id": "369552890",
                "osm_type": "node",
                "lat": 46.7520696,
                "lon": 12.4897507,
                "addr:city": "Strassen",
                "addr:housenumber": "46",
                "addr:postcode": "9918",
                "addr:street": "Messensee",
                "amenity": "school",
                "email": "direktion@vs-strassen.tsn.at",
                "name": "Volksschule Strassen",
                "phone": "+43 4846 6398"
              },
              "geometry": {
                "type": "Point",
                "coordinates": [
                  12.4897507,
                  46.7520696
                ]
              }
            },
            {
              "type": "Feature",
              "properties": {
                "id": "529855013",
                "osm_type": "node",
                "lat": 46.7506228,
                "lon": 12.4379679,
                "addr:city": "Heinfels",
                "addr:housenumber": "3",
                "addr:postcode": "9919",
                "addr:street": "Panzendorf",
                "amenity": "school",
                "name": "Volksschule Heinfels",
                "phone": "+43 4842 6378",
                "website": "https://vs-heinfels.tsn.at"
              },
              "geometry": {
                "type": "Point",
                "coordinates": [
                  12.4379679,
                  46.7506228
                ]
              }
            },
            {
              "type": "Feature",
              "properties": {
                "id": "671042349",
                "osm_type": "node",
                "lat": 46.7493045,
                "lon": 12.4184871,
                "addr:city": "Sillian",
                "addr:housenumber": "30",
                "addr:postcode": "9920",
                "addr:street": "Sillian",
                "amenity": "school",
                "name": "Volksschule Sillian",
                "phone": "+43 4842 6426",
                "website": "https://vs-sillian.tsn.at"
              },
              "geometry": {
                "type": "Point",
                "coordinates": [
                  12.4184871,
                  46.7493045
                ]
              }
            },
            {
              "type": "Feature",
              "properties": {
                "id": "671042350",
                "osm_type": "node",
                "lat": 46.746949,
                "lon": 12.4241457,
                "addr:city": "Sillian",
                "addr:housenumber": "185b",
                "addr:postcode": "9920",
                "addr:street": "Sillian",
                "amenity": "school",
                "name": "Mittelschule Sillian",
                "phone": "+43 4842 649011",
                "website": "https://www.ms-sillian.at"
              },
              "geometry": {
                "type": "Point",
                "coordinates": [
                  12.4241457,
                  46.746949
                ]
              }
            },
            {
              "type": "Feature",
              "properties": {
                "id": "908354522",
                "osm_type": "node",
                "lat": 46.7269177,
                "lon": 12.4961866,
                "addr:city": "Kartitsch",
                "addr:housenumber": "68",
                "addr:postcode": "9941",
                "addr:street": "Boden",
                "amenity": "school",
                "email": "direktion@vs-kartitsch.tsn.at",
                "name": "Volksschule Kartitsch",
                "phone": "+43 4848 521311"
              },
              "geometry": {
                "type": "Point",
                "coordinates": [
                  12.4961866,
                  46.7269177
                ]
              }
            },
            {
              "type": "Feature",
              "properties": {
                "id": "1557911407",
                "osm_type": "node",
                "lat": 46.7536141,
                "lon": 12.4657499,
                "addr:city": "Heinfels",
                "addr:housenumber": "1",
                "addr:place": "Tessenberg",
                "addr:postcode": "9919",
                "amenity": "school",
                "name": "Volksschule Tessenberg"
              },
              "geometry": {
                "type": "Point",
                "coordinates": [
                  12.4657499,
                  46.7536141
                ]
              }
            },
            {
              "type": "Feature",
              "properties": {
                "id": "3415434244",
                "osm_type": "node",
                "lat": 46.7561657,
                "lon": 12.5274001,
                "addr:city": "Abfaltersbach",
                "addr:country": "AT",
                "addr:housenumber": "92",
                "addr:place": "Abfaltersbach",
                "addr:postcode": "9913",
                "amenity": "school",
                "name": "Mittelschule Abfaltersbach",
                "phone": "+43 4846 6248",
                "website": "https://ms-abfaltersbach.tsn.at/"
              },
              "geometry": {
                "type": "Point",
                "coordinates": [
                  12.5274001,
                  46.7561657
                ]
              }
            },
            {
              "type": "Feature",
              "properties": {
                "id": "3415434245",
                "osm_type": "node",
                "lat": 46.7562075,
                "lon": 12.5269678,
                "addr:city": "Abfaltersbach",
                "addr:country": "AT",
                "addr:housenumber": "92",
                "addr:place": "Abfaltersbach",
                "addr:postcode": "9913",
                "amenity": "school",
                "name": "Volksschule Abfaltersbach",
                "phone": "+43 4846 6355"
              },
              "geometry": {
                "type": "Point",
                "coordinates": [
                  12.5269678,
                  46.7562075
                ]
              }
            },
            {
              "type": "Feature",
              "properties": {
                "id": "3416319122",
                "osm_type": "node",
                "lat": 46.7869076,
                "lon": 12.4297618,
                "addr:city": "Außervillgraten",
                "addr:country": "AT",
                "addr:housenumber": "136",
                "addr:place": "Außervillgraten",
                "addr:postcode": "9931",
                "amenity": "school",
                "email": "direktion@vs-ausservillgraten.tsn.at",
                "name": "Volksschule Außervillgraten",
                "phone": "+43 4843 552223"
              },
              "geometry": {
                "type": "Point",
                "coordinates": [
                  12.4297618,
                  46.7869076
                ]
              }
            },
            {
              "type": "Feature",
              "properties": {
                "id": "4778785232",
                "osm_type": "node",
                "lat": 46.7559792,
                "lon": 12.5273109,
                "amenity": "school",
                "name": "Turnsaal"
              },
              "geometry": {
                "type": "Point",
                "coordinates": [
                  12.5273109,
                  46.7559792
                ]
              }
            },
            {
              "type": "Feature",
              "properties": {
                "id": "9110715914",
                "osm_type": "node",
                "lat": 46.7474322,
                "lon": 12.4244677,
                "addr:city": "Sillian",
                "addr:housenumber": "185j",
                "addr:postcode": "9920",
                "addr:street": "Sillian",
                "alt_name": "Allgemeine Sonderschule",
                "amenity": "school",
                "name": "Georg Großlercher Schule",
                "phone": "+43 4842 6541",
                "website": "https://www.aso-sillian.tsn.at"
              },
              "geometry": {
                "type": "Point",
                "coordinates": [
                  12.4244677,
                  46.7474322
                ]
              }
            },
            {
              "type": "Feature",
              "properties": {
                "id": "11829464098",
                "osm_type": "node",
                "lat": 46.7493906,
                "lon": 12.4187108,
                "addr:city": "Sillian",
                "addr:housenumber": "30",
                "addr:postcode": "9920",
                "addr:street": "Sillian",
                "amenity": "school",
                "email": "direktion@pts-sillian.tsn.at",
                "name": "Polytechnische Schule Sillian",
                "phone": "+43 4842 6344",
                "website": "https://www.pts-sillian.tsn.at"
              },
              "geometry": {
                "type": "Point",
                "coordinates": [
                  12.4187108,
                  46.7493906
                ]
              }
            },
            {
              "type": "Feature",
              "properties": {
                "id": "549138006",
                "osm_type": "node",
                "lat": 46.831869,
                "lon": 12.8191171,
                "addr:city": "Nussdorf-Debant",
                "addr:country": "AT",
                "addr:housenumber": "4",
                "addr:postcode": "9990",
                "addr:street": "Pestalozzistraße",
                "amenity": "school",
                "name": "Mittelschule"
              },
              "geometry": {
                "type": "Point",
                "coordinates": [
                  12.8191171,
                  46.831869
                ]
              }
            },
            {
              "type": "Feature",
              "properties": {
                "id": "1653182595",
                "osm_type": "node",
                "lat": 46.8319755,
                "lon": 12.8198035,
                "addr:city": "Nussdorf-Debant",
                "addr:country": "AT",
                "addr:housenumber": "2",
                "addr:postcode": "9990",
                "addr:street": "Pestalozzistraße",
                "amenity": "school",
                "name": "Volksschule"
              },
              "geometry": {
                "type": "Point",
                "coordinates": [
                  12.8198035,
                  46.8319755
                ]
              }
            },
            {
              "type": "Feature",
              "properties": {
                "id": "1684409554",
                "osm_type": "node",
                "lat": 46.8248082,
                "lon": 12.7590237,
                "addr:city": "Lienz",
                "addr:housenumber": "1",
                "addr:postcode": "9900",
                "addr:street": "Weidengasse",
                "amenity": "school",
                "email": "kontakt@hak-lienz.at",
                "name": "Bundeshandelsakademie und Bundeshandelsschule",
                "phone": "+43 50 902836100",
                "website": "https://www.haklienz.at"
              },
              "geometry": {
                "type": "Point",
                "coordinates": [
                  12.7590237,
                  46.8248082
                ]
              }
            },
            {
              "type": "Feature",
              "properties": {
                "id": "1710759070",
                "osm_type": "node",
                "lat": 46.8289624,
                "lon": 12.7837249,
                "amenity": "school",
                "name": "Landwirtschaftliche Lehranstalt Hauptgebäude",
                "source": "GeoImage.at",
                "wikidata": "Q19288821",
                "wikipedia": "de:Landwirtschaftliche Lehranstalt Lienz"
              },
              "geometry": {
                "type": "Point",
                "coordinates": [
                  12.7837249,
                  46.8289624
                ]
              }
            },
            {
              "type": "Feature",
              "properties": {
                "id": "1748993905",
                "osm_type": "node",
                "lat": 46.8203541,
                "lon": 12.7894823,
                "amenity": "school",
                "name": "Volksschule Tristach"
              },
              "geometry": {
                "type": "Point",
                "coordinates": [
                  12.7894823,
                  46.8203541
                ]
              }
            },
            {
              "type": "Feature",
              "properties": {
                "id": "3006773683",
                "osm_type": "node",
                "lat": 46.8360964,
                "lon": 12.766824,
                "addr:city": "Lienz",
                "addr:housenumber": "10",
                "addr:postcode": "9900",
                "addr:street": "Emanuel von Hibler-Straße",
                "amenity": "school",
                "email": "direktion@ms-lienz-nord.tsn.at",
                "name": "Mittelschule Lienz Nord",
                "phone": "+43 4852 62424",
                "source": "Survey 06/2014",
                "website": "https://www.ms-lienz-nord.tsn.at"
              },
              "geometry": {
                "type": "Point",
                "coordinates": [
                  12.766824,
                  46.8360964
                ]
              }
            },
            {
              "type": "Feature",
              "properties": {
                "id": "3006773687",
                "osm_type": "node",
                "lat": 46.8358167,
                "lon": 12.7660897,
                "addr:city": "Lienz",
                "addr:housenumber": "10",
                "addr:postcode": "9900",
                "addr:street": "Emanuel von Hibler-Straße",
                "amenity": "school",
                "email": "direktion@vs-lienznord.tsn.at",
                "name": "Volksschule Lienz Nord",
                "phone": "+43 4852 62737",
                "source": "Survey 06/2014",
                "website": "https://www.vs-lienznord.at"
              },
              "geometry": {
                "type": "Point",
                "coordinates": [
                  12.7660897,
                  46.8358167
                ]
              }
            },
            {
              "type": "Feature",
              "properties": {
                "id": "3006773697",
                "osm_type": "node",
                "lat": 46.8359782,
                "lon": 12.7665135,
                "addr:city": "Lienz",
                "addr:housenumber": "10",
                "addr:postcode": "9900",
                "addr:street": "Emanuel von Hibler-Straße",
                "amenity": "school",
                "email": "direktion@pts-lienz.tsn.at",
                "name": "Polytechnische Schule Lienz Nord",
                "phone": "+43 4852 63417",
                "source": "Survey 06/2014",
                "website": "http://www.pts-lienz.at"
              },
              "geometry": {
                "type": "Point",
                "coordinates": [
                  12.7665135,
                  46.8359782
                ]
              }
            },
            {
              "type": "Feature",
              "properties": {
                "id": "4533773516",
                "osm_type": "node",
                "lat": 46.8360377,
                "lon": 12.8026781,
                "amenity": "school",
                "name": "Volksschule Nussdorf"
              },
              "geometry": {
                "type": "Point",
                "coordinates": [
                  12.8026781,
                  46.8360377
                ]
              }
            },
            {
              "type": "Feature",
              "properties": {
                "id": "6030024586",
                "osm_type": "node",
                "lat": 46.8335122,
                "lon": 12.7477653,
                "addr:country": "AT",
                "addr:postcode": "9900",
                "addr:street": "Pfister",
                "amenity": "school",
                "email": "Info@KajakOsttirol.at",
                "name": "Kajakschuleosttirol",
                "opening_hours": "Mo-Su 09:00-18:00",
                "operator": "Michael Waldburger",
                "phone": "+4369917092411",
                "website": "http://www.kajakosttirol.at"
              },
              "geometry": {
                "type": "Point",
                "coordinates": [
                  12.7477653,
                  46.8335122
                ]
              }
            },
            {
              "type": "Feature",
              "properties": {
                "id": "10670918300",
                "osm_type": "node",
                "lat": 46.8652229,
                "lon": 12.6913764,
                "addr:city": "Ainet",
                "addr:country": "AT",
                "addr:housenumber": "17",
                "addr:street": "Oberdörfl",
                "amenity": "school",
                "name": "Volksschule"
              },
              "geometry": {
                "type": "Point",
                "coordinates": [
                  12.6913764,
                  46.8652229
                ]
              }
            },
            {
              "type": "Feature",
              "properties": {
                "id": "11572580476",
                "osm_type": "node",
                "lat": 46.7094768,
                "lon": 12.6123012,
                "addr:city": "Obertilliach",
                "addr:housenumber": "96",
                "addr:postcode": "9942",
                "addr:street": "Dorf",
                "amenity": "school",
                "email": "direktion@vs-obertilliach.tsn.at",
                "name": "Volksschule Obertilliach",
                "phone": "+43 4847 5242"
              },
              "geometry": {
                "type": "Point",
                "coordinates": [
                  12.6123012,
                  46.7094768
                ]
              }
            },
            {
              "type": "Feature",
              "properties": {
                "id": "11572628505",
                "osm_type": "node",
                "lat": 46.703702,
                "lon": 12.6763398,
                "addr:city": "Untertilliach",
                "addr:housenumber": "39",
                "addr:postcode": "9943",
                "addr:street": "Klammberg",
                "amenity": "school",
                "email": "direktion@vs-untertilliach.tsn.at",
                "name": "Volksschule Untertilliach",
                "phone": "+43 4847 5443"
              },
              "geometry": {
                "type": "Point",
                "coordinates": [
                  12.6763398,
                  46.703702
                ]
              }
            },
            {
              "type": "Feature",
              "properties": {
                "id": "11573204262",
                "osm_type": "node",
                "lat": 46.7708004,
                "lon": 12.556397,
                "addr:city": "Anras",
                "addr:housenumber": "3",
                "addr:postcode": "9912",
                "addr:street": "Sonnenboden",
                "amenity": "school",
                "email": "direktion@vs-anras.tsn.at",
                "name": "Volksschule Anras",
                "phone": "+43 4846 6611",
                "website": "https://www.vs-anras.tsn.at/"
              },
              "geometry": {
                "type": "Point",
                "coordinates": [
                  12.556397,
                  46.7708004
                ]
              }
            },
            {
              "type": "Feature",
              "properties": {
                "id": "11573244900",
                "osm_type": "node",
                "lat": 46.7710454,
                "lon": 12.5975936,
                "addr:city": "Anras",
                "addr:housenumber": "23",
                "addr:postcode": "9912",
                "addr:street": "Mittewald",
                "amenity": "school",
                "email": "direktion@vs-mittewald.tsn.at",
                "name": "Volksschule Mittewald/Drau",
                "phone": "+43 4855 8125"
              },
              "geometry": {
                "type": "Point",
                "coordinates": [
                  12.5975936,
                  46.7710454
                ]
              }
            },
            {
              "type": "Feature",
              "properties": {
                "id": "11573295256",
                "osm_type": "node",
                "lat": 46.8254287,
                "lon": 12.7592424,
                "addr:city": "Lienz",
                "addr:housenumber": "5",
                "addr:postcode": "9900",
                "addr:street": "Michael Gamper-Straße",
                "amenity": "school",
                "email": "direktion@vs-lienzsued1.tsn.at",
                "name": "Volksschule Lienz Süd I",
                "phone": "+43 4852 63966",
                "website": "https://www.vs-lienzsued1.tsn.at"
              },
              "geometry": {
                "type": "Point",
                "coordinates": [
                  12.7592424,
                  46.8254287
                ]
              }
            },
            {
              "type": "Feature",
              "properties": {
                "id": "11573366616",
                "osm_type": "node",
                "lat": 46.825451,
                "lon": 12.7591748,
                "addr:city": "Lienz",
                "addr:housenumber": "5",
                "addr:postcode": "9900",
                "addr:street": "Michael Gamper-Straße",
                "amenity": "school",
                "email": "direktion@vs-mgamper-lienz.tsn.at",
                "name": "Volksschule Michael Gamper-Lienz",
                "phone": "+43 4852 63886",
                "website": "https://www.vs-mgamper-lienz.tsn.at"
              },
              "geometry": {
                "type": "Point",
                "coordinates": [
                  12.7591748,
                  46.825451
                ]
              }
            },
            {
              "type": "Feature",
              "properties": {
                "id": "11573372680",
                "osm_type": "node",
                "lat": 46.8317749,
                "lon": 12.7594937,
                "addr:city": "Lienz",
                "addr:housenumber": "2",
                "addr:postcode": "9900",
                "addr:street": "Schloßgasse",
                "amenity": "school",
                "email": "direktion@aso-lienz.tsn.at",
                "name": "Allgemeine Sonderschule Lienz",
                "phone": "+43 4852 62279",
                "website": "https://www.aso-lienz.tsn.at"
              },
              "geometry": {
                "type": "Point",
                "coordinates": [
                  12.7594937,
                  46.8317749
                ]
              }
            },
            {
              "type": "Feature",
              "properties": {
                "id": "11573628525",
                "osm_type": "node",
                "lat": 46.8247112,
                "lon": 12.7590924,
                "addr:city": "Lienz",
                "addr:housenumber": "1",
                "addr:postcode": "9900",
                "addr:street": "Weidengasse",
                "amenity": "school",
                "email": "hlw-lienz@tsn.at",
                "name": "Höhere Bundeslehranstalt für wirtschafliche Berufe und Hotelfachschule",
                "phone": "+43 50902 837",
                "website": "https://hlw-lienz.at/"
              },
              "geometry": {
                "type": "Point",
                "coordinates": [
                  12.7590924,
                  46.8247112
                ]
              }
            },
            {
              "type": "Feature",
              "properties": {
                "id": "11573634642",
                "osm_type": "node",
                "lat": 46.8317756,
                "lon": 12.7593761,
                "addr:city": "Lienz",
                "addr:housenumber": "2",
                "addr:postcode": "9900",
                "addr:street": "Schloßgasse",
                "amenity": "school",
                "email": "direktion@dominikanerinnen.tsn.at",
                "name": "Fachschule für wirtschaftliche Berufe der Dominikanerinnen",
                "phone": "+43 4852 62816",
                "website": "https://www.fs-dominikanerinnen.tsn.at/"
              },
              "geometry": {
                "type": "Point",
                "coordinates": [
                  12.7593761,
                  46.8317756
                ]
              }
            },
            {
              "type": "Feature",
              "properties": {
                "id": "11574056519",
                "osm_type": "node",
                "lat": 46.7839168,
                "lon": 12.6644879,
                "addr:city": "Assling",
                "addr:housenumber": "46",
                "addr:postcode": "9911",
                "addr:street": "Thal-Aue",
                "amenity": "school",
                "email": "direktion@vs-thal.tsn.at",
                "name": "Volksschule Thal-Assling",
                "phone": "+43 4855 820951"
              },
              "geometry": {
                "type": "Point",
                "coordinates": [
                  12.6644879,
                  46.7839168
                ]
              }
            },
            {
              "type": "Feature",
              "properties": {
                "id": "11574056520",
                "osm_type": "node",
                "lat": 46.8493933,
                "lon": 12.7591241,
                "addr:city": "Thurn",
                "addr:housenumber": "56",
                "addr:postcode": "9904",
                "addr:street": "Dorf",
                "amenity": "school",
                "email": "direktion@vs-thurn.tsn.at",
                "name": "Volksschule Thurn",
                "phone": "+43 4852 6400724",
                "website": "https://www.vs-thurn.tsn.at"
              },
              "geometry": {
                "type": "Point",
                "coordinates": [
                  12.7591241,
                  46.8493933
                ]
              }
            },
            {
              "type": "Feature",
              "properties": {
                "id": "11597906254",
                "osm_type": "node",
                "lat": 46.827291,
                "lon": 12.8417717,
                "addr:city": "Dölsach",
                "addr:housenumber": "1",
                "addr:postcode": "9991",
                "addr:street": "Schulplatz",
                "amenity": "school",
                "name": "Volksschule Dölsach"
              },
              "geometry": {
                "type": "Point",
                "coordinates": [
                  12.8417717,
                  46.827291
                ]
              }
            },
            {
              "type": "Feature",
              "properties": {
                "id": "11648221568",
                "osm_type": "node",
                "lat": 46.843076,
                "lon": 12.7323274,
                "addr:city": "Oberlienz",
                "addr:housenumber": "140",
                "addr:postcode": "9903",
                "addr:street": "Kirchdorf",
                "amenity": "school",
                "email": "direktion@vs-oberlienz.tsn.at",
                "name": "Volksschule Oberlienz",
                "phone": "+43 4852 63624",
                "website": "https://vs-oberlienz.tsn.at",
                "wheelchair": "yes"
              },
              "geometry": {
                "type": "Point",
                "coordinates": [
                  12.7323274,
                  46.843076
                ]
              }
            },
            {
              "type": "Feature",
              "properties": {
                "id": "11671591966",
                "osm_type": "node",
                "lat": 46.8369882,
                "lon": 12.8450265,
                "addr:city": "Iselsberg-Stronach",
                "addr:housenumber": "30",
                "addr:postcode": "9992",
                "addr:street": "Iselsberg",
                "amenity": "school",
                "email": "direktion@vs-iselsberg.tsn.at",
                "name": "Volksschule Iselsberg",
                "phone": "+43 4852 72556"
              },
              "geometry": {
                "type": "Point",
                "coordinates": [
                  12.8450265,
                  46.8369882
                ]
              }
            },
            {
              "type": "Feature",
              "properties": {
                "id": "11671618447",
                "osm_type": "node",
                "lat": 46.8439881,
                "lon": 12.7705314,
                "addr:city": "Gaimberg",
                "addr:housenumber": "44",
                "addr:place": "Grafendorf",
                "addr:postcode": "9905",
                "amenity": "school",
                "name": "Volksschule Grafendorf - Gaimberg",
                "phone": "+43 4852 6226220",
                "website": "direktion@vs-grafendorf.tsn.at"
              },
              "geometry": {
                "type": "Point",
                "coordinates": [
                  12.7705314,
                  46.8439881
                ]
              }
            },
            {
              "type": "Feature",
              "properties": {
                "id": "11671691437",
                "osm_type": "node",
                "lat": 46.7903675,
                "lon": 12.6661973,
                "addr:city": "Assling",
                "addr:housenumber": "18",
                "addr:place": "Klausen",
                "addr:postcode": "9911",
                "amenity": "school",
                "email": "direktion@vs-klausenberg.tsn.at",
                "name": "Volksschule Klausenberg - Assling",
                "phone": "+43 4855 820941"
              },
              "geometry": {
                "type": "Point",
                "coordinates": [
                  12.6661973,
                  46.7903675
                ]
              }
            }
          ],
          "children": []
        },
        {
          "bbox": {
            "south": 46.70320525,
            "west": 12.86891425,
            "north": 46.868481875,
            "east": 13.345766
          },
          "poiCount": 6,
          "leafCount": 6,
          "averagePosition": [
            13.0226343,
            46.77663226666667
          ],
          "data": [
            {
              "type": "Feature",
              "properties": {
                "id": "495992183",
                "osm_type": "node",
                "lat": 46.8684805,
                "lon": 12.880448,
                "amenity": "school",
                "name": "Mittelschule Winklern"
              },
              "geometry": {
                "type": "Point",
                "coordinates": [
                  12.880448,
                  46.8684805
                ]
              }
            },
            {
              "type": "Feature",
              "properties": {
                "id": "1389364923",
                "osm_type": "node",
                "lat": 46.7495303,
                "lon": 12.9685001,
                "amenity": "school",
                "name": "Volksschule Oberdrauburg"
              },
              "geometry": {
                "type": "Point",
                "coordinates": [
                  12.9685001,
                  46.7495303
                ]
              }
            },
            {
              "type": "Feature",
              "properties": {
                "id": "4488799195",
                "osm_type": "node",
                "lat": 46.7857718,
                "lon": 12.906114,
                "addr:city": "Nikolsdorf",
                "addr:housenumber": "106",
                "addr:postcode": "9782",
                "addr:street": "Schulstraße",
                "amenity": "school",
                "email": "direktion@vs-nikolsdorf.tsn.at",
                "name": "Volksschule Nikolsdorf",
                "phone": "+43 4858 821060",
                "toilets:wheelchair": "yes",
                "wheelchair": "limited"
              },
              "geometry": {
                "type": "Point",
                "coordinates": [
                  12.906114,
                  46.7857718
                ]
              }
            },
            {
              "type": "Feature",
              "properties": {
                "id": "4488834762",
                "osm_type": "node",
                "lat": 46.7562434,
                "lon": 13.0242231,
                "amenity": "school",
                "name": "Volksschule Irschen",
                "wheelchair": "limited"
              },
              "geometry": {
                "type": "Point",
                "coordinates": [
                  13.0242231,
                  46.7562434
                ]
              }
            },
            {
              "type": "Feature",
              "properties": {
                "id": "4460642592",
                "osm_type": "node",
                "lat": 46.7507809,
                "lon": 13.1836977,
                "amenity": "school",
                "name": "Volksschule Greifenburg",
                "name:de": "Volksschule Greifenburg",
                "name:en": "Ground Shool Greifenburg",
                "wheelchair": "no"
              },
              "geometry": {
                "type": "Point",
                "coordinates": [
                  13.1836977,
                  46.7507809
                ]
              }
            },
            {
              "type": "Feature",
              "properties": {
                "id": "4560476494",
                "osm_type": "node",
                "lat": 46.7489867,
                "lon": 13.1728229,
                "amenity": "school",
                "name": "CNC Akademie",
                "name:de": "CNC Akademie",
                "name:en": "CNC Academy"
              },
              "geometry": {
                "type": "Point",
                "coordinates": [
                  13.1728229,
                  46.7489867
                ]
              }
            }
          ],
          "children": []
        },
        {
          "bbox": {
            "south": 46.868481875,
            "west": 12.392062499999998,
            "north": 47.033758500000005,
            "east": 12.86891425
          },
          "poiCount": 8,
          "leafCount": 8,
          "averagePosition": [
            12.5858565875,
            46.9653401875
          ],
          "data": [
            {
              "type": "Feature",
              "properties": {
                "id": "11574069275",
                "osm_type": "node",
                "lat": 47.0022681,
                "lon": 12.4574517,
                "addr:city": "Virgen",
                "addr:housenumber": "11",
                "addr:postcode": "9972",
                "addr:street": "Niedermauern Straße",
                "amenity": "school",
                "email": "direktion@vs-virgen.tsn.at",
                "name": "Volksschule Virgen",
                "phone": "+43 4874 5390",
                "website": "https://vs-virgen.tsn.at"
              },
              "geometry": {
                "type": "Point",
                "coordinates": [
                  12.4574517,
                  47.0022681
                ]
              }
            },
            {
              "type": "Feature",
              "properties": {
                "id": "476457727",
                "osm_type": "node",
                "lat": 47.001925,
                "lon": 12.540149,
                "amenity": "school",
                "name": "Landesmusikschule Matrei-Iseltal",
                "wikidata": "Q97441368"
              },
              "geometry": {
                "type": "Point",
                "coordinates": [
                  12.540149,
                  47.001925
                ]
              }
            },
            {
              "type": "Feature",
              "properties": {
                "id": "2424172895",
                "osm_type": "node",
                "lat": 46.9357921,
                "lon": 12.5723353,
                "addr:city": "Matrei in Osttirol",
                "addr:housenumber": "16",
                "addr:postcode": "9971",
                "addr:street": "Huben",
                "amenity": "school",
                "email": "direktion@vs-huben.tsn.at",
                "name": "Volksschule Huben / Matrei in Osttirol",
                "phone": "+43 4872 5288",
                "website": "https://vs-huben.tsn.at"
              },
              "geometry": {
                "type": "Point",
                "coordinates": [
                  12.5723353,
                  46.9357921
                ]
              }
            },
            {
              "type": "Feature",
              "properties": {
                "id": "11574051610",
                "osm_type": "node",
                "lat": 46.90372,
                "lon": 12.6280848,
                "addr:city": "St. Johann im Walde",
                "addr:housenumber": "48a",
                "addr:postcode": "9952",
                "addr:street": "St. Johann im Walde",
                "amenity": "school",
                "email": "direktion@vs-stjohanniw.tsn.at",
                "name": "Volksschule St. Johann i. W.",
                "phone": "+43 4872 824",
                "website": "https://www.vs-stjohanniw.tsn.at"
              },
              "geometry": {
                "type": "Point",
                "coordinates": [
                  12.6280848,
                  46.90372
                ]
              }
            },
            {
              "type": "Feature",
              "properties": {
                "id": "11809123029",
                "osm_type": "node",
                "lat": 47.0046353,
                "lon": 12.6457317,
                "amenity": "school",
                "name": "Mittelschule Kals"
              },
              "geometry": {
                "type": "Point",
                "coordinates": [
                  12.6457317,
                  47.0046353
                ]
              }
            },
            {
              "type": "Feature",
              "properties": {
                "id": "11809123030",
                "osm_type": "node",
                "lat": 47.0045941,
                "lon": 12.6455426,
                "amenity": "school",
                "name": "Volksschule Kals"
              },
              "geometry": {
                "type": "Point",
                "coordinates": [
                  12.6455426,
                  47.0045941
                ]
              }
            },
            {
              "type": "Feature",
              "properties": {
                "id": "11818682864",
                "osm_type": "node",
                "lat": 46.8787919,
                "lon": 12.655155,
                "addr:city": "Schlaiten",
                "addr:country": "AT",
                "addr:housenumber": "70",
                "addr:place": "Mesnerdorf",
                "addr:postcode": "9954",
                "amenity": "school",
                "name": "Volksschule Schlaiten"
              },
              "geometry": {
                "type": "Point",
                "coordinates": [
                  12.655155,
                  46.8787919
                ]
              }
            },
            {
              "type": "Feature",
              "properties": {
                "id": "12612465608",
                "osm_type": "node",
                "lat": 46.990995,
                "lon": 12.5424026,
                "addr:city": "Matrei in Osttirol",
                "addr:postcode": "9971",
                "addr:street": "Europastraße",
                "amenity": "school",
                "name": "Skischule Exklusiv",
                "operator": "Skischule Exklusiv",
                "website": "https://ski-osttirol.at/skischule-exklusiv-matrei-osttirol/"
              },
              "geometry": {
                "type": "Point",
                "coordinates": [
                  12.5424026,
                  46.990995
                ]
              }
            }
          ],
          "children": []
        },
        {
          "bbox": {
            "south": 46.868481875,
            "west": 12.86891425,
            "north": 47.033758500000005,
            "east": 13.345766
          },
          "poiCount": 3,
          "leafCount": 3,
          "averagePosition": [
            13.087316999999999,
            46.902056933333334
          ],
          "data": [
            {
              "type": "Feature",
              "properties": {
                "id": "1071564845",
                "osm_type": "node",
                "lat": 46.9355135,
                "lon": 13.1202879,
                "amenity": "school",
                "name": "Volksschule Flattach"
              },
              "geometry": {
                "type": "Point",
                "coordinates": [
                  13.1202879,
                  46.9355135
                ]
              }
            },
            {
              "type": "Feature",
              "properties": {
                "id": "2097840832",
                "osm_type": "node",
                "lat": 46.9017737,
                "lon": 13.2614898,
                "amenity": "school",
                "name": "Volksschule Penk"
              },
              "geometry": {
                "type": "Point",
                "coordinates": [
                  13.2614898,
                  46.9017737
                ]
              }
            },
            {
              "type": "Feature",
              "properties": {
                "id": "12246778613",
                "osm_type": "node",
                "lat": 46.8688836,
                "lon": 12.8801733,
                "amenity": "school",
                "name": "Volksschule Winklern"
              },
              "geometry": {
                "type": "Point",
                "coordinates": [
                  12.8801733,
                  46.8688836
                ]
              }
            }
          ],
          "children": []
        }
      ]
    }
  ]
}