{
  "bbox": {
    "south": 48.355971499999995,
    "west": 15.253173,
    "north": 49.017078,
    "east": 17.16058
  },
  "poiCount": 168,
  "leafCount": 0,
  "averagePosition": [
    16.173480356547618,
    48.65499557142857
  ],
  "data": [],
  "children": [
    {
      "bbox": {
        "south": 48.355971499999995,
        "west": 15.253173,
        "north": 48.68652475,
        "east": 16.2068765
      },
      "poiCount": 50,
      "leafCount": 50,
      "averagePosition": [
        15.662360805999999,
        48.463430218000006
      ],
      "data": [
        {
          "type": "Feature",
          "properties": {
            "id": "7305745661",
            "osm_type": "node",
            "lat": 48.3646582,
            "lon": 15.4282419,
            "addr:city": "Rossatz-Arnsdorf",
            "addr:country": "AT",
            "addr:housenumber": "2",
            "addr:place": "Hofarnsdorf",
            "addr:postcode": "3621",
            "amenity": "school",
            "at_bev:addr_date": "2021-10-01",
            "name": "Volksschule Rossatz-Arnsdorf",
            "phone": "+43 2714 8278",
            "website": "https://vsrossatz.wordpress.com/"
          },
          "geometry": {
            "type": "Point",
            "coordinates": [
              15.4282419,
              48.3646582
            ]
          }
        },
        {
          "type": "Feature",
          "properties": {
            "id": "7389899676",
            "osm_type": "node",
            "lat": 48.3665828,
            "lon": 15.4131331,
            "addr:city": "Spitz",
            "addr:country": "AT",
            "addr:housenumber": "3a",
            "addr:postcode": "3620",
            "addr:street": "Rote Torgasse",
            "amenity": "school",
            "at_bev:addr_date": "2021-10-01",
            "name": "Volksschule Spitz",
            "phone": "+43 2713 2324",
            "website": "http://vsspitz.ac.at/"
          },
          "geometry": {
            "type": "Point",
            "coordinates": [
              15.4131331,
              48.3665828
            ]
          }
        },
        {
          "type": "Feature",
          "properties": {
            "id": "7389899677",
            "osm_type": "node",
            "lat": 48.3665302,
            "lon": 15.4135193,
            "addr:city": "Spitz",
            "addr:country": "AT",
            "addr:housenumber": "3",
            "addr:postcode": "3620",
            "addr:street": "Rote Torgasse",
            "amenity": "school",
            "name": "Neue Mittelschule Wachau",
            "phone": "+43 2713 2355",
            "website": "http://www.nmswachau.at/"
          },
          "geometry": {
            "type": "Point",
            "coordinates": [
              15.4135193,
              48.3665302
            ]
          }
        },
        {
          "type": "Feature",
          "properties": {
            "id": "5151690012",
            "osm_type": "node",
            "lat": 48.3660757,
            "lon": 15.5313221,
            "addr:city": "Bergern im Dunkelsteinerwald",
            "addr:country": "AT",
            "addr:housenumber": "149",
            "addr:place": "Oberbergern",
            "addr:postcode": "3512",
            "amenity": "school",
            "email": "vs.bergern@noeschule.at",
            "name": "VS Bergern",
            "phone": "+43 2714 720 020",
            "website": "http://vs-bergern.schulweb.at/1001,,,2.html"
          },
          "geometry": {
            "type": "Point",
            "coordinates": [
              15.5313221,
              48.3660757
            ]
          }
        },
        {
          "type": "Feature",
          "properties": {
            "id": "11372185360",
            "osm_type": "node",
            "lat": 48.3659432,
            "lon": 15.6129275,
            "amenity": "school",
            "name": "Mittelschule"
          },
          "geometry": {
            "type": "Point",
            "coordinates": [
              15.6129275,
              48.3659432
            ]
          }
        },
        {
          "type": "Feature",
          "properties": {
            "id": "717700465",
            "osm_type": "node",
            "lat": 48.6626428,
            "lon": 15.505826,
            "addr:city": "Röhrenbach",
            "addr:country": "AT",
            "addr:housenumber": "2",
            "addr:place": "Eich Maria",
            "addr:postcode": "3592",
            "amenity": "school",
            "at_bev:addr_date": "2021-10-01",
            "name": "Volksschule Röhrenbach"
          },
          "geometry": {
            "type": "Point",
            "coordinates": [
              15.505826,
              48.6626428
            ]
          }
        },
        {
          "type": "Feature",
          "properties": {
            "id": "1156415911",
            "osm_type": "node",
            "lat": 48.5159517,
            "lon": 15.4916577,
            "amenity": "school",
            "name": "Volksschule Gföhl"
          },
          "geometry": {
            "type": "Point",
            "coordinates": [
              15.4916577,
              48.5159517
            ]
          }
        },
        {
          "type": "Feature",
          "properties": {
            "id": "1756165820",
            "osm_type": "node",
            "lat": 48.4239024,
            "lon": 15.3844177,
            "amenity": "school",
            "name": "VolksschuleSchule"
          },
          "geometry": {
            "type": "Point",
            "coordinates": [
              15.3844177,
              48.4239024
            ]
          }
        },
        {
          "type": "Feature",
          "properties": {
            "id": "5047451678",
            "osm_type": "node",
            "lat": 48.5905006,
            "lon": 15.4492111,
            "addr:city": "Krumau am Kamp",
            "addr:country": "AT",
            "addr:housenumber": "38",
            "addr:place": "Krumau am Kamp",
            "addr:postcode": "3543",
            "amenity": "school",
            "name": "Volksschule Krumau am Kamp"
          },
          "geometry": {
            "type": "Point",
            "coordinates": [
              15.4492111,
              48.5905006
            ]
          }
        },
        {
          "type": "Feature",
          "properties": {
            "id": "6180972688",
            "osm_type": "node",
            "lat": 48.4185968,
            "lon": 15.3061954,
            "addr:housenumber": "15",
            "addr:street": "Schulstraße",
            "amenity": "school",
            "name": "Volksschule Kottes"
          },
          "geometry": {
            "type": "Point",
            "coordinates": [
              15.3061954,
              48.4185968
            ]
          }
        },
        {
          "type": "Feature",
          "properties": {
            "id": "6539838195",
            "osm_type": "node",
            "lat": 48.3980068,
            "lon": 15.4698665,
            "addr:city": "Weißenkirchen in der Wachau",
            "addr:country": "AT",
            "addr:housenumber": "169",
            "addr:place": "Weißenkirchen in der Wachau",
            "addr:postcode": "3610",
            "amenity": "school",
            "name": "Volksschule Weißenkirchen",
            "phone": "+43 2715 2331",
            "website": "https://www.weissenkirchen-wachau.at"
          },
          "geometry": {
            "type": "Point",
            "coordinates": [
              15.4698665,
              48.3980068
            ]
          }
        },
        {
          "type": "Feature",
          "properties": {
            "id": "317807278",
            "osm_type": "node",
            "lat": 48.4499578,
            "lon": 15.6020714,
            "addr:city": "Stratzing",
            "addr:country": "AT",
            "addr:housenumber": "7",
            "addr:postcode": "3552",
            "addr:street": "Kirchengasse",
            "amenity": "school",
            "name": "Volksschule Stratzing",
            "phone": "+43 2719 8286"
          },
          "geometry": {
            "type": "Point",
            "coordinates": [
              15.6020714,
              48.4499578
            ]
          }
        },
        {
          "type": "Feature",
          "properties": {
            "id": "410955699",
            "osm_type": "node",
            "lat": 48.5277654,
            "lon": 15.9304403,
            "addr:city": "Ziersdorf",
            "addr:housenumber": "24",
            "addr:postcode": "3710",
            "addr:street": "Hollabrunner Straße",
            "amenity": "school",
            "name": "Neue NÖ Mittelschule Ziersdorf"
          },
          "geometry": {
            "type": "Point",
            "coordinates": [
              15.9304403,
              48.5277654
            ]
          }
        },
        {
          "type": "Feature",
          "properties": {
            "id": "512023912",
            "osm_type": "node",
            "lat": 48.6192383,
            "lon": 16.0141402,
            "addr:city": "Grabern",
            "addr:country": "AT",
            "addr:housenumber": "99",
            "addr:place": "Mittergrabern",
            "addr:postcode": "2020",
            "amenity": "school",
            "name": "Volksschule Mittergrabern"
          },
          "geometry": {
            "type": "Point",
            "coordinates": [
              16.0141402,
              48.6192383
            ]
          }
        },
        {
          "type": "Feature",
          "properties": {
            "id": "789577594",
            "osm_type": "node",
            "lat": 48.4078279,
            "lon": 16.0157114,
            "addr:city": "Stetteldorf am Wagram",
            "addr:housenumber": "8",
            "addr:postcode": "3463",
            "addr:street": "Kirchenplatz",
            "amenity": "school",
            "name": "Volksschule Stetteldorf am Wagram"
          },
          "geometry": {
            "type": "Point",
            "coordinates": [
              16.0157114,
              48.4078279
            ]
          }
        },
        {
          "type": "Feature",
          "properties": {
            "id": "848401354",
            "osm_type": "node",
            "lat": 48.41755,
            "lon": 15.5614666,
            "addr:city": "Egelsee",
            "addr:country": "AT",
            "addr:housenumber": "8",
            "addr:postcode": "3500",
            "addr:street": "Schulstraße",
            "amenity": "school",
            "isced:level": "1",
            "name": "Volksschule Egelsee",
            "phone": "+43 2732 801 334",
            "website": "http://vskrems-egelsee.schulweb.at/"
          },
          "geometry": {
            "type": "Point",
            "coordinates": [
              15.5614666,
              48.41755
            ]
          }
        },
        {
          "type": "Feature",
          "properties": {
            "id": "908893183",
            "osm_type": "node",
            "lat": 48.4462492,
            "lon": 15.7390015,
            "addr:city": "Etsdorf am Kamp",
            "addr:country": "AT",
            "addr:housenumber": "29",
            "addr:postcode": "3492",
            "addr:street": "Hauptstraße",
            "amenity": "school",
            "isced:level": "2",
            "name": "NÖ Mittelschule Grafenegg",
            "old_name": "Neue Mittelschule Grafenegg",
            "operator": "Gemeinde Grafenegg",
            "phone": "+43 2735 54 54",
            "website": "https://www.nms-grafenegg.at/"
          },
          "geometry": {
            "type": "Point",
            "coordinates": [
              15.7390015,
              48.4462492
            ]
          }
        },
        {
          "type": "Feature",
          "properties": {
            "id": "908893717",
            "osm_type": "node",
            "lat": 48.4460798,
            "lon": 15.7392741,
            "addr:city": "Etsdorf am Kamp",
            "addr:country": "AT",
            "addr:housenumber": "29",
            "addr:postcode": "3492",
            "addr:street": "Hauptstraße",
            "amenity": "school",
            "isced:level": "2",
            "name": "Polytechnische Schule Grafenegg",
            "operator": "Gemeinde Grafenegg",
            "phone": "+43 2735 54 54",
            "website": "https://www.nms-grafenegg.at/"
          },
          "geometry": {
            "type": "Point",
            "coordinates": [
              15.7392741,
              48.4460798
            ]
          }
        },
        {
          "type": "Feature",
          "properties": {
            "id": "2106889447",
            "osm_type": "node",
            "lat": 48.4324974,
            "lon": 15.777845,
            "amenity": "school",
            "contact:phone": "+43 2738 2284",
            "description": "1. und 2. Klassen",
            "isced:level": "2",
            "name": "Mittelschule Grafenwörth/Fels",
            "website": "https://www.nms-fels-grafenwoerth.ac.at/"
          },
          "geometry": {
            "type": "Point",
            "coordinates": [
              15.777845,
              48.4324974
            ]
          }
        },
        {
          "type": "Feature",
          "properties": {
            "id": "2603117547",
            "osm_type": "node",
            "lat": 48.4109838,
            "lon": 15.5926604,
            "addr:city": "Krems an der Donau",
            "addr:country": "AT",
            "addr:housenumber": "29",
            "addr:postcode": "3500",
            "addr:street": "Alauntalstraße",
            "alt_name": "HTBL Krems",
            "amenity": "school",
            "email": "direktion@htlkrems.ac.at",
            "isced:level": "3",
            "name": "HTL Krems",
            "official_name": "Höhere Technische Bundeslehranstalt Krems",
            "phone": "+43 2732 831 90",
            "website": "https://htlkrems.ac.at",
            "wheelchair": "limited",
            "wikidata": "Q15115377",
            "wikipedia": "de:Höhere Technische Bundeslehranstalt Krems"
          },
          "geometry": {
            "type": "Point",
            "coordinates": [
              15.5926604,
              48.4109838
            ]
          }
        },
        {
          "type": "Feature",
          "properties": {
            "id": "2603121608",
            "osm_type": "node",
            "lat": 48.4105569,
            "lon": 15.594513,
            "addr:city": "Krems an der Donau",
            "addr:country": "AT",
            "addr:housenumber": "6",
            "addr:postcode": "3500",
            "addr:street": "Kasernstraße",
            "amenity": "school",
            "email": "office@hlmhlw-krems.ac.at",
            "isced:level": "3",
            "name": "HLM HLW Krems",
            "official_name": "Höhere Bundeslehranstalt für Mode und Höhere Bundeslehranstalt für wirtschaftliche Berufe",
            "phone": "+43 2732 852 40",
            "website": "https://www.hlmhlw-krems.ac.at/"
          },
          "geometry": {
            "type": "Point",
            "coordinates": [
              15.594513,
              48.4105569
            ]
          }
        },
        {
          "type": "Feature",
          "properties": {
            "id": "4065793292",
            "osm_type": "node",
            "lat": 48.6667111,
            "lon": 15.6572021,
            "amenity": "school",
            "name": "Sonderschule Horn",
            "origin": "node 2599610925",
            "website": "https://www.asohorn.ac.at/"
          },
          "geometry": {
            "type": "Point",
            "coordinates": [
              15.6572021,
              48.6667111
            ]
          }
        },
        {
          "type": "Feature",
          "properties": {
            "id": "4128177211",
            "osm_type": "node",
            "lat": 48.392137,
            "lon": 15.5728826,
            "addr:city": "Mautern an der Donau",
            "addr:country": "AT",
            "addr:housenumber": "24",
            "addr:postcode": "3512",
            "addr:street": "Melker Straße",
            "amenity": "school",
            "check_date": "2024-04-03",
            "email": "nms.mautern@noeschule.at",
            "name": "Neue NÖ Mittelschule Mautern",
            "phone": "+43 2732 84911",
            "website": "http://www.nms-mautern.at"
          },
          "geometry": {
            "type": "Point",
            "coordinates": [
              15.5728826,
              48.392137
            ]
          }
        },
        {
          "type": "Feature",
          "properties": {
            "id": "4128177212",
            "osm_type": "node",
            "lat": 48.393129,
            "lon": 15.5752362,
            "addr:city": "Mautern an der Donau",
            "addr:country": "AT",
            "addr:housenumber": "10",
            "addr:postcode": "3512",
            "addr:street": "Melker Straße",
            "amenity": "school",
            "check_date": "2024-04-03",
            "email": "vs.mautern@noeschule.at",
            "name": "Volksschule Mautern",
            "phone": "+43 2732 83497",
            "website": "https://vsmautern.wordpress.com",
            "wikidata": "Q38128771"
          },
          "geometry": {
            "type": "Point",
            "coordinates": [
              15.5752362,
              48.393129
            ]
          }
        },
        {
          "type": "Feature",
          "properties": {
            "id": "4352732495",
            "osm_type": "node",
            "lat": 48.610458,
            "lon": 15.8641119,
            "addr:city": "Straning-Grafenberg",
            "addr:country": "AT",
            "addr:housenumber": "115",
            "addr:place": "Straning",
            "addr:postcode": "3722",
            "amenity": "school"
          },
          "geometry": {
            "type": "Point",
            "coordinates": [
              15.8641119,
              48.610458
            ]
          }
        },
        {
          "type": "Feature",
          "properties": {
            "id": "4589166946",
            "osm_type": "node",
            "lat": 48.377304,
            "lon": 15.6117967,
            "addr:city": "Furth bei Göttweig",
            "addr:country": "AT",
            "addr:housenumber": "246",
            "addr:postcode": "3511",
            "addr:street": "Linke Bachzeile",
            "alt_name": "Neue NÖ Mittelschule Furth bei Göttweig",
            "amenity": "school",
            "email": "hs.furth-goettweig@noeschule.at",
            "name": "Mittelschule Furth bei Göttweig",
            "phone": "+43 2732 84640",
            "website": "https://www.nmsfurth-goettweig.ac.at/"
          },
          "geometry": {
            "type": "Point",
            "coordinates": [
              15.6117967,
              48.377304
            ]
          }
        },
        {
          "type": "Feature",
          "properties": {
            "id": "4592844780",
            "osm_type": "node",
            "lat": 48.3739285,
            "lon": 15.6123156,
            "addr:city": "Furth bei Göttweig",
            "addr:country": "AT",
            "addr:housenumber": "51",
            "addr:postcode": "3511",
            "addr:street": "Kirchengasse",
            "amenity": "school",
            "contact:email": "vs.furth-goettweig@noeschule.at",
            "contact:phone": "+43 2732 84606",
            "isced:level": "1",
            "name": "Volksschule Furth bei Göttweig",
            "website": "https://www.vsfurth.at/about/"
          },
          "geometry": {
            "type": "Point",
            "coordinates": [
              15.6123156,
              48.3739285
            ]
          }
        },
        {
          "type": "Feature",
          "properties": {
            "id": "4652919839",
            "osm_type": "node",
            "lat": 48.4058352,
            "lon": 15.7774048,
            "addr:city": "Grafenwörth",
            "addr:housenumber": "7",
            "addr:postcode": "3484",
            "addr:street": "Großer Wörth",
            "amenity": "school",
            "name": "Musikschule Region Wagram",
            "website": "https://www.msrw.at/"
          },
          "geometry": {
            "type": "Point",
            "coordinates": [
              15.7774048,
              48.4058352
            ]
          }
        },
        {
          "type": "Feature",
          "properties": {
            "id": "4960351975",
            "osm_type": "node",
            "lat": 48.4138022,
            "lon": 15.6086793,
            "addr:city": "Krems an der Donau",
            "addr:country": "AT",
            "addr:housenumber": "22",
            "addr:postcode": "3500",
            "addr:street": "Langenloiser Straße",
            "alt_name": "Tourismusschulen Krems",
            "amenity": "school",
            "check_date": "2025-07-08",
            "email": "office@hlfkrems.ac.at",
            "isced:level": "3",
            "name": "HLF Krems",
            "official_name": "Bundeslehranstalten für Tourismus",
            "phone": "+43 2732 880",
            "website": "https://www.hlfkrems.ac.at/"
          },
          "geometry": {
            "type": "Point",
            "coordinates": [
              15.6086793,
              48.4138022
            ]
          }
        },
        {
          "type": "Feature",
          "properties": {
            "id": "5173426998",
            "osm_type": "node",
            "lat": 48.4075735,
            "lon": 15.6011424,
            "addr:city": "Krems an der Donau",
            "addr:country": "AT",
            "addr:housenumber": "9",
            "addr:postcode": "3500",
            "addr:street": "Edmund-Hofbauer-Straße",
            "amenity": "school",
            "email": "aso.krems@noeschule.at",
            "int_name": "Allgemeine Sonderschule im Schulzentrum Krems an der Donau",
            "isced:level": "1;2",
            "name": "Allgemeine Sonderschule Krems",
            "phone": "+43 2732 739 30",
            "short_name": "ASO Krems",
            "website": "http://www.asokrems.schulweb.at",
            "wikidata": "Q2648849"
          },
          "geometry": {
            "type": "Point",
            "coordinates": [
              15.6011424,
              48.4075735
            ]
          }
        },
        {
          "type": "Feature",
          "properties": {
            "id": "5173426999",
            "osm_type": "node",
            "lat": 48.4074406,
            "lon": 15.6006443,
            "addr:city": "Krems an der Donau",
            "addr:country": "AT",
            "addr:housenumber": "9",
            "addr:postcode": "3500",
            "addr:street": "Edmund-Hofbauer-Straße",
            "amenity": "school",
            "email": "pts.krems@noeschule.at",
            "int_name": "Polytechnische Schule im Schulzentrum Krems an der Donau",
            "isced:level": "2",
            "name": "Polytechnische Schule Krems",
            "phone": "+43 2732 739 20",
            "short_name": "PTS Krems",
            "website": "https://ptskrems.schulweb.at/"
          },
          "geometry": {
            "type": "Point",
            "coordinates": [
              15.6006443,
              48.4074406
            ]
          }
        },
        {
          "type": "Feature",
          "properties": {
            "id": "5173427000",
            "osm_type": "node",
            "lat": 48.4077015,
            "lon": 15.6007891,
            "addr:city": "Krems an der Donau",
            "addr:country": "AT",
            "addr:housenumber": "9",
            "addr:postcode": "3500",
            "addr:street": "Edmund-Hofbauer-Straße",
            "amenity": "school",
            "email": "nms.krems@noeschule.at",
            "int_name": "Neue Mittelschule im Schulzentrum Krems an der Donau",
            "isced:level": "2",
            "name": "Neue Mittelschule Krems",
            "phone": "+43 2732 739 10",
            "short_name": "NMS Krems",
            "website": "https://www.nmskrems.ac.at/"
          },
          "geometry": {
            "type": "Point",
            "coordinates": [
              15.6007891,
              48.4077015
            ]
          }
        },
        {
          "type": "Feature",
          "properties": {
            "id": "5354279172",
            "osm_type": "node",
            "lat": 48.4137013,
            "lon": 15.6075775,
            "addr:city": "Krems an der Donau",
            "addr:country": "AT",
            "addr:housenumber": "22",
            "addr:postcode": "3500",
            "addr:street": "Langenloiser Straße",
            "alt_name": "Handelsakademie und Handelsschule Krems",
            "amenity": "school",
            "email": "office@hakkrems.ac.at",
            "isced:level": "3",
            "name": "HAK/HAS Krems",
            "official_name": "Bundeshandelsakademie und Bundeshandelsschule Krems",
            "phone": "+43 2732 821 21",
            "short_name": "BHAK/BHAS Krems",
            "website": "http://hakkrems.ac.at"
          },
          "geometry": {
            "type": "Point",
            "coordinates": [
              15.6075775,
              48.4137013
            ]
          }
        },
        {
          "type": "Feature",
          "properties": {
            "id": "5413212333",
            "osm_type": "node",
            "lat": 48.446513,
            "lon": 15.7393176,
            "addr:city": "Etsdorf am Kamp",
            "addr:country": "AT",
            "addr:housenumber": "31",
            "addr:postcode": "3492",
            "addr:street": "Hauptstraße",
            "alt_name": "Volksschule Grafenegg",
            "amenity": "school",
            "isced:level": "1",
            "name": "Volksschule Grafenegg-Etsdorf",
            "operator": "Gemeinde Grafenegg",
            "phone": "+43 2735 25 92",
            "short_name": "VS Grafenegg-Etsdorf",
            "website": "https://vsetsdorf.wordpress.com/"
          },
          "geometry": {
            "type": "Point",
            "coordinates": [
              15.7393176,
              48.446513
            ]
          }
        },
        {
          "type": "Feature",
          "properties": {
            "id": "5485856527",
            "osm_type": "node",
            "lat": 48.4278283,
            "lon": 15.5890739,
            "addr:city": "Rehberg",
            "addr:country": "AT",
            "addr:housenumber": "73",
            "addr:postcode": "3500",
            "addr:street": "Rehberger Hauptstraße",
            "amenity": "school",
            "email": "vs.krems-rehberg@noeschule.at",
            "isced:level": "1",
            "name": "Volksschule Rehberg",
            "phone": "+43 2732 801 324",
            "website": "http://vskrems-rehberg.schulweb.at"
          },
          "geometry": {
            "type": "Point",
            "coordinates": [
              15.5890739,
              48.4278283
            ]
          }
        },
        {
          "type": "Feature",
          "properties": {
            "id": "5516041303",
            "osm_type": "node",
            "lat": 48.4129172,
            "lon": 15.6019119,
            "addr:city": "Krems an der Donau",
            "addr:country": "AT",
            "addr:housenumber": "1",
            "addr:postcode": "3500",
            "addr:street": "Hoher Markt",
            "amenity": "school",
            "isced:level": "3",
            "name": "Mary Ward Privat-Oberstufenrealgymnasium Krems",
            "phone": "+43 2732 822 49 - 40",
            "website": "https://www.marywardschulen.com/kremsorg/",
            "wikidata": "Q68355670",
            "wikipedia": "de:Mary Ward Privat-Oberstufenrealgymnasium Krems"
          },
          "geometry": {
            "type": "Point",
            "coordinates": [
              15.6019119,
              48.4129172
            ]
          }
        },
        {
          "type": "Feature",
          "properties": {
            "id": "5518531203",
            "osm_type": "node",
            "lat": 48.6709921,
            "lon": 15.6571521,
            "addr:city": "Horn",
            "addr:country": "AT",
            "addr:housenumber": "1",
            "addr:postcode": "3580",
            "addr:street": "Gartengasse",
            "alt_name": "HAK/HASCH Horn",
            "amenity": "school",
            "fixme": "position",
            "name": "HAK/HAS Horn",
            "official_name": "Bundeshandelsakademie und Bundeshandelsschule Horn",
            "phone": "+43 2982 53 713",
            "website": "https://hakhorn.ac.at/"
          },
          "geometry": {
            "type": "Point",
            "coordinates": [
              15.6571521,
              48.6709921
            ]
          }
        },
        {
          "type": "Feature",
          "properties": {
            "id": "5902168577",
            "osm_type": "node",
            "lat": 48.4189196,
            "lon": 15.654607,
            "addr:city": "Rohrendorf bei Krems",
            "addr:country": "AT",
            "addr:housenumber": "21",
            "addr:postcode": "3495",
            "addr:street": "Obere Hauptstraße",
            "amenity": "school",
            "check_date": "2025-06-05",
            "name": "Volksschule Rohrendorf",
            "phone": "+43 2732 844 90",
            "website": "https://www.rohrendorf.at/de/gemeinde-rohrendorf/volksschule-rohrendorf.html",
            "wheelchair": "no"
          },
          "geometry": {
            "type": "Point",
            "coordinates": [
              15.654607,
              48.4189196
            ]
          }
        },
        {
          "type": "Feature",
          "properties": {
            "id": "6171404938",
            "osm_type": "node",
            "lat": 48.4487333,
            "lon": 15.5547202,
            "addr:city": "Senftenberg",
            "addr:country": "AT",
            "addr:housenumber": "5",
            "addr:postcode": "3541",
            "addr:street": "Hofgarten",
            "amenity": "school",
            "name": "Volksschule Senftenberg",
            "phone": "+43 2719 2347-0"
          },
          "geometry": {
            "type": "Point",
            "coordinates": [
              15.5547202,
              48.4487333
            ]
          }
        },
        {
          "type": "Feature",
          "properties": {
            "id": "6207364853",
            "osm_type": "node",
            "lat": 48.4649568,
            "lon": 15.5733427,
            "addr:city": "Droß",
            "addr:country": "AT",
            "addr:housenumber": "82",
            "addr:postcode": "3552",
            "addr:street": "Kirchenplatz",
            "amenity": "school",
            "name": "Volksschule Droß",
            "phone": "+43 0677 62 19 25 20",
            "website": "http://www.vsdross.schulweb.at"
          },
          "geometry": {
            "type": "Point",
            "coordinates": [
              15.5733427,
              48.4649568
            ]
          }
        },
        {
          "type": "Feature",
          "properties": {
            "id": "8852463871",
            "osm_type": "node",
            "lat": 48.4099398,
            "lon": 15.6171942,
            "addr:city": "Krems an der Donau",
            "addr:country": "AT",
            "addr:housenumber": "28",
            "addr:postcode": "3500",
            "addr:street": "Dr.-Gschmeidler-Straße",
            "amenity": "school",
            "check_date": "2025-01-13",
            "isced:level": "1",
            "mobile": "+43 677 640 531 51",
            "name": "Internationale Schule Krems",
            "name:en": "International School Krems",
            "phone": "+43 2732 71604 20",
            "short_name": "ISK",
            "website": "https://www.school-krems.at/"
          },
          "geometry": {
            "type": "Point",
            "coordinates": [
              15.6171942,
              48.4099398
            ]
          }
        },
        {
          "type": "Feature",
          "properties": {
            "id": "10311648848",
            "osm_type": "node",
            "lat": 48.4126558,
            "lon": 15.6018412,
            "addr:city": "Krems an der Donau",
            "addr:country": "AT",
            "addr:housenumber": "1",
            "addr:postcode": "3500",
            "addr:street": "Hoher Markt",
            "amenity": "school",
            "check_date": "2024-08-27",
            "isced:level": "2",
            "name": "Mary Ward Privatmittelschule Krems",
            "phone": "+43 2732 822 49 - 42",
            "website": "https://www.marywardschulen.com/kremsphs/"
          },
          "geometry": {
            "type": "Point",
            "coordinates": [
              15.6018412,
              48.4126558
            ]
          }
        },
        {
          "type": "Feature",
          "properties": {
            "id": "10311648849",
            "osm_type": "node",
            "lat": 48.4128374,
            "lon": 15.6016749,
            "addr:city": "Krems an der Donau",
            "addr:country": "AT",
            "addr:housenumber": "1",
            "addr:postcode": "3500",
            "addr:street": "Hoher Markt",
            "amenity": "school",
            "isced:level": "1",
            "name": "Mary Ward Privatvolksschule Krems",
            "phone": "+43 2732 822 49 - 31",
            "website": "https://www.marywardschulen.com/kremspvs/"
          },
          "geometry": {
            "type": "Point",
            "coordinates": [
              15.6016749,
              48.4128374
            ]
          }
        },
        {
          "type": "Feature",
          "properties": {
            "id": "10311648900",
            "osm_type": "node",
            "lat": 48.4098446,
            "lon": 15.5990611,
            "addr:city": "Krems an der Donau",
            "addr:country": "AT",
            "addr:housenumber": "1",
            "addr:postcode": "3500",
            "addr:street": "Hafnerplatz",
            "amenity": "school",
            "description": "Die Volksschule Hafnerplatz wird derzeit um- und ausgebaut. Zwischenzeitlich weicht die Schule ins nahe gelegene Schulzentrum Krems, Edmund-Hofbauer-Straße 9, aus.",
            "isced:level": "1",
            "name": "Volksschule Krems-Hafnerplatz",
            "phone": "+43 2732 801 362",
            "website": "http://www.vskrems-hafnerplatz.ac.at/"
          },
          "geometry": {
            "type": "Point",
            "coordinates": [
              15.5990611,
              48.4098446
            ]
          }
        },
        {
          "type": "Feature",
          "properties": {
            "id": "11941622400",
            "osm_type": "node",
            "lat": 48.6709861,
            "lon": 15.6567313,
            "addr:city": "Horn",
            "addr:country": "AT",
            "addr:housenumber": "1",
            "addr:postcode": "3580",
            "addr:street": "Gartengasse",
            "amenity": "school",
            "fixme": "position",
            "name": "HLW/FW Horn",
            "official_name": "Höhere Lehranstalt für wirtschaftliche Berufe und Fachschule für wirtschaftliche Berufe Horn",
            "phone": "+43 2982 53 713",
            "website": "https://www.hlwhorn.ac.at/"
          },
          "geometry": {
            "type": "Point",
            "coordinates": [
              15.6567313,
              48.6709861
            ]
          }
        },
        {
          "type": "Feature",
          "properties": {
            "id": "337231154",
            "osm_type": "node",
            "lat": 48.5614971,
            "lon": 16.081882,
            "amenity": "school",
            "name": "Erzbischöfliches Gymnasium"
          },
          "geometry": {
            "type": "Point",
            "coordinates": [
              16.081882,
              48.5614971
            ]
          }
        },
        {
          "type": "Feature",
          "properties": {
            "id": "337231214",
            "osm_type": "node",
            "lat": 48.5611454,
            "lon": 16.0817905,
            "amenity": "school",
            "name": "Handelsakademie"
          },
          "geometry": {
            "type": "Point",
            "coordinates": [
              16.0817905,
              48.5611454
            ]
          }
        },
        {
          "type": "Feature",
          "properties": {
            "id": "1193886399",
            "osm_type": "node",
            "lat": 48.5652878,
            "lon": 16.0767763,
            "amenity": "school",
            "name": "Musikschule Hollabrunn",
            "wheelchair": "no"
          },
          "geometry": {
            "type": "Point",
            "coordinates": [
              16.0767763,
              48.5652878
            ]
          }
        },
        {
          "type": "Feature",
          "properties": {
            "id": "1251685279",
            "osm_type": "node",
            "lat": 48.5715601,
            "lon": 16.0710659,
            "amenity": "school",
            "name": "LFS Hollabrunn"
          },
          "geometry": {
            "type": "Point",
            "coordinates": [
              16.0710659,
              48.5715601
            ]
          }
        },
        {
          "type": "Feature",
          "properties": {
            "id": "1271988850",
            "osm_type": "node",
            "lat": 48.6270769,
            "lon": 16.0966728,
            "addr:city": "Wullersdorf",
            "addr:country": "AT",
            "addr:housenumber": "256",
            "addr:postcode": "2041",
            "addr:street": "Siedlung",
            "amenity": "school",
            "at_bev:addr_date": "2017-04-07",
            "name": "Volksschule Wullersdorf",
            "website": "http://www.vswullersdorf.ac.at/"
          },
          "geometry": {
            "type": "Point",
            "coordinates": [
              16.0966728,
              48.6270769
            ]
          }
        }
      ],
      "children": []
    },
    {
      "bbox": {
        "south": 48.355971499999995,
        "west": 16.2068765,
        "north": 48.68652475,
        "east": 17.16058
      },
      "poiCount": 39,
      "leafCount": 39,
      "averagePosition": [
        16.579447751282054,
        48.51527423076923
      ],
      "data": [
        {
          "type": "Feature",
          "properties": {
            "id": "77517962",
            "osm_type": "node",
            "lat": 48.3626656,
            "lon": 16.4712427,
            "addr:city": "Großebersdorf",
            "addr:country": "AT",
            "addr:housenumber": "1",
            "addr:postcode": "2203",
            "addr:street": "Am Sandgraben",
            "amenity": "school",
            "created_by": "Potlatch 0.4c",
            "name": "Volksschule Großebersdorf"
          },
          "geometry": {
            "type": "Point",
            "coordinates": [
              16.4712427,
              48.3626656
            ]
          }
        },
        {
          "type": "Feature",
          "properties": {
            "id": "243506859",
            "osm_type": "node",
            "lat": 48.3677893,
            "lon": 16.3828693,
            "amenity": "school",
            "name": "Volksschule Stetten"
          },
          "geometry": {
            "type": "Point",
            "coordinates": [
              16.3828693,
              48.3677893
            ]
          }
        },
        {
          "type": "Feature",
          "properties": {
            "id": "1666470647",
            "osm_type": "node",
            "lat": 48.3703887,
            "lon": 16.5234841,
            "addr:housenumber": "54",
            "addr:postcode": "2120",
            "addr:street": "Hauptstraße",
            "amenity": "school",
            "name": "Polytechnische Schule Wolkersdorf"
          },
          "geometry": {
            "type": "Point",
            "coordinates": [
              16.5234841,
              48.3703887
            ]
          }
        },
        {
          "type": "Feature",
          "properties": {
            "id": "330306958",
            "osm_type": "node",
            "lat": 48.3596927,
            "lon": 16.6036504,
            "amenity": "school"
          },
          "geometry": {
            "type": "Point",
            "coordinates": [
              16.6036504,
              48.3596927
            ]
          }
        },
        {
          "type": "Feature",
          "properties": {
            "id": "333164127",
            "osm_type": "node",
            "lat": 48.3675371,
            "lon": 16.6988615,
            "amenity": "school",
            "name": "Volksschule"
          },
          "geometry": {
            "type": "Point",
            "coordinates": [
              16.6988615,
              48.3675371
            ]
          }
        },
        {
          "type": "Feature",
          "properties": {
            "id": "249116983",
            "osm_type": "node",
            "lat": 48.4129527,
            "lon": 16.4941519,
            "addr:city": "Ulrichskirchen",
            "addr:housename": "Volksschule Ulrichskirchen",
            "addr:housenumber": "1",
            "addr:postcode": "2122",
            "addr:street": "Neue Schule",
            "amenity": "school",
            "check_date": "2025-08-18",
            "loc_name": "Millenniumsschule",
            "name": "Volksschule Ulrichskirchen",
            "short_name": "Volksschule",
            "url": "http://www.millenniumsschule.at"
          },
          "geometry": {
            "type": "Point",
            "coordinates": [
              16.4941519,
              48.4129527
            ]
          }
        },
        {
          "type": "Feature",
          "properties": {
            "id": "259838770",
            "osm_type": "node",
            "lat": 48.5478514,
            "lon": 16.3979405,
            "amenity": "school",
            "name": "Volksschule Niederleis"
          },
          "geometry": {
            "type": "Point",
            "coordinates": [
              16.3979405,
              48.5478514
            ]
          }
        },
        {
          "type": "Feature",
          "properties": {
            "id": "417760757",
            "osm_type": "node",
            "lat": 48.433977,
            "lon": 16.4736949,
            "addr:city": "Unterolberndorf",
            "addr:country": "AT",
            "addr:housenumber": "2",
            "addr:postcode": "2123",
            "addr:street": "Kirchenplatz",
            "amenity": "school",
            "contact:phone": "+43 2245 893 08",
            "name": "Volksschule Kreuttal",
            "website": "http://www.kreuttal.at/Volksschule_KREUTTAL"
          },
          "geometry": {
            "type": "Point",
            "coordinates": [
              16.4736949,
              48.433977
            ]
          }
        },
        {
          "type": "Feature",
          "properties": {
            "id": "1091925285",
            "osm_type": "node",
            "lat": 48.3872431,
            "lon": 16.2125419,
            "amenity": "school",
            "entrance": "yes",
            "name": "Musikschule Stockerau"
          },
          "geometry": {
            "type": "Point",
            "coordinates": [
              16.2125419,
              48.3872431
            ]
          }
        },
        {
          "type": "Feature",
          "properties": {
            "id": "2495105614",
            "osm_type": "node",
            "lat": 48.6761017,
            "lon": 16.4908866,
            "amenity": "school",
            "grades": "1-4",
            "name": "Volksschule Staatz"
          },
          "geometry": {
            "type": "Point",
            "coordinates": [
              16.4908866,
              48.6761017
            ]
          }
        },
        {
          "type": "Feature",
          "properties": {
            "id": "2708651642",
            "osm_type": "node",
            "lat": 48.3878583,
            "lon": 16.2116987,
            "addr:city": "Stockerau",
            "addr:country": "AT",
            "addr:housenumber": "1",
            "addr:postcode": "2000",
            "addr:street": "Schulweg",
            "amenity": "school",
            "name": "Neue NÖ Informatik-Mittelschule Stockerau",
            "website": "http://www.infhs-stockerau.at/"
          },
          "geometry": {
            "type": "Point",
            "coordinates": [
              16.2116987,
              48.3878583
            ]
          }
        },
        {
          "type": "Feature",
          "properties": {
            "id": "2708651646",
            "osm_type": "node",
            "lat": 48.3878993,
            "lon": 16.2110821,
            "addr:city": "Stockerau",
            "addr:country": "AT",
            "addr:housenumber": "18",
            "addr:postcode": "2000",
            "addr:street": "Schießstattgasse",
            "amenity": "school",
            "name": "Allgemeine Sonderschule Stockerau",
            "website": "http://www.spzstockerau.ac.at/"
          },
          "geometry": {
            "type": "Point",
            "coordinates": [
              16.2110821,
              48.3878993
            ]
          }
        },
        {
          "type": "Feature",
          "properties": {
            "id": "2708651652",
            "osm_type": "node",
            "lat": 48.3874237,
            "lon": 16.2113981,
            "addr:city": "Stockerau",
            "addr:country": "AT",
            "addr:housenumber": "3",
            "addr:postcode": "2000",
            "addr:street": "Judithastraße",
            "amenity": "school",
            "name": "Polytechnische Schule Stockerau"
          },
          "geometry": {
            "type": "Point",
            "coordinates": [
              16.2113981,
              48.3874237
            ]
          }
        },
        {
          "type": "Feature",
          "properties": {
            "id": "4369428510",
            "osm_type": "node",
            "lat": 48.6196889,
            "lon": 16.2682513,
            "amenity": "school",
            "name": "Alte Volksschule"
          },
          "geometry": {
            "type": "Point",
            "coordinates": [
              16.2682513,
              48.6196889
            ]
          }
        },
        {
          "type": "Feature",
          "properties": {
            "id": "5002924668",
            "osm_type": "node",
            "lat": 48.3875068,
            "lon": 16.2109076,
            "addr:city": "Stockerau",
            "addr:country": "AT",
            "addr:housenumber": "1",
            "addr:postcode": "2000",
            "addr:street": "Judithastraße",
            "amenity": "school",
            "name": "Neue NÖ Kreativ-Mittelschule Stockerau",
            "website": "http://www.kreativnms-stockerau.ac.at"
          },
          "geometry": {
            "type": "Point",
            "coordinates": [
              16.2109076,
              48.3875068
            ]
          }
        },
        {
          "type": "Feature",
          "properties": {
            "id": "5002924670",
            "osm_type": "node",
            "lat": 48.3883335,
            "lon": 16.2114891,
            "addr:city": "Stockerau",
            "addr:country": "AT",
            "addr:housenumber": "3",
            "addr:postcode": "2000",
            "addr:street": "Schulweg",
            "amenity": "school",
            "name": "Volksschule West Stockerau",
            "website": "http://www.vswest.at"
          },
          "geometry": {
            "type": "Point",
            "coordinates": [
              16.2114891,
              48.3883335
            ]
          }
        },
        {
          "type": "Feature",
          "properties": {
            "id": "5002924671",
            "osm_type": "node",
            "lat": 48.3884489,
            "lon": 16.2124804,
            "addr:city": "Stockerau",
            "addr:country": "AT",
            "addr:housenumber": "4",
            "addr:postcode": "2000",
            "addr:street": "Schulweg",
            "amenity": "school",
            "name": "Volksschule Wondrak Stockerau",
            "website": "vswondrak-stockerau.ac.at"
          },
          "geometry": {
            "type": "Point",
            "coordinates": [
              16.2124804,
              48.3884489
            ]
          }
        },
        {
          "type": "Feature",
          "properties": {
            "id": "5516344937",
            "osm_type": "node",
            "lat": 48.6506347,
            "lon": 16.2986244,
            "addr:city": "Stronsdorf",
            "addr:housenumber": "3",
            "addr:place": "Stronsdorf",
            "addr:postcode": "2153",
            "amenity": "school",
            "name": "Neue NÖ Mittelschule Stronsdorf"
          },
          "geometry": {
            "type": "Point",
            "coordinates": [
              16.2986244,
              48.6506347
            ]
          }
        },
        {
          "type": "Feature",
          "properties": {
            "id": "7551647674",
            "osm_type": "node",
            "lat": 48.5294183,
            "lon": 16.3605247,
            "addr:city": "Ernstbrunn",
            "addr:housenumber": "1",
            "addr:postcode": "2115",
            "addr:street": "Laaer Straße",
            "amenity": "school",
            "check_date": "2025-08-12",
            "contact:website": "https://www.vs-ernstbrunn.jimdo.com/",
            "name": "Naturparkschule - Volksschule Ernstbrunn"
          },
          "geometry": {
            "type": "Point",
            "coordinates": [
              16.3605247,
              48.5294183
            ]
          }
        },
        {
          "type": "Feature",
          "properties": {
            "id": "7551647675",
            "osm_type": "node",
            "lat": 48.5292477,
            "lon": 16.3600577,
            "addr:city": "Ernstbrunn",
            "addr:housenumber": "1",
            "addr:postcode": "2115",
            "addr:street": "Laaer Straße",
            "amenity": "school",
            "check_date": "2025-08-12",
            "contact:website": "http://nmsernstbrunn.ac.at/",
            "name": "NÖ ÖKO Mittelschule Ernstbrunn"
          },
          "geometry": {
            "type": "Point",
            "coordinates": [
              16.3600577,
              48.5292477
            ]
          }
        },
        {
          "type": "Feature",
          "properties": {
            "id": "262816966",
            "osm_type": "node",
            "lat": 48.5669701,
            "lon": 16.5722353,
            "addr:city": "Mistelbach",
            "addr:country": "AT",
            "addr:housenumber": "3",
            "addr:postcode": "2130",
            "addr:street": "Thomas Freund-Gasse",
            "amenity": "school",
            "name": "ECDL-Neue NÖ Mittelschule 1 Mistelbach"
          },
          "geometry": {
            "type": "Point",
            "coordinates": [
              16.5722353,
              48.5669701
            ]
          }
        },
        {
          "type": "Feature",
          "properties": {
            "id": "273325465",
            "osm_type": "node",
            "lat": 48.5672454,
            "lon": 16.5722599,
            "addr:city": "Mistelbach",
            "addr:country": "AT",
            "addr:housenumber": "3",
            "addr:postcode": "2130",
            "addr:street": "Thomas Freund-Gasse",
            "amenity": "school",
            "name": "Europa Mittelschule 2 Mistelbach"
          },
          "geometry": {
            "type": "Point",
            "coordinates": [
              16.5722599,
              48.5672454
            ]
          }
        },
        {
          "type": "Feature",
          "properties": {
            "id": "366085154",
            "osm_type": "node",
            "lat": 48.6650501,
            "lon": 16.6329624,
            "addr:city": "Poysdorf",
            "addr:country": "AT",
            "addr:housenumber": "34",
            "addr:postcode": "2170",
            "addr:street": "Hindenburgstraße",
            "amenity": "school",
            "check_date": "2025-04-06",
            "name": "Neue NÖ Mittelschule Poysdorf 1"
          },
          "geometry": {
            "type": "Point",
            "coordinates": [
              16.6329624,
              48.6650501
            ]
          }
        },
        {
          "type": "Feature",
          "properties": {
            "id": "618265007",
            "osm_type": "node",
            "lat": 48.465322,
            "lon": 16.7427531,
            "addr:city": "Spannberg",
            "addr:country": "AT",
            "addr:housenumber": "22",
            "addr:postcode": "2244",
            "addr:street": "Kirchengasse",
            "amenity": "school",
            "at_bev:addr_date": "2017-10-01",
            "contact:phone": "+43 2538 854 95",
            "name": "Volksschule Spannberg"
          },
          "geometry": {
            "type": "Point",
            "coordinates": [
              16.7427531,
              48.465322
            ]
          }
        },
        {
          "type": "Feature",
          "properties": {
            "id": "1724539483",
            "osm_type": "node",
            "lat": 48.5681425,
            "lon": 16.5670132,
            "addr:city": "Mistelbach",
            "addr:country": "AT",
            "addr:housenumber": "1",
            "addr:postcode": "2130",
            "addr:street": "Bahnzeile",
            "amenity": "school",
            "check_date": "2024-12-15",
            "email": "musikschule@mistelbach.at",
            "fax": "+43 2572 2515 6139",
            "name": "Musikschule Mistelbach",
            "phone": "+43 664 8140659"
          },
          "geometry": {
            "type": "Point",
            "coordinates": [
              16.5670132,
              48.5681425
            ]
          }
        },
        {
          "type": "Feature",
          "properties": {
            "id": "1745717490",
            "osm_type": "node",
            "lat": 48.5937958,
            "lon": 16.8224154,
            "addr:city": "Palterndorf-Dobermannsdorf",
            "addr:housename": "Volksschule",
            "addr:housenumber": "279",
            "addr:postcode": "2181",
            "addr:street": "Palterndorfer Straße",
            "amenity": "school",
            "name": "Volksschule Palterndorf-Dobermannsdorf",
            "source": "local knowledge",
            "website": "http://vspalterndorf-dobermannsdorf.ac.at/"
          },
          "geometry": {
            "type": "Point",
            "coordinates": [
              16.8224154,
              48.5937958
            ]
          }
        },
        {
          "type": "Feature",
          "properties": {
            "id": "3208861574",
            "osm_type": "node",
            "lat": 48.6098683,
            "lon": 16.9095476,
            "addr:city": "Hohenau an der March",
            "addr:housenumber": "28",
            "addr:postcode": "2273",
            "addr:street": "Hauptstraße",
            "amenity": "school",
            "name": "Volksschule"
          },
          "geometry": {
            "type": "Point",
            "coordinates": [
              16.9095476,
              48.6098683
            ]
          }
        },
        {
          "type": "Feature",
          "properties": {
            "id": "3208861575",
            "osm_type": "node",
            "lat": 48.6091926,
            "lon": 16.9087134,
            "addr:city": "Hohenau an der March",
            "addr:country": "AT",
            "addr:housenumber": "27",
            "addr:postcode": "2273",
            "addr:street": "Hauptstraße",
            "amenity": "school",
            "name": "Neue NÖ Mittelschule Hohenau/March"
          },
          "geometry": {
            "type": "Point",
            "coordinates": [
              16.9087134,
              48.6091926
            ]
          }
        },
        {
          "type": "Feature",
          "properties": {
            "id": "3282446761",
            "osm_type": "node",
            "lat": 48.5437412,
            "lon": 16.7615688,
            "addr:city": "Zistersdorf",
            "addr:housenumber": "6",
            "addr:postcode": "2225",
            "addr:street": "Schloßplatz",
            "amenity": "school",
            "name": "Allgemeine Sonderschule",
            "phone": "+43 2532 82124",
            "website": "https://asozistersdorf.schulweb.at/"
          },
          "geometry": {
            "type": "Point",
            "coordinates": [
              16.7615688,
              48.5437412
            ]
          }
        },
        {
          "type": "Feature",
          "properties": {
            "id": "3995067388",
            "osm_type": "node",
            "lat": 48.567763,
            "lon": 16.5674503,
            "addr:city": "Mistelbach",
            "addr:country": "AT",
            "addr:housenumber": "1",
            "addr:postcode": "2130",
            "addr:street": "Bahnzeile",
            "amenity": "school",
            "check_date": "2024-12-15",
            "email": "vs.mistelbach-1@noeschule.at",
            "fax": "+43 2572 2515 6119",
            "name": "Volksschule Mistelbach I",
            "phone": "+43 2572 2515 6110",
            "website": "http://www.vsmistelbach-1.ac.at/"
          },
          "geometry": {
            "type": "Point",
            "coordinates": [
              16.5674503,
              48.567763
            ]
          }
        },
        {
          "type": "Feature",
          "properties": {
            "id": "3995067389",
            "osm_type": "node",
            "lat": 48.568024,
            "lon": 16.5675954,
            "addr:city": "Mistelbach",
            "addr:country": "AT",
            "addr:housenumber": "1",
            "addr:postcode": "2130",
            "addr:street": "Bahnzeile",
            "amenity": "school",
            "check_date": "2024-12-15",
            "email": "vs.mistelbach-2@noeschule.at",
            "fax": "+43 2572 2515 6129",
            "name": "Volksschule Mistelbach II",
            "phone": "+43 2572 2515 6120",
            "website": "http://www.vs2mistelbach.schulweb.at/"
          },
          "geometry": {
            "type": "Point",
            "coordinates": [
              16.5675954,
              48.568024
            ]
          }
        },
        {
          "type": "Feature",
          "properties": {
            "id": "5516521047",
            "osm_type": "node",
            "lat": 48.6667186,
            "lon": 16.628647,
            "addr:city": "Poysdorf",
            "addr:housenumber": "3",
            "addr:postcode": "2170",
            "addr:street": "Wiener Straße",
            "amenity": "school",
            "check_date": "2025-04-07",
            "name": "Volksschule",
            "phone": "+4325522580",
            "website": "https://vspoysdorf.ac.at"
          },
          "geometry": {
            "type": "Point",
            "coordinates": [
              16.628647,
              48.6667186
            ]
          }
        },
        {
          "type": "Feature",
          "properties": {
            "id": "7574698172",
            "osm_type": "node",
            "lat": 48.5953979,
            "lon": 17.0031686,
            "amenity": "school",
            "contact:facebook": "https://www.facebook.com/zussekule/",
            "email": "zus.sekule@gmail.com",
            "name": "Základná umelecká škola",
            "phone": "+421 915 081 053"
          },
          "geometry": {
            "type": "Point",
            "coordinates": [
              17.0031686,
              48.5953979
            ]
          }
        },
        {
          "type": "Feature",
          "properties": {
            "id": "12057025412",
            "osm_type": "node",
            "lat": 48.6091907,
            "lon": 16.9082473,
            "addr:city": "Hohenau an der March",
            "addr:housenumber": "1a",
            "addr:postcode": "2273",
            "addr:street": "Schulgasse",
            "amenity": "school",
            "name": "Volksschule Hohenau an der March",
            "phone": "+43 664 127 470 3"
          },
          "geometry": {
            "type": "Point",
            "coordinates": [
              16.9082473,
              48.6091907
            ]
          }
        },
        {
          "type": "Feature",
          "properties": {
            "id": "12796102124",
            "osm_type": "node",
            "lat": 48.6663275,
            "lon": 16.6286672,
            "addr:city": "Poysdorf",
            "addr:housenumber": "5",
            "addr:postcode": "2170",
            "addr:street": "Wiener Straße",
            "amenity": "school",
            "name": "Sonderschule",
            "phone": "+4325522297",
            "website": "https://asopoysdorf.ac.at"
          },
          "geometry": {
            "type": "Point",
            "coordinates": [
              16.6286672,
              48.6663275
            ]
          }
        },
        {
          "type": "Feature",
          "properties": {
            "id": "1120253233",
            "osm_type": "node",
            "lat": 48.610951,
            "lon": 17.0382775,
            "amenity": "school",
            "check_date": "2025-07-31",
            "name": "Základná škola"
          },
          "geometry": {
            "type": "Point",
            "coordinates": [
              17.0382775,
              48.610951
            ]
          }
        },
        {
          "type": "Feature",
          "properties": {
            "id": "2509560944",
            "osm_type": "node",
            "lat": 48.4038177,
            "lon": 17.1582863,
            "amenity": "school",
            "name": "ZŠ Kuchyňa"
          },
          "geometry": {
            "type": "Point",
            "coordinates": [
              17.1582863,
              48.4038177
            ]
          }
        },
        {
          "type": "Feature",
          "properties": {
            "id": "6801756115",
            "osm_type": "node",
            "lat": 48.6373207,
            "lon": 17.1546194,
            "amenity": "school",
            "email": "zus.sastinstraze@gmail.com",
            "name": "Základná umelecká škola",
            "phone": "+421346592242",
            "website": "https://zussastinstraze.edupage.org"
          },
          "geometry": {
            "type": "Point",
            "coordinates": [
              17.1546194,
              48.6373207
            ]
          }
        },
        {
          "type": "Feature",
          "properties": {
            "id": "6801756116",
            "osm_type": "node",
            "lat": 48.6381965,
            "lon": 17.1481963,
            "amenity": "school",
            "email": "szssastin@stonline.sk",
            "name": "Špeciálna základná škola",
            "phone": "+421 34 65 92 322",
            "website": "https://szssastin.webnode.sk"
          },
          "geometry": {
            "type": "Point",
            "coordinates": [
              17.1481963,
              48.6381965
            ]
          }
        }
      ],
      "children": []
    },
    {
      "bbox": {
        "south": 48.68652475,
        "west": 15.253173,
        "north": 49.017078,
        "east": 16.2068765
      },
      "poiCount": 34,
      "leafCount": 34,
      "averagePosition": [
        15.58942945,
        48.848774508823524
      ],
      "data": [
        {
          "type": "Feature",
          "properties": {
            "id": "370690986",
            "osm_type": "node",
            "lat": 48.8548601,
            "lon": 15.2900744,
            "addr:city": "Thaya",
            "addr:country": "AT",
            "addr:housenumber": "8",
            "addr:postcode": "3842",
            "addr:street": "Hauptstraße",
            "amenity": "school",
            "name": "Volksschule Thaya"
          },
          "geometry": {
            "type": "Point",
            "coordinates": [
              15.2900744,
              48.8548601
            ]
          }
        },
        {
          "type": "Feature",
          "properties": {
            "id": "407871603",
            "osm_type": "node",
            "lat": 48.76527,
            "lon": 15.2893812,
            "amenity": "school",
            "name": "Volksschule Windigsteig"
          },
          "geometry": {
            "type": "Point",
            "coordinates": [
              15.2893812,
              48.76527
            ]
          }
        },
        {
          "type": "Feature",
          "properties": {
            "id": "2169059822",
            "osm_type": "node",
            "lat": 48.6936892,
            "lon": 15.5200097,
            "amenity": "school"
          },
          "geometry": {
            "type": "Point",
            "coordinates": [
              15.5200097,
              48.6936892
            ]
          }
        },
        {
          "type": "Feature",
          "properties": {
            "id": "7843567774",
            "osm_type": "node",
            "lat": 48.8505094,
            "lon": 15.4879276,
            "addr:city": "Raabs an der Thaya",
            "addr:housenumber": "27",
            "addr:postcode": "3820",
            "addr:street": "Puchheimstraße",
            "amenity": "school",
            "email": "vs.raabs-thaya@noeschule.at",
            "name": "Volksschule Raabs/Thaya",
            "operator:type": "public",
            "phone": "+43 2846 262",
            "website": "http://www.vsraabs-thaya.ac.at/"
          },
          "geometry": {
            "type": "Point",
            "coordinates": [
              15.4879276,
              48.8505094
            ]
          }
        },
        {
          "type": "Feature",
          "properties": {
            "id": "7843567775",
            "osm_type": "node",
            "lat": 48.8494291,
            "lon": 15.4900083,
            "addr:city": "Raabs an der Thaya",
            "addr:country": "AT",
            "addr:housenumber": "25",
            "addr:postcode": "3820",
            "addr:street": "Puchheimstraße",
            "amenity": "school",
            "at_bev:addr_date": "2021-10-01",
            "email": "nms.raabs-thaya@noeschule.at",
            "fax": "+43 2846 325 4",
            "name": "NMS Raabs/Thaya",
            "phone": "+43 2846 325",
            "website": "http://www.nmsraabs-thaya.ac.at/"
          },
          "geometry": {
            "type": "Point",
            "coordinates": [
              15.4900083,
              48.8494291
            ]
          }
        },
        {
          "type": "Feature",
          "properties": {
            "id": "8731141104",
            "osm_type": "node",
            "lat": 48.8304808,
            "lon": 15.2939579,
            "amenity": "school",
            "grades": "1-2",
            "name": "Dorfschule Montessorihaus",
            "phone": "+43284253986",
            "website": "https://www.dorfschule-montessorihaus.org/"
          },
          "geometry": {
            "type": "Point",
            "coordinates": [
              15.2939579,
              48.8304808
            ]
          }
        },
        {
          "type": "Feature",
          "properties": {
            "id": "11917779417",
            "osm_type": "node",
            "lat": 48.8125839,
            "lon": 15.2814114,
            "amenity": "school",
            "check_date": "2024-05-19",
            "description": "Allgemeine Sonderschule",
            "name": "Schule Der Vielfalt",
            "wheelchair": "yes"
          },
          "geometry": {
            "type": "Point",
            "coordinates": [
              15.2814114,
              48.8125839
            ]
          }
        },
        {
          "type": "Feature",
          "properties": {
            "id": "12946086934",
            "osm_type": "node",
            "lat": 48.7443852,
            "lon": 15.2575538,
            "amenity": "school",
            "building": "school",
            "building:colour": "yellow",
            "building:levels": "1",
            "building:levels:underground": "1",
            "building:material": "brick",
            "building:use": "public",
            "isced:level": "1",
            "name": "Volksschule Schwarzenau",
            "operator": "Land Niederösterreich",
            "operator:type": "public",
            "roof:material": "metal",
            "roof:shape": "skillion",
            "wheelchair": "limited"
          },
          "geometry": {
            "type": "Point",
            "coordinates": [
              15.2575538,
              48.7443852
            ]
          }
        },
        {
          "type": "Feature",
          "properties": {
            "id": "161827555",
            "osm_type": "node",
            "lat": 48.7941975,
            "lon": 15.6725907,
            "amenity": "school",
            "name": "NOE Landesberufsschule für das Gastgewerbe und Floristen"
          },
          "geometry": {
            "type": "Point",
            "coordinates": [
              15.6725907,
              48.7941975
            ]
          }
        },
        {
          "type": "Feature",
          "properties": {
            "id": "271767675",
            "osm_type": "node",
            "lat": 48.7968923,
            "lon": 15.6775742,
            "amenity": "school",
            "name": "Volksschule Geras"
          },
          "geometry": {
            "type": "Point",
            "coordinates": [
              15.6775742,
              48.7968923
            ]
          }
        },
        {
          "type": "Feature",
          "properties": {
            "id": "487267592",
            "osm_type": "node",
            "lat": 48.7592779,
            "lon": 15.955406,
            "amenity": "school",
            "contact:email": "nms.retz@noeschule.at",
            "contact:phone": "+43 2942 2332",
            "name": "Mittelschule & Polytechnischer Lehrgang Retz",
            "website": "http://nmsretz.ac.at/pages/kontakt.php"
          },
          "geometry": {
            "type": "Point",
            "coordinates": [
              15.955406,
              48.7592779
            ]
          }
        },
        {
          "type": "Feature",
          "properties": {
            "id": "489972814",
            "osm_type": "node",
            "lat": 48.7586303,
            "lon": 15.9532506,
            "amenity": "school",
            "name": "Volksschule Retz"
          },
          "geometry": {
            "type": "Point",
            "coordinates": [
              15.9532506,
              48.7586303
            ]
          }
        },
        {
          "type": "Feature",
          "properties": {
            "id": "1333607396",
            "osm_type": "node",
            "lat": 48.7841325,
            "lon": 15.8104542,
            "addr:city": "Weitersfeld",
            "addr:country": "AT",
            "addr:housenumber": "154",
            "addr:postcode": "2084",
            "addr:street": "Kirchenberg",
            "amenity": "school",
            "name": "Neue Mittelschule Weitersfeld",
            "source": "Local Knowledge",
            "website": "nmsweitersfeld.ac.at"
          },
          "geometry": {
            "type": "Point",
            "coordinates": [
              15.8104542,
              48.7841325
            ]
          }
        },
        {
          "type": "Feature",
          "properties": {
            "id": "1908428302",
            "osm_type": "node",
            "lat": 48.6875146,
            "lon": 15.749845,
            "addr:city": "Sigmundsherberg",
            "addr:country": "AT",
            "addr:housenumber": "7",
            "addr:postcode": "3751",
            "addr:street": "Brugger Straße",
            "amenity": "school",
            "at_bev:addr_date": "2017-10-01",
            "check_date": "2025-05-14",
            "name": "Volksschule Sigmundsherberg"
          },
          "geometry": {
            "type": "Point",
            "coordinates": [
              15.749845,
              48.6875146
            ]
          }
        },
        {
          "type": "Feature",
          "properties": {
            "id": "4884322873",
            "osm_type": "node",
            "lat": 48.7460705,
            "lon": 15.538183,
            "addr:city": "Irnfritz-Messern",
            "addr:country": "AT",
            "addr:housenumber": "8",
            "addr:postcode": "3754",
            "addr:street": "Hauptstraße",
            "amenity": "school",
            "at_bev:addr_date": "2016-10-02",
            "name": "NMS Irnfritz",
            "website": "http://www.nmsirnfritz.at/"
          },
          "geometry": {
            "type": "Point",
            "coordinates": [
              15.538183,
              48.7460705
            ]
          }
        },
        {
          "type": "Feature",
          "properties": {
            "id": "4884322874",
            "osm_type": "node",
            "lat": 48.7458194,
            "lon": 15.5377431,
            "addr:city": "Irnfritz-Messern",
            "addr:country": "AT",
            "addr:housenumber": "2",
            "addr:postcode": "3754",
            "addr:street": "Schulstraße",
            "amenity": "school",
            "at_bev:addr_date": "2016-10-02",
            "name": "VS Irnfritz-Messern",
            "website": "http://www.vsirnfritz-messern.at/"
          },
          "geometry": {
            "type": "Point",
            "coordinates": [
              15.5377431,
              48.7458194
            ]
          }
        },
        {
          "type": "Feature",
          "properties": {
            "id": "12837097851",
            "osm_type": "node",
            "lat": 48.7916046,
            "lon": 15.5694176,
            "amenity": "school",
            "isced:level": "1",
            "name": "Volkdsschule Japons",
            "website": "https://vsjapons.ac.at/"
          },
          "geometry": {
            "type": "Point",
            "coordinates": [
              15.5694176,
              48.7916046
            ]
          }
        },
        {
          "type": "Feature",
          "properties": {
            "id": "456781124",
            "osm_type": "node",
            "lat": 48.8433989,
            "lon": 16.0595755,
            "addr:postcode": "66902",
            "amenity": "school",
            "check_date": "2025-05-03",
            "name": "ZŠ JUDr. J. Mareše a MŠ, Znojmo, Klášterní 2"
          },
          "geometry": {
            "type": "Point",
            "coordinates": [
              16.0595755,
              48.8433989
            ]
          }
        },
        {
          "type": "Feature",
          "properties": {
            "id": "3792891524",
            "osm_type": "node",
            "lat": 48.7076704,
            "lon": 16.0764965,
            "addr:city": "Haugsdorf",
            "addr:country": "AT",
            "addr:housenumber": "1",
            "addr:postcode": "2054",
            "addr:street": "Hauptstraße",
            "amenity": "school",
            "at_bev:addr_date": "2021-10-01",
            "contact:phone": "+43 2944 2205 1",
            "name": "Neue Mittelschule Haugsdorf",
            "website": "http://nmshaugsdorf.ac.at/"
          },
          "geometry": {
            "type": "Point",
            "coordinates": [
              16.0764965,
              48.7076704
            ]
          }
        },
        {
          "type": "Feature",
          "properties": {
            "id": "12509372007",
            "osm_type": "node",
            "lat": 48.8574274,
            "lon": 16.049617,
            "amenity": "school",
            "name": "Základní škola"
          },
          "geometry": {
            "type": "Point",
            "coordinates": [
              16.049617,
              48.8574274
            ]
          }
        },
        {
          "type": "Feature",
          "properties": {
            "id": "370459671",
            "osm_type": "node",
            "lat": 48.9133711,
            "lon": 15.3198309,
            "addr:city": "Dobersberg",
            "addr:housenumber": "8",
            "addr:postcode": "3843",
            "addr:street": "Schulstraße",
            "amenity": "school",
            "name": "NÖ Mittelschule Dobersberg",
            "website": "https://nmsdobersberg.ac.at/"
          },
          "geometry": {
            "type": "Point",
            "coordinates": [
              15.3198309,
              48.9133711
            ]
          }
        },
        {
          "type": "Feature",
          "properties": {
            "id": "851607760",
            "osm_type": "node",
            "lat": 48.8814965,
            "lon": 15.4100934,
            "amenity": "school",
            "name": "Bundesberufsschule für Uhrmacher Karlstein"
          },
          "geometry": {
            "type": "Point",
            "coordinates": [
              15.4100934,
              48.8814965
            ]
          }
        },
        {
          "type": "Feature",
          "properties": {
            "id": "851607765",
            "osm_type": "node",
            "lat": 48.881239,
            "lon": 15.4107533,
            "amenity": "school",
            "name": "Höhere technische Bundeslehranstalt Karlstein",
            "website": "https://www.htl-karlstein.ac.at/"
          },
          "geometry": {
            "type": "Point",
            "coordinates": [
              15.4107533,
              48.881239
            ]
          }
        },
        {
          "type": "Feature",
          "properties": {
            "id": "1772493524",
            "osm_type": "node",
            "lat": 49.0031344,
            "lon": 15.2569915,
            "amenity": "school",
            "name": "Základní škola"
          },
          "geometry": {
            "type": "Point",
            "coordinates": [
              15.2569915,
              49.0031344
            ]
          }
        },
        {
          "type": "Feature",
          "properties": {
            "id": "5641946113",
            "osm_type": "node",
            "lat": 49.0031381,
            "lon": 15.2568702,
            "amenity": "school"
          },
          "geometry": {
            "type": "Point",
            "coordinates": [
              15.2568702,
              49.0031381
            ]
          }
        },
        {
          "type": "Feature",
          "properties": {
            "id": "6449764188",
            "osm_type": "node",
            "lat": 49.0132709,
            "lon": 15.451664,
            "amenity": "school",
            "name": "ZŠ"
          },
          "geometry": {
            "type": "Point",
            "coordinates": [
              15.451664,
              49.0132709
            ]
          }
        },
        {
          "type": "Feature",
          "properties": {
            "id": "7243372006",
            "osm_type": "node",
            "lat": 49.0005872,
            "lon": 15.3503127,
            "amenity": "school",
            "name": "Základní škola",
            "short_name": "ZŠ"
          },
          "geometry": {
            "type": "Point",
            "coordinates": [
              15.3503127,
              49.0005872
            ]
          }
        },
        {
          "type": "Feature",
          "properties": {
            "id": "11716619298",
            "osm_type": "node",
            "lat": 48.8835773,
            "lon": 15.4044533,
            "addr:city": "Karlstein an der Thaya",
            "addr:housenumber": "2",
            "addr:postcode": "3822",
            "addr:street": "Wilhelm-Matzinger-Straße",
            "amenity": "school",
            "name": "Volksschule"
          },
          "geometry": {
            "type": "Point",
            "coordinates": [
              15.4044533,
              48.8835773
            ]
          }
        },
        {
          "type": "Feature",
          "properties": {
            "id": "12337035878",
            "osm_type": "node",
            "lat": 48.9379402,
            "lon": 15.3540403,
            "amenity": "school",
            "name": "Volksschule"
          },
          "geometry": {
            "type": "Point",
            "coordinates": [
              15.3540403,
              48.9379402
            ]
          }
        },
        {
          "type": "Feature",
          "properties": {
            "id": "835681657",
            "osm_type": "node",
            "lat": 48.8964774,
            "lon": 15.809819,
            "amenity": "school"
          },
          "geometry": {
            "type": "Point",
            "coordinates": [
              15.809819,
              48.8964774
            ]
          }
        },
        {
          "type": "Feature",
          "properties": {
            "id": "1337853405",
            "osm_type": "node",
            "lat": 48.9237463,
            "lon": 16.0247775,
            "addr:conscriptionnumber": "157",
            "addr:country": "CZ",
            "addr:housenumber": "157",
            "addr:place": "Hluboké Mašůvky",
            "addr:postcode": "67152",
            "amenity": "school",
            "name": "ZŠ a MŠ Hluboké Mašůvky",
            "ref:ruian:addr": "10725199"
          },
          "geometry": {
            "type": "Point",
            "coordinates": [
              16.0247775,
              48.9237463
            ]
          }
        },
        {
          "type": "Feature",
          "properties": {
            "id": "1490036212",
            "osm_type": "node",
            "lat": 48.9574859,
            "lon": 15.5449886,
            "amenity": "school"
          },
          "geometry": {
            "type": "Point",
            "coordinates": [
              15.5449886,
              48.9574859
            ]
          }
        },
        {
          "type": "Feature",
          "properties": {
            "id": "1673366629",
            "osm_type": "node",
            "lat": 48.9714202,
            "lon": 15.899423,
            "amenity": "school"
          },
          "geometry": {
            "type": "Point",
            "coordinates": [
              15.899423,
              48.9714202
            ]
          }
        },
        {
          "type": "Feature",
          "properties": {
            "id": "8448745424",
            "osm_type": "node",
            "lat": 48.9176048,
            "lon": 15.9861059,
            "amenity": "school",
            "name": "Základní škola a mateřská škola, Kravsko"
          },
          "geometry": {
            "type": "Point",
            "coordinates": [
              15.9861059,
              48.9176048
            ]
          }
        }
      ],
      "children": []
    },
    {
      "bbox": {
        "south": 48.68652475,
        "west": 16.2068765,
        "north": 49.017078,
        "east": 17.16058
      },
      "poiCount": 45,
      "leafCount": 45,
      "averagePosition": [
        16.830835466666667,
        48.84252704000001
      ],
      "data": [
        {
          "type": "Feature",
          "properties": {
            "id": "5443548954",
            "osm_type": "node",
            "lat": 48.7727529,
            "lon": 16.2676023,
            "amenity": "school",
            "name": "Základní škola a Mateřská škola",
            "website": "https://zms-hradek.webnode.cz/"
          },
          "geometry": {
            "type": "Point",
            "coordinates": [
              16.2676023,
              48.7727529
            ]
          }
        },
        {
          "type": "Feature",
          "properties": {
            "id": "8333554333",
            "osm_type": "node",
            "lat": 48.719875,
            "lon": 16.3929805,
            "addr:city": "Laa an der Thaya",
            "addr:housenumber": "17",
            "addr:postcode": "2136",
            "addr:street": "Hubertusgasse",
            "amenity": "school",
            "grades": "1-4",
            "name": "Volksschule Laa",
            "operator": "Stadtgemeinde Laa a.d. Thaya",
            "operator:type": "public"
          },
          "geometry": {
            "type": "Point",
            "coordinates": [
              16.3929805,
              48.719875
            ]
          }
        },
        {
          "type": "Feature",
          "properties": {
            "id": "8333554334",
            "osm_type": "node",
            "lat": 48.7202269,
            "lon": 16.3933486,
            "addr:city": "Laa an der Thaya",
            "addr:housenumber": "1",
            "addr:postcode": "2136",
            "addr:street": "Sieglißweg",
            "amenity": "school",
            "name": "Musikschule"
          },
          "geometry": {
            "type": "Point",
            "coordinates": [
              16.3933486,
              48.7202269
            ]
          }
        },
        {
          "type": "Feature",
          "properties": {
            "id": "8333554337",
            "osm_type": "node",
            "lat": 48.7231691,
            "lon": 16.4015108,
            "addr:city": "Laa an der Thaya",
            "addr:housenumber": "39",
            "addr:postcode": "2136",
            "addr:street": "Anton Bruckner-Straße",
            "amenity": "school",
            "grades": "9-13",
            "name": "Bundeshandelsakademie",
            "wikidata": "Q48818290"
          },
          "geometry": {
            "type": "Point",
            "coordinates": [
              16.4015108,
              48.7231691
            ]
          }
        },
        {
          "type": "Feature",
          "properties": {
            "id": "9032436979",
            "osm_type": "node",
            "lat": 48.7214569,
            "lon": 16.3949085,
            "addr:city": "Laa an der Thaya",
            "addr:housenumber": "1-3",
            "addr:postcode": "2136",
            "addr:street": "Anton Bruckner-Straße",
            "amenity": "school",
            "name": "Sport-Mittelschule",
            "operator": "Mittelschulgemeinde"
          },
          "geometry": {
            "type": "Point",
            "coordinates": [
              16.3949085,
              48.7214569
            ]
          }
        },
        {
          "type": "Feature",
          "properties": {
            "id": "717598063",
            "osm_type": "node",
            "lat": 48.7544191,
            "lon": 16.6491119,
            "addr:city": "Drasenhofen",
            "addr:housenumber": "2",
            "addr:postcode": "2165",
            "addr:street": "Schulstraße",
            "amenity": "school",
            "contact:phone": "+43 2554 8239",
            "name": "Volksschule Drasenhofen",
            "old_name": "Hauptschule Drasenhofen",
            "website": "https://www.schule.at/schulfuehrer/niederoesterreich/mistelbach/detail/hauptschule-drasenhofen.html"
          },
          "geometry": {
            "type": "Point",
            "coordinates": [
              16.6491119,
              48.7544191
            ]
          }
        },
        {
          "type": "Feature",
          "properties": {
            "id": "1112286473",
            "osm_type": "node",
            "lat": 48.7510352,
            "lon": 16.8933773,
            "amenity": "school",
            "building": "yes",
            "name": "SSOŠ Břeclav, s.r.o.",
            "source": "cuzk:km"
          },
          "geometry": {
            "type": "Point",
            "coordinates": [
              16.8933773,
              48.7510352
            ]
          }
        },
        {
          "type": "Feature",
          "properties": {
            "id": "1118673162",
            "osm_type": "node",
            "lat": 48.7243913,
            "lon": 16.7208524,
            "amenity": "school",
            "name": "Volksschule Schrattenberg",
            "wheelchair": "no"
          },
          "geometry": {
            "type": "Point",
            "coordinates": [
              16.7208524,
              48.7243913
            ]
          }
        },
        {
          "type": "Feature",
          "properties": {
            "id": "1217558657",
            "osm_type": "node",
            "lat": 48.8030151,
            "lon": 17.0135988,
            "addr:conscriptionnumber": "4",
            "addr:country": "CZ",
            "addr:housenumber": "4",
            "addr:place": "Moravská Nová Ves",
            "addr:postcode": "69155",
            "addr:street": "Školní",
            "amenity": "school",
            "name": "Základní škola",
            "ref:ruian:addr": "10006923"
          },
          "geometry": {
            "type": "Point",
            "coordinates": [
              17.0135988,
              48.8030151
            ]
          }
        },
        {
          "type": "Feature",
          "properties": {
            "id": "1217693427",
            "osm_type": "node",
            "lat": 48.8343963,
            "lon": 16.9296825,
            "addr:conscriptionnumber": "78",
            "addr:country": "CZ",
            "addr:housenumber": "78",
            "addr:street": "Bílovská",
            "amenity": "school",
            "source:addr": "mvcr:adresa",
            "source:loc": "cuzk:km"
          },
          "geometry": {
            "type": "Point",
            "coordinates": [
              16.9296825,
              48.8343963
            ]
          }
        },
        {
          "type": "Feature",
          "properties": {
            "id": "1218535929",
            "osm_type": "node",
            "lat": 48.8542729,
            "lon": 16.8883194,
            "addr:conscriptionnumber": "1215",
            "addr:country": "CZ",
            "addr:housenumber": "1215",
            "addr:postcode": "69201",
            "addr:street": "Fabian",
            "amenity": "school",
            "check_date": "2024-06-16",
            "int_name": "Elementary school",
            "name": "Základní škola Velké Bílovice",
            "source": "http://www.zsvelkebilovice.cz",
            "source:addr": "mvcr:adresa",
            "source:loc": "cuzk:km"
          },
          "geometry": {
            "type": "Point",
            "coordinates": [
              16.8883194,
              48.8542729
            ]
          }
        },
        {
          "type": "Feature",
          "properties": {
            "id": "1218536050",
            "osm_type": "node",
            "lat": 48.8502763,
            "lon": 16.8908963,
            "addr:conscriptionnumber": "337",
            "addr:country": "CZ",
            "addr:housenumber": "337",
            "addr:place": "Velké Bílovice",
            "addr:postcode": "69102",
            "addr:street": "nám. Osvoboditelů",
            "amenity": "school",
            "name": "ZUŠ Velké Bílovice",
            "ref:ruian:addr": "10139460"
          },
          "geometry": {
            "type": "Point",
            "coordinates": [
              16.8908963,
              48.8502763
            ]
          }
        },
        {
          "type": "Feature",
          "properties": {
            "id": "1514092386",
            "osm_type": "node",
            "lat": 48.8116042,
            "lon": 16.6439289,
            "amenity": "school",
            "check_date": "2025-04-14",
            "name": "základní škola",
            "source": "survey"
          },
          "geometry": {
            "type": "Point",
            "coordinates": [
              16.6439289,
              48.8116042
            ]
          }
        },
        {
          "type": "Feature",
          "properties": {
            "id": "3188359950",
            "osm_type": "node",
            "lat": 48.7410535,
            "lon": 16.7564226,
            "amenity": "school",
            "name": "Základní umělecká škola"
          },
          "geometry": {
            "type": "Point",
            "coordinates": [
              16.7564226,
              48.7410535
            ]
          }
        },
        {
          "type": "Feature",
          "properties": {
            "id": "3667914629",
            "osm_type": "node",
            "lat": 48.8067758,
            "lon": 16.6379376,
            "amenity": "school",
            "check_date": "2024-06-07",
            "name": "Základní umělecká škola",
            "source": "survey"
          },
          "geometry": {
            "type": "Point",
            "coordinates": [
              16.6379376,
              48.8067758
            ]
          }
        },
        {
          "type": "Feature",
          "properties": {
            "id": "3950539128",
            "osm_type": "node",
            "lat": 48.8303701,
            "lon": 16.8480353,
            "amenity": "school",
            "name": "Základní umělecká škola"
          },
          "geometry": {
            "type": "Point",
            "coordinates": [
              16.8480353,
              48.8303701
            ]
          }
        },
        {
          "type": "Feature",
          "properties": {
            "id": "4240391118",
            "osm_type": "node",
            "lat": 48.8034181,
            "lon": 16.6317446,
            "amenity": "school",
            "name": "ZŠ Mikulov",
            "official_name": "Základní škola Mikulov"
          },
          "geometry": {
            "type": "Point",
            "coordinates": [
              16.6317446,
              48.8034181
            ]
          }
        },
        {
          "type": "Feature",
          "properties": {
            "id": "5387961229",
            "osm_type": "node",
            "lat": 48.7226896,
            "lon": 16.5856411,
            "amenity": "school",
            "description": "elementary school + gym for first and second and second grade (third and fourth grade in Ottenthal)",
            "name": "Volksschule Ottenthal (Falkenstein)",
            "website": "http://vsottenthal.ac.at/"
          },
          "geometry": {
            "type": "Point",
            "coordinates": [
              16.5856411,
              48.7226896
            ]
          }
        },
        {
          "type": "Feature",
          "properties": {
            "id": "7723521866",
            "osm_type": "node",
            "lat": 48.8718533,
            "lon": 16.7737962,
            "amenity": "school",
            "name": "Základní škola",
            "website": "https://www.zszajeci.cz/"
          },
          "geometry": {
            "type": "Point",
            "coordinates": [
              16.7737962,
              48.8718533
            ]
          }
        },
        {
          "type": "Feature",
          "properties": {
            "id": "7848747867",
            "osm_type": "node",
            "lat": 48.7771818,
            "lon": 16.7639667,
            "amenity": "school"
          },
          "geometry": {
            "type": "Point",
            "coordinates": [
              16.7639667,
              48.7771818
            ]
          }
        },
        {
          "type": "Feature",
          "properties": {
            "id": "8543897633",
            "osm_type": "node",
            "lat": 48.6916509,
            "lon": 17.0149872,
            "amenity": "school",
            "email": "zsbrodske@gmail.com",
            "name": "Základná škola",
            "phone": "+421346591105",
            "website": "https://zsbrodske.edupage.org/"
          },
          "geometry": {
            "type": "Point",
            "coordinates": [
              17.0149872,
              48.6916509
            ]
          }
        },
        {
          "type": "Feature",
          "properties": {
            "id": "12176932582",
            "osm_type": "node",
            "lat": 48.7694982,
            "lon": 16.8883695,
            "addr:city": "Břeclav",
            "addr:housenumber": "2969/4",
            "addr:postcode": "690 03",
            "addr:street": "Herbenova",
            "amenity": "school",
            "email": "skola@zsherbenova.cz",
            "grades": "ZŠ 1-9;ZŠS 1-10",
            "image": "https://www.zsherbenova.cz/modules/mod_carouselck/images/slides/herbenovan.jpg",
            "name": "MŠ a ZŠ Břeclav, Herbenova, p. o.",
            "operator": "Jihomoravský Kraj",
            "operator:type": "public",
            "phone": "+420 519 371 030, +420 724 095 284",
            "website": "https://www.zsherbenova.cz/",
            "wheelchair": "yes"
          },
          "geometry": {
            "type": "Point",
            "coordinates": [
              16.8883695,
              48.7694982
            ]
          }
        },
        {
          "type": "Feature",
          "properties": {
            "id": "444815736",
            "osm_type": "node",
            "lat": 48.8575216,
            "lon": 17.1284684,
            "addr:city": "Hodonín",
            "addr:conscriptionnumber": "2222",
            "addr:country": "CZ",
            "addr:housenumber": "2222/32",
            "addr:place": "Hodonín",
            "addr:postcode": "69501",
            "addr:street": "Brandlova",
            "addr:streetnumber": "32",
            "amenity": "school",
            "name": "Střední škola průmyslová a umělecká",
            "ref:ruian:addr": "23197650",
            "source:addr": "cuzk:ruian",
            "wikidata": "Q12057003",
            "wikipedia": "cs:Střední škola průmyslová a umělecká Hodonín"
          },
          "geometry": {
            "type": "Point",
            "coordinates": [
              17.1284684,
              48.8575216
            ]
          }
        },
        {
          "type": "Feature",
          "properties": {
            "id": "683890841",
            "osm_type": "node",
            "lat": 48.7146451,
            "lon": 17.11781,
            "amenity": "school",
            "name": "Stredná odborná škola elektrotechnická",
            "website": "https://sosegbely.edupage.org/"
          },
          "geometry": {
            "type": "Point",
            "coordinates": [
              17.11781,
              48.7146451
            ]
          }
        },
        {
          "type": "Feature",
          "properties": {
            "id": "683891017",
            "osm_type": "node",
            "lat": 48.7154505,
            "lon": 17.1169239,
            "amenity": "school",
            "name": "ZŠ a MŠ Gbely"
          },
          "geometry": {
            "type": "Point",
            "coordinates": [
              17.1169239,
              48.7154505
            ]
          }
        },
        {
          "type": "Feature",
          "properties": {
            "id": "1695245490",
            "osm_type": "node",
            "lat": 48.849775,
            "lon": 17.1332575,
            "addr:conscriptionnumber": "3835",
            "addr:country": "CZ",
            "addr:housenumber": "3835/1",
            "addr:postcode": "69501",
            "addr:street": "Očovská",
            "addr:streetnumber": "1",
            "amenity": "school",
            "name": "Základní škola Očovská",
            "source:addr": "mvcr:adresa",
            "source:loc": "cuzk:km"
          },
          "geometry": {
            "type": "Point",
            "coordinates": [
              17.1332575,
              48.849775
            ]
          }
        },
        {
          "type": "Feature",
          "properties": {
            "id": "1695247882",
            "osm_type": "node",
            "lat": 48.8496425,
            "lon": 17.130795,
            "addr:conscriptionnumber": "813",
            "addr:country": "CZ",
            "addr:housename": "Gymnázium Hodonín",
            "addr:housenumber": "813/1",
            "addr:postcode": "69501",
            "addr:street": "Legionářů",
            "addr:streetnumber": "1",
            "amenity": "school",
            "name": "Gymnázium Hodonín",
            "source:addr": "mvcr:adresa",
            "source:loc": "cuzk:km"
          },
          "geometry": {
            "type": "Point",
            "coordinates": [
              17.130795,
              48.8496425
            ]
          }
        },
        {
          "type": "Feature",
          "properties": {
            "id": "1695266457",
            "osm_type": "node",
            "lat": 48.8610444,
            "lon": 17.1093878,
            "addr:conscriptionnumber": "3793",
            "addr:country": "CZ",
            "addr:housename": "Základní škola U Červených Domků",
            "addr:housenumber": "3793",
            "addr:place": "Hodonín",
            "addr:postcode": "69501",
            "addr:street": "U Červených domků",
            "amenity": "school",
            "name": "Základní škola U Červených Domků",
            "ref:ruian:addr": "27484289",
            "source": "cuzk:km"
          },
          "geometry": {
            "type": "Point",
            "coordinates": [
              17.1093878,
              48.8610444
            ]
          }
        },
        {
          "type": "Feature",
          "properties": {
            "id": "1695266604",
            "osm_type": "node",
            "lat": 48.8534676,
            "lon": 17.13558,
            "addr:conscriptionnumber": "3894",
            "addr:country": "CZ",
            "addr:housenumber": "3894/2",
            "addr:place": "Hodonín",
            "addr:postcode": "69501",
            "addr:street": "Lužní",
            "addr:streetnumber": "2",
            "amenity": "school",
            "name": "Mateřská škola Hodonín",
            "source": "cuzk:km"
          },
          "geometry": {
            "type": "Point",
            "coordinates": [
              17.13558,
              48.8534676
            ]
          }
        },
        {
          "type": "Feature",
          "properties": {
            "id": "2268052285",
            "osm_type": "node",
            "lat": 48.8580524,
            "lon": 17.1128256,
            "addr:city": "Hodonín",
            "addr:conscriptionnumber": "2726",
            "addr:country": "CZ",
            "addr:housename": "Integrovaná střední škola",
            "addr:housenumber": "2726/4",
            "addr:postcode": "69501",
            "addr:street": "P. Jilemnického",
            "addr:streetnumber": "4",
            "amenity": "school",
            "name": "Integrovaná střední škola",
            "ref:ruian:addr": "23202246",
            "source": "Local knowledge",
            "source:addr": "cuzk:ruian"
          },
          "geometry": {
            "type": "Point",
            "coordinates": [
              17.1128256,
              48.8580524
            ]
          }
        },
        {
          "type": "Feature",
          "properties": {
            "id": "8850643302",
            "osm_type": "node",
            "lat": 48.7193242,
            "lon": 17.1155727,
            "amenity": "school",
            "name": "Základná umelecká škola"
          },
          "geometry": {
            "type": "Point",
            "coordinates": [
              17.1155727,
              48.7193242
            ]
          }
        },
        {
          "type": "Feature",
          "properties": {
            "id": "7090436053",
            "osm_type": "node",
            "lat": 48.9909054,
            "lon": 16.5145672,
            "amenity": "school",
            "name": "Odborné učiliště"
          },
          "geometry": {
            "type": "Point",
            "coordinates": [
              16.5145672,
              48.9909054
            ]
          }
        },
        {
          "type": "Feature",
          "properties": {
            "id": "420398882",
            "osm_type": "node",
            "lat": 48.9975887,
            "lon": 16.8660417,
            "amenity": "school",
            "note": "ZŠ a gymnázium"
          },
          "geometry": {
            "type": "Point",
            "coordinates": [
              16.8660417,
              48.9975887
            ]
          }
        },
        {
          "type": "Feature",
          "properties": {
            "id": "583834010",
            "osm_type": "node",
            "lat": 48.9623201,
            "lon": 16.5738654,
            "amenity": "school"
          },
          "geometry": {
            "type": "Point",
            "coordinates": [
              16.5738654,
              48.9623201
            ]
          }
        },
        {
          "type": "Feature",
          "properties": {
            "id": "1191273981",
            "osm_type": "node",
            "lat": 48.9664676,
            "lon": 16.8131063,
            "addr:conscriptionnumber": "57",
            "addr:country": "CZ",
            "addr:housenumber": "57",
            "addr:place": "Boleradice",
            "addr:postcode": "69112",
            "amenity": "school",
            "name": "ZŠ a MŠ Boleradice",
            "ref:ruian:addr": "9901876"
          },
          "geometry": {
            "type": "Point",
            "coordinates": [
              16.8131063,
              48.9664676
            ]
          }
        },
        {
          "type": "Feature",
          "properties": {
            "id": "2038950322",
            "osm_type": "node",
            "lat": 48.9646778,
            "lon": 17.023628,
            "amenity": "school",
            "name": "ZŠ TGM Šardice"
          },
          "geometry": {
            "type": "Point",
            "coordinates": [
              17.023628,
              48.9646778
            ]
          }
        },
        {
          "type": "Feature",
          "properties": {
            "id": "2306156491",
            "osm_type": "node",
            "lat": 48.9042148,
            "lon": 16.9342808,
            "amenity": "school",
            "check_date": "2024-06-07",
            "name": "Základní Škola T. G. Masaryka",
            "source": "local knowledge"
          },
          "geometry": {
            "type": "Point",
            "coordinates": [
              16.9342808,
              48.9042148
            ]
          }
        },
        {
          "type": "Feature",
          "properties": {
            "id": "2382520393",
            "osm_type": "node",
            "lat": 49.0131513,
            "lon": 16.7748414,
            "addr:housenumber": "531",
            "addr:postcode": "691 76",
            "addr:street": "Nikolčická",
            "amenity": "school",
            "name": "ZŠ Šitbořice"
          },
          "geometry": {
            "type": "Point",
            "coordinates": [
              16.7748414,
              49.0131513
            ]
          }
        },
        {
          "type": "Feature",
          "properties": {
            "id": "4044845595",
            "osm_type": "node",
            "lat": 48.9286756,
            "lon": 16.6648549,
            "amenity": "school",
            "name": "Základní škola Popice",
            "website": "https://www.zspopice.cz/"
          },
          "geometry": {
            "type": "Point",
            "coordinates": [
              16.6648549,
              48.9286756
            ]
          }
        },
        {
          "type": "Feature",
          "properties": {
            "id": "7575104326",
            "osm_type": "node",
            "lat": 49.0125263,
            "lon": 16.656947,
            "addr:conscriptionnumber": "500",
            "addr:housenumber": "500",
            "addr:place": "Nosislav",
            "addr:postcode": "69164",
            "addr:street": "Komenského",
            "amenity": "school",
            "name": "Mateřská škola",
            "ref:ruian:addr": "80698964",
            "website": "https://skolanosislav.cz/kontakt/"
          },
          "geometry": {
            "type": "Point",
            "coordinates": [
              16.656947,
              49.0125263
            ]
          }
        },
        {
          "type": "Feature",
          "properties": {
            "id": "8069461296",
            "osm_type": "node",
            "lat": 48.9312213,
            "lon": 16.8197002,
            "amenity": "school",
            "check_date": "2024-07-24",
            "name": "ZŠ a MŠ Němčíčky",
            "website": "https://zs.nemcicky.cz/"
          },
          "geometry": {
            "type": "Point",
            "coordinates": [
              16.8197002,
              48.9312213
            ]
          }
        },
        {
          "type": "Feature",
          "properties": {
            "id": "8070890109",
            "osm_type": "node",
            "lat": 48.9882167,
            "lon": 16.9138275,
            "amenity": "school",
            "name": "ZŠ a MŠ Krumvíř"
          },
          "geometry": {
            "type": "Point",
            "coordinates": [
              16.9138275,
              48.9882167
            ]
          }
        },
        {
          "type": "Feature",
          "properties": {
            "id": "1861443655",
            "osm_type": "node",
            "lat": 48.9547965,
            "lon": 17.1529775,
            "amenity": "school"
          },
          "geometry": {
            "type": "Point",
            "coordinates": [
              17.1529775,
              48.9547965
            ]
          }
        },
        {
          "type": "Feature",
          "properties": {
            "id": "2447590187",
            "osm_type": "node",
            "lat": 48.9546507,
            "lon": 17.1525141,
            "amenity": "school",
            "name": "ZŠ a MŠ Milotice",
            "operator": "Obec Milotice",
            "operator:type": "public",
            "source": "survey"
          },
          "geometry": {
            "type": "Point",
            "coordinates": [
              17.1525141,
              48.9546507
            ]
          }
        },
        {
          "type": "Feature",
          "properties": {
            "id": "3138567620",
            "osm_type": "node",
            "lat": 49.0099982,
            "lon": 17.0448041,
            "amenity": "school",
            "name": "ZŠ Strážovice",
            "source": "survey"
          },
          "geometry": {
            "type": "Point",
            "coordinates": [
              17.0448041,
              49.0099982
            ]
          }
        }
      ],
      "children": []
    }
  ]
}