{
  "bbox": {
    "south": 47.033758500000005,
    "west": 11.438358999999998,
    "north": 47.694865,
    "east": 13.345766
  },
  "poiCount": 204,
  "leafCount": 0,
  "averagePosition": [
    12.155826342647055,
    47.406112670588236
  ],
  "data": [],
  "children": [
    {
      "bbox": {
        "south": 47.033758500000005,
        "west": 11.438358999999998,
        "north": 47.36431175,
        "east": 12.392062499999998
      },
      "poiCount": 71,
      "leafCount": 0,
      "averagePosition": [
        11.668535930985914,
        47.2526941830986
      ],
      "data": [],
      "children": [
        {
          "bbox": {
            "south": 47.033758500000005,
            "west": 11.438358999999998,
            "north": 47.199035125,
            "east": 11.915210749999998
          },
          "poiCount": 11,
          "leafCount": 11,
          "averagePosition": [
            11.656815045454545,
            47.10386877272727
          ],
          "data": [
            {
              "type": "Feature",
              "properties": {
                "id": "1837412082",
                "osm_type": "node",
                "lat": 47.0927347,
                "lon": 11.4648821,
                "addr:city": "Steinach am Brenner",
                "addr:country": "AT",
                "addr:housenumber": "17a",
                "addr:postcode": "6150",
                "addr:street": "Trinserstraße",
                "amenity": "school",
                "name": "Polytechnische Schule Steinach"
              },
              "geometry": {
                "type": "Point",
                "coordinates": [
                  11.4648821,
                  47.0927347
                ]
              }
            },
            {
              "type": "Feature",
              "properties": {
                "id": "8196497958",
                "osm_type": "node",
                "lat": 47.0496798,
                "lon": 11.5218636,
                "addr:city": "Vals",
                "addr:country": "AT",
                "addr:housenumber": "53",
                "addr:place": "Vals",
                "addr:postcode": "6154",
                "amenity": "school",
                "isced:level": "1",
                "name": "Volksschule Vals-St.Jodok"
              },
              "geometry": {
                "type": "Point",
                "coordinates": [
                  11.5218636,
                  47.0496798
                ]
              }
            },
            {
              "type": "Feature",
              "properties": {
                "id": "10722997661",
                "osm_type": "node",
                "lat": 47.0377242,
                "lon": 11.4789385,
                "addr:city": "Gries am Brenner",
                "addr:housenumber": "73a",
                "addr:postcode": "6156",
                "addr:street": "Gries",
                "amenity": "school",
                "name": "Volksschule Gries am Brenner",
                "phone": "+43 5274 87237 410",
                "website": "https://vs-gries-brenner.tsn.at"
              },
              "geometry": {
                "type": "Point",
                "coordinates": [
                  11.4789385,
                  47.0377242
                ]
              }
            },
            {
              "type": "Feature",
              "properties": {
                "id": "10752213039",
                "osm_type": "node",
                "lat": 47.0378488,
                "lon": 11.4795317,
                "addr:city": "Gries am Brenner",
                "addr:housenumber": "75",
                "addr:postcode": "6156",
                "addr:street": "Gries",
                "amenity": "school",
                "name": "Mittelschule Gries am Brenner",
                "phone": "+43 5274 87237 420",
                "website": "https://ms-gries.tsn.at",
                "wikidata": "Q47457875",
                "wikipedia": "de:Mittelschule Gries am Brenner"
              },
              "geometry": {
                "type": "Point",
                "coordinates": [
                  11.4795317,
                  47.0378488
                ]
              }
            },
            {
              "type": "Feature",
              "properties": {
                "id": "11809123132",
                "osm_type": "node",
                "lat": 47.0925619,
                "lon": 11.4648785,
                "addr:city": "Steinach am Brenner",
                "addr:country": "AT",
                "addr:housenumber": "17a",
                "addr:postcode": "6150",
                "addr:street": "Trinserstraße",
                "alt_name": "SPZ Wipptal;SPZ Steinach",
                "amenity": "school",
                "name": "Sonderpädagogisches Zentrum Wipptal"
              },
              "geometry": {
                "type": "Point",
                "coordinates": [
                  11.4648785,
                  47.0925619
                ]
              }
            },
            {
              "type": "Feature",
              "properties": {
                "id": "1542469690",
                "osm_type": "node",
                "lat": 47.1675261,
                "lon": 11.8639812,
                "addr:country": "AT",
                "addr:housename": "Volksschule Mayrhofen",
                "addr:housenumber": "413",
                "addr:postcode": "6290",
                "addr:street": "Hauptstraße",
                "amenity": "school",
                "name": "Volksschule Mayrhofen",
                "wheelchair": "yes"
              },
              "geometry": {
                "type": "Point",
                "coordinates": [
                  11.8639812,
                  47.1675261
                ]
              }
            },
            {
              "type": "Feature",
              "properties": {
                "id": "8196159615",
                "osm_type": "node",
                "lat": 47.0791312,
                "lon": 11.563481,
                "addr:city": "Schmirn",
                "addr:country": "AT",
                "addr:housenumber": "58b",
                "addr:place": "Schmirn",
                "addr:postcode": "6154",
                "amenity": "school",
                "isced:level": "1",
                "name": "Volksschule Schmirn"
              },
              "geometry": {
                "type": "Point",
                "coordinates": [
                  11.563481,
                  47.0791312
                ]
              }
            },
            {
              "type": "Feature",
              "properties": {
                "id": "8535885278",
                "osm_type": "node",
                "lat": 47.1001864,
                "lon": 11.8069207,
                "addr:city": "Ginzling",
                "addr:housenumber": "28",
                "addr:place": "Dornauberg",
                "addr:postcode": "6295",
                "amenity": "school",
                "email": "direktion@vs-dornauberg.tsn.at",
                "name": "Volksschule Dornauberg",
                "phone": "+43 5286 200597"
              },
              "geometry": {
                "type": "Point",
                "coordinates": [
                  11.8069207,
                  47.1001864
                ]
              }
            },
            {
              "type": "Feature",
              "properties": {
                "id": "8535885303",
                "osm_type": "node",
                "lat": 47.1516012,
                "lon": 11.8178182,
                "addr:city": "Finkenberg",
                "addr:housenumber": "225",
                "addr:postcode": "6292",
                "addr:street": "Persal",
                "amenity": "school",
                "name": "Volksschule Finkenberg",
                "phone": "+43 5285 62155",
                "website": "https://vs-finkenberg.schulweb.at"
              },
              "geometry": {
                "type": "Point",
                "coordinates": [
                  11.8178182,
                  47.1516012
                ]
              }
            },
            {
              "type": "Feature",
              "properties": {
                "id": "11366066966",
                "osm_type": "node",
                "lat": 47.1669901,
                "lon": 11.8637685,
                "amenity": "school",
                "name": "Mittelschule Mayrhofen"
              },
              "geometry": {
                "type": "Point",
                "coordinates": [
                  11.8637685,
                  47.1669901
                ]
              }
            },
            {
              "type": "Feature",
              "properties": {
                "id": "11818682857",
                "osm_type": "node",
                "lat": 47.1665721,
                "lon": 11.8989015,
                "addr:city": "Brandberg",
                "addr:country": "AT",
                "addr:housenumber": "13",
                "addr:place": "Brandberg",
                "addr:postcode": "6290",
                "alt_name": "Naturparkschule Zillertal",
                "amenity": "school",
                "name": "Volksschule Brandberg"
              },
              "geometry": {
                "type": "Point",
                "coordinates": [
                  11.8989015,
                  47.1665721
                ]
              }
            }
          ],
          "children": []
        },
        {
          "bbox": {
            "south": 47.033758500000005,
            "west": 11.915210749999998,
            "north": 47.199035125,
            "east": 12.392062499999998
          },
          "poiCount": 1,
          "leafCount": 1,
          "averagePosition": [
            12.1028808,
            47.0383196
          ],
          "data": [
            {
              "type": "Feature",
              "properties": {
                "id": "12997764132",
                "osm_type": "node",
                "lat": 47.0383196,
                "lon": 12.1028808,
                "amenity": "school",
                "contact:city": "Prettau - Predoi",
                "contact:city:de": "Prettau",
                "contact:city:it": "Predoi",
                "contact:email": "gs.prettau@schule.suedtirol.it",
                "contact:housenumber": "84",
                "contact:pec": "ssp.ahrntal@pec.prov.bz.it",
                "contact:phone": "+39 0474 654244",
                "contact:postcode": "39030",
                "contact:street": "Kirchdorf",
                "contact:website": "https://www.ssp-ahrntal.it/lernorte/grundschule-prettau/",
                "grades": "1-5",
                "isced:level": "1",
                "name": "Grundschule Prettau - Scuola elementare di Predoi",
                "name:de": "Grundschule Prettau",
                "name:it": "Scuola elementare di Predoi",
                "operator": "Schulsprengel Ahrntal - Istituto Comprensivo di Valle Aurina",
                "operator:de": "Schulsprengel Ahrntal",
                "operator:email": "ssp.ahrntal@schule.suedtirol.it",
                "operator:it": "Istituto Comprensivo di Valle Aurina",
                "operator:ref": "TBIC80400A",
                "operator:short:de": "SSP Ahrntal",
                "operator:type": "public",
                "operator:website": "https://www.ssp-ahrntal.it/",
                "ref": "TBEE80407P",
                "ref:tax_id": "92022480211",
                "school:gender": "mixed",
                "school:language": "de",
                "short_name:de": "GS Prettau"
              },
              "geometry": {
                "type": "Point",
                "coordinates": [
                  12.1028808,
                  47.0383196
                ]
              }
            }
          ],
          "children": []
        },
        {
          "bbox": {
            "south": 47.199035125,
            "west": 11.438358999999998,
            "north": 47.36431175,
            "east": 11.915210749999998
          },
          "poiCount": 57,
          "leafCount": 0,
          "averagePosition": [
            11.645882921052632,
            47.28556944210526
          ],
          "data": [],
          "children": [
            {
              "bbox": {
                "south": 47.199035125,
                "west": 11.438358999999998,
                "north": 47.281673437500004,
                "east": 11.676784875
              },
              "poiCount": 14,
              "leafCount": 14,
              "averagePosition": [
                11.503320792857142,
                47.268391478571424
              ],
              "data": [
                {
                  "type": "Feature",
                  "properties": {
                    "id": "266466957",
                    "osm_type": "node",
                    "lat": 47.2708726,
                    "lon": 11.4428337,
                    "addr:city": "Innsbruck",
                    "addr:country": "AT",
                    "addr:housenumber": "14",
                    "addr:postcode": "6020",
                    "addr:street": "Kajetan-Sweth-Straße",
                    "addr:suburb": "Arzl",
                    "amenity": "school",
                    "name": "Wirtschaftsmittelschule Innsbruck",
                    "phone": "+43 512 263379",
                    "website": "https://wnms-ibk.tsn.at/"
                  },
                  "geometry": {
                    "type": "Point",
                    "coordinates": [
                      11.4428337,
                      47.2708726
                    ]
                  }
                },
                {
                  "type": "Feature",
                  "properties": {
                    "id": "1598994136",
                    "osm_type": "node",
                    "lat": 47.2816121,
                    "lon": 11.455356,
                    "addr:city": "Rum",
                    "addr:country": "AT",
                    "addr:housenumber": "2",
                    "addr:postcode": "6063",
                    "addr:street": "Aurain",
                    "amenity": "school",
                    "name": "Mittelschule Rum",
                    "phone": "+43 512 24511450",
                    "source": "GeoImage.at",
                    "website": "https://ms-rum.tsn.at/"
                  },
                  "geometry": {
                    "type": "Point",
                    "coordinates": [
                      11.455356,
                      47.2816121
                    ]
                  }
                },
                {
                  "type": "Feature",
                  "properties": {
                    "id": "1612589806",
                    "osm_type": "node",
                    "lat": 47.2803292,
                    "lon": 11.5072447,
                    "amenity": "school",
                    "check_date": "2024-03-07",
                    "name": "Musikschule",
                    "phone": "+43 5223 56695",
                    "website": "https://www.musikschule-hall.at/",
                    "wheelchair": "no"
                  },
                  "geometry": {
                    "type": "Point",
                    "coordinates": [
                      11.5072447,
                      47.2803292
                    ]
                  }
                },
                {
                  "type": "Feature",
                  "properties": {
                    "id": "3416643964",
                    "osm_type": "node",
                    "lat": 47.2709839,
                    "lon": 11.4423552,
                    "addr:city": "Innsbruck",
                    "addr:country": "AT",
                    "addr:housenumber": "14",
                    "addr:postcode": "6020",
                    "addr:street": "Kajetan-Sweth-Straße",
                    "addr:suburb": "Arzl",
                    "alt_name": "MMS Olympisches Dorf",
                    "amenity": "school",
                    "name": "Musik-Mittelschule Innsbruck",
                    "phone": "+43 512 263379",
                    "website": "https://www.mms-innsbruck.tsn.at/"
                  },
                  "geometry": {
                    "type": "Point",
                    "coordinates": [
                      11.4423552,
                      47.2709839
                    ]
                  }
                },
                {
                  "type": "Feature",
                  "properties": {
                    "id": "3417937014",
                    "osm_type": "node",
                    "lat": 47.2748962,
                    "lon": 11.441234,
                    "addr:city": "Innsbruck",
                    "addr:country": "AT",
                    "addr:housenumber": "38",
                    "addr:postcode": "6020",
                    "addr:street": "Pontlatzer Straße",
                    "addr:suburb": "Arzl",
                    "amenity": "school",
                    "name": "Montessorischule des Vereins Brückenpfeiler",
                    "phone": "+43 680 1285792",
                    "website": "https://montessori-innsbruck.at/verein-brueckenpfeiler"
                  },
                  "geometry": {
                    "type": "Point",
                    "coordinates": [
                      11.441234,
                      47.2748962
                    ]
                  }
                },
                {
                  "type": "Feature",
                  "properties": {
                    "id": "3422238312",
                    "osm_type": "node",
                    "lat": 47.2800772,
                    "lon": 11.5085792,
                    "addr:city": "Hall in Tirol",
                    "addr:country": "AT",
                    "addr:housenumber": "14",
                    "addr:postcode": "6060",
                    "addr:street": "Unterer Stadtplatz",
                    "amenity": "school",
                    "name": "Volksschule am unteren Stadtplatz",
                    "phone": "+43 5223 41361",
                    "website": "https://vs-u-stadtplatz.tsn.at/",
                    "wikidata": "Q38006765"
                  },
                  "geometry": {
                    "type": "Point",
                    "coordinates": [
                      11.5085792,
                      47.2800772
                    ]
                  }
                },
                {
                  "type": "Feature",
                  "properties": {
                    "id": "3439878067",
                    "osm_type": "node",
                    "lat": 47.2505704,
                    "lon": 11.4462495,
                    "addr:city": "Aldrans",
                    "addr:country": "AT",
                    "addr:housenumber": "33",
                    "addr:postcode": "6071",
                    "addr:street": "Dorf",
                    "amenity": "school",
                    "name": "Volksschule Aldrans",
                    "phone": "+43 512 348366",
                    "website": "http://www2.vs-aldrans.tsn.at/wb/pages/news.php"
                  },
                  "geometry": {
                    "type": "Point",
                    "coordinates": [
                      11.4462495,
                      47.2505704
                    ]
                  }
                },
                {
                  "type": "Feature",
                  "properties": {
                    "id": "3439878068",
                    "osm_type": "node",
                    "lat": 47.2625711,
                    "lon": 11.4660359,
                    "addr:city": "Ampass",
                    "addr:country": "AT",
                    "addr:housenumber": "23",
                    "addr:postcode": "6070",
                    "addr:street": "Römerstraße",
                    "amenity": "school",
                    "name": "Volksschule Ampass",
                    "phone": "+43 512 397876",
                    "website": "http://www.vs-ampass.tsn.at",
                    "wheelchair": "yes"
                  },
                  "geometry": {
                    "type": "Point",
                    "coordinates": [
                      11.4660359,
                      47.2625711
                    ]
                  }
                },
                {
                  "type": "Feature",
                  "properties": {
                    "id": "3439896875",
                    "osm_type": "node",
                    "lat": 47.2500176,
                    "lon": 11.5042984,
                    "addr:city": "Rinn",
                    "addr:country": "AT",
                    "addr:housenumber": "12",
                    "addr:postcode": "6074",
                    "addr:street": "Dorfstraße",
                    "amenity": "school",
                    "name": "Volksschule Rinn",
                    "phone": "+43 5223 78190",
                    "website": "http://www.vs-rinn.schulweb.at"
                  },
                  "geometry": {
                    "type": "Point",
                    "coordinates": [
                      11.5042984,
                      47.2500176
                    ]
                  }
                },
                {
                  "type": "Feature",
                  "properties": {
                    "id": "8705266390",
                    "osm_type": "node",
                    "lat": 47.2585185,
                    "lon": 11.5297544,
                    "amenity": "school",
                    "name": "Erwachsenenschule Tulfes"
                  },
                  "geometry": {
                    "type": "Point",
                    "coordinates": [
                      11.5297544,
                      47.2585185
                    ]
                  }
                },
                {
                  "type": "Feature",
                  "properties": {
                    "id": "1763938551",
                    "osm_type": "node",
                    "lat": 47.2755016,
                    "lon": 11.5909852,
                    "addr:city": "Wattens",
                    "addr:country": "AT",
                    "addr:housename": "Volksschule Vögelsberg",
                    "addr:housenumber": "23",
                    "addr:place": "Vögelsberg",
                    "addr:postcode": "6112",
                    "addr:street": "Vögelsberg",
                    "amenity": "school",
                    "name": "Volksschule Vögelsberg"
                  },
                  "geometry": {
                    "type": "Point",
                    "coordinates": [
                      11.5909852,
                      47.2755016
                    ]
                  }
                },
                {
                  "type": "Feature",
                  "properties": {
                    "id": "3416100380",
                    "osm_type": "node",
                    "lat": 47.2588184,
                    "lon": 11.5345938,
                    "addr:city": "Tulfes",
                    "addr:country": "AT",
                    "addr:housenumber": "1",
                    "addr:postcode": "6075",
                    "addr:street": "Angererweg",
                    "amenity": "school",
                    "name": "Volksschule Tulfes",
                    "phone": "+43 5223 78317"
                  },
                  "geometry": {
                    "type": "Point",
                    "coordinates": [
                      11.5345938,
                      47.2588184
                    ]
                  }
                },
                {
                  "type": "Feature",
                  "properties": {
                    "id": "3442548923",
                    "osm_type": "node",
                    "lat": 47.2690205,
                    "lon": 11.5714061,
                    "addr:city": "Volders",
                    "addr:country": "AT",
                    "addr:housenumber": "15",
                    "addr:postcode": "6111",
                    "addr:street": "Großvolderbergstraße",
                    "amenity": "school",
                    "name": "Volksschule Volders II",
                    "phone": "+43 5224 53943"
                  },
                  "geometry": {
                    "type": "Point",
                    "coordinates": [
                      11.5714061,
                      47.2690205
                    ]
                  }
                },
                {
                  "type": "Feature",
                  "properties": {
                    "id": "11818682855",
                    "osm_type": "node",
                    "lat": 47.2736914,
                    "lon": 11.605565,
                    "addr:city": "Wattenberg",
                    "addr:country": "AT",
                    "addr:housenumber": "23",
                    "addr:place": "Wattenberg",
                    "addr:postcode": "6113",
                    "amenity": "school",
                    "name": "Volksschule Wattenberg"
                  },
                  "geometry": {
                    "type": "Point",
                    "coordinates": [
                      11.605565,
                      47.2736914
                    ]
                  }
                }
              ],
              "children": []
            },
            {
              "bbox": {
                "south": 47.199035125,
                "west": 11.676784875,
                "north": 47.281673437500004,
                "east": 11.915210749999998
              },
              "poiCount": 9,
              "leafCount": 9,
              "averagePosition": [
                11.880830622222222,
                47.22691153333333
              ],
              "data": [
                {
                  "type": "Feature",
                  "properties": {
                    "id": "1500749359",
                    "osm_type": "node",
                    "lat": 47.2263621,
                    "lon": 11.9075464,
                    "addr:city": "Gerlosberg",
                    "addr:housenumber": "42",
                    "addr:postcode": "6280",
                    "addr:street": "Gerlosberg",
                    "amenity": "school",
                    "email": "direktion@vs-gerlosberg.tsn.at",
                    "name": "Volksschule Gerlosberg",
                    "phone": "+43 5282 31064"
                  },
                  "geometry": {
                    "type": "Point",
                    "coordinates": [
                      11.9075464,
                      47.2263621
                    ]
                  }
                },
                {
                  "type": "Feature",
                  "properties": {
                    "id": "8922302501",
                    "osm_type": "node",
                    "lat": 47.2000863,
                    "lon": 11.8447363,
                    "addr:city": "Hippach",
                    "addr:housenumber": "478",
                    "addr:postcode": "6283",
                    "addr:street": "Hochschwendberg",
                    "amenity": "school",
                    "email": "direktion@vs-schwendberg.tsn.at",
                    "name": "Volksschule Schwendberg",
                    "phone": "+43 5282 3756",
                    "website": "https://www.vs-schwendberg.tsn.at"
                  },
                  "geometry": {
                    "type": "Point",
                    "coordinates": [
                      11.8447363,
                      47.2000863
                    ]
                  }
                },
                {
                  "type": "Feature",
                  "properties": {
                    "id": "11597906259",
                    "osm_type": "node",
                    "lat": 47.2639579,
                    "lon": 11.8937489,
                    "addr:city": "Aschau im Zillertal",
                    "addr:country": "AT",
                    "addr:housenumber": "10",
                    "addr:postcode": "6274",
                    "addr:street": "Höhenstraße",
                    "amenity": "school",
                    "name": "Volksschule Aschau"
                  },
                  "geometry": {
                    "type": "Point",
                    "coordinates": [
                      11.8937489,
                      47.2639579
                    ]
                  }
                },
                {
                  "type": "Feature",
                  "properties": {
                    "id": "11809116754",
                    "osm_type": "node",
                    "lat": 47.2186618,
                    "lon": 11.9027504,
                    "addr:city": "Hainzenberg",
                    "addr:country": "AT",
                    "addr:housenumber": "360",
                    "addr:place": "Dörfl",
                    "addr:postcode": "6278",
                    "amenity": "school",
                    "email": "direktion@vs-hainzenberg.tsn.at",
                    "name": "Volksschule Hainzenberg",
                    "phone": "+43 5282 251816"
                  },
                  "geometry": {
                    "type": "Point",
                    "coordinates": [
                      11.9027504,
                      47.2186618
                    ]
                  }
                },
                {
                  "type": "Feature",
                  "properties": {
                    "id": "11809122975",
                    "osm_type": "node",
                    "lat": 47.2028074,
                    "lon": 11.8650922,
                    "addr:city": "Schwendau",
                    "addr:country": "AT",
                    "addr:housenumber": "82",
                    "addr:place": "Johann-Sponring-Straße",
                    "addr:postcode": "6283",
                    "amenity": "school",
                    "email": "direktion@vs-hippach.tsn.at",
                    "name": "Volksschule Schwendau-Hippach",
                    "phone": "+43 5282 2260030"
                  },
                  "geometry": {
                    "type": "Point",
                    "coordinates": [
                      11.8650922,
                      47.2028074
                    ]
                  }
                },
                {
                  "type": "Feature",
                  "properties": {
                    "id": "11826555171",
                    "osm_type": "node",
                    "lat": 47.2325247,
                    "lon": 11.8775732,
                    "addr:city": "Zell am Ziller",
                    "addr:housenumber": "4",
                    "addr:postcode": "6280",
                    "addr:street": "Schwimmbadweg",
                    "amenity": "school",
                    "email": "info@borg-zillertal.at",
                    "name": "Bundesoberstufenrealgymnasium Zell am Ziller",
                    "phone": "+43 5282 3157",
                    "website": "https://www.zillertaler-tourismusschulen.at/de/borg"
                  },
                  "geometry": {
                    "type": "Point",
                    "coordinates": [
                      11.8775732,
                      47.2325247
                    ]
                  }
                },
                {
                  "type": "Feature",
                  "properties": {
                    "id": "11826558559",
                    "osm_type": "node",
                    "lat": 47.2322779,
                    "lon": 11.8776272,
                    "addr:city": "Zell am Ziller",
                    "addr:housenumber": "3",
                    "addr:postcode": "6280",
                    "addr:street": "Schwimmbadweg",
                    "amenity": "school",
                    "email": "info@zillertaler-tourismusschulen.at",
                    "name": "Zillertaler Tourismusschulen",
                    "phone": "+43 5282 3157",
                    "website": "https://www.zillertaler-tourismusschulen.at"
                  },
                  "geometry": {
                    "type": "Point",
                    "coordinates": [
                      11.8776272,
                      47.2322779
                    ]
                  }
                },
                {
                  "type": "Feature",
                  "properties": {
                    "id": "11826567285",
                    "osm_type": "node",
                    "lat": 47.232625,
                    "lon": 11.8791579,
                    "addr:city": "Zell am Ziller",
                    "addr:housenumber": "1",
                    "addr:postcode": "6280",
                    "addr:street": "Schwimmbadweg",
                    "amenity": "school",
                    "email": "direktion@pts-zell.tsn.at",
                    "name": "Polytechnische Schule Zell am Ziller",
                    "phone": "+43 5282 571114",
                    "website": "https://www.pts-zell.tsn.at"
                  },
                  "geometry": {
                    "type": "Point",
                    "coordinates": [
                      11.8791579,
                      47.232625
                    ]
                  }
                },
                {
                  "type": "Feature",
                  "properties": {
                    "id": "11826571727",
                    "osm_type": "node",
                    "lat": 47.2329007,
                    "lon": 11.8792431,
                    "addr:city": "Zell am Ziller",
                    "addr:housenumber": "2",
                    "addr:postcode": "6280",
                    "addr:street": "Schwimmbadweg",
                    "amenity": "school",
                    "email": "direktion@ms-zell.tsn.at",
                    "name": "Mittelschule Zell am Ziller",
                    "phone": "+43 5282 571111",
                    "website": "https://www.ms-zell.tsn.at"
                  },
                  "geometry": {
                    "type": "Point",
                    "coordinates": [
                      11.8792431,
                      47.2329007
                    ]
                  }
                }
              ],
              "children": []
            },
            {
              "bbox": {
                "south": 47.281673437500004,
                "west": 11.438358999999998,
                "north": 47.36431175,
                "east": 11.676784875
              },
              "poiCount": 22,
              "leafCount": 22,
              "averagePosition": [
                11.56331935909091,
                47.295367186363634
              ],
              "data": [
                {
                  "type": "Feature",
                  "properties": {
                    "id": "1822986147",
                    "osm_type": "node",
                    "lat": 47.2944285,
                    "lon": 11.5019253,
                    "addr:city": "Absam",
                    "addr:country": "AT",
                    "addr:housenumber": "3",
                    "addr:postcode": "6067",
                    "addr:street": "Bgm. Franz Herzleier-Weg",
                    "alt_name": "Sportmittelschule Absam",
                    "amenity": "school",
                    "check_date": "2024-04-15",
                    "name": "Mittelschule Absam",
                    "phone": "+43 5223 57671",
                    "website": "https://www.nms-absam.at/"
                  },
                  "geometry": {
                    "type": "Point",
                    "coordinates": [
                      11.5019253,
                      47.2944285
                    ]
                  }
                },
                {
                  "type": "Feature",
                  "properties": {
                    "id": "3422217162",
                    "osm_type": "node",
                    "lat": 47.2843948,
                    "lon": 11.520786,
                    "addr:city": "Hall in Tirol",
                    "addr:country": "AT",
                    "addr:district": "Innsbruck Land",
                    "addr:housenumber": "46a",
                    "addr:postcode": "6060",
                    "addr:state": "Tirol",
                    "addr:street": "Kaiser-Max-Straße",
                    "amenity": "school",
                    "name": "Volksschule Schönegg Hall i.T.",
                    "operator": "Stadtgemeinde Hall in Tirol",
                    "operator:type": "public",
                    "phone": "+43 5223 45022",
                    "website": "https://vs-schoenegg.tsn.at/",
                    "wheelchair": "limited"
                  },
                  "geometry": {
                    "type": "Point",
                    "coordinates": [
                      11.520786,
                      47.2843948
                    ]
                  }
                },
                {
                  "type": "Feature",
                  "properties": {
                    "id": "3422953254",
                    "osm_type": "node",
                    "lat": 47.2966392,
                    "lon": 11.5025393,
                    "addr:city": "Absam",
                    "addr:country": "AT",
                    "addr:housenumber": "5",
                    "addr:postcode": "6067",
                    "addr:street": "Stainerstraße",
                    "amenity": "school",
                    "name": "Volksschule Absam-Dorf",
                    "phone": "+43 5223 46408",
                    "website": "https://www.vs-absam-dorf.at/",
                    "wikidata": "Q37817228"
                  },
                  "geometry": {
                    "type": "Point",
                    "coordinates": [
                      11.5025393,
                      47.2966392
                    ]
                  }
                },
                {
                  "type": "Feature",
                  "properties": {
                    "id": "3422953255",
                    "osm_type": "node",
                    "lat": 47.2981027,
                    "lon": 11.5174611,
                    "addr:city": "Absam",
                    "addr:country": "AT",
                    "addr:housenumber": "43",
                    "addr:postcode": "6067",
                    "addr:street": "Daniel Swarovski-Straße",
                    "amenity": "school",
                    "name": "Volksschule Absam-Eichat",
                    "phone": "+43 5223 52340",
                    "website": "http://vs-absameichat.schulweb.at"
                  },
                  "geometry": {
                    "type": "Point",
                    "coordinates": [
                      11.5174611,
                      47.2981027
                    ]
                  }
                },
                {
                  "type": "Feature",
                  "properties": {
                    "id": "3422958913",
                    "osm_type": "node",
                    "lat": 47.2866629,
                    "lon": 11.5270236,
                    "addr:country": "AT",
                    "addr:housenumber": "1",
                    "addr:postcode": "6068",
                    "addr:street": "Milser-Heide-Straße",
                    "amenity": "school",
                    "email": "office@zentrum-mils.tsn.at",
                    "name": "Zentrum für Hör- und Sprachpädagogik - Mils",
                    "phone": "+43 5223 53323",
                    "website": "https://www.zentrum-mils.tsn.at/"
                  },
                  "geometry": {
                    "type": "Point",
                    "coordinates": [
                      11.5270236,
                      47.2866629
                    ]
                  }
                },
                {
                  "type": "Feature",
                  "properties": {
                    "id": "5032466687",
                    "osm_type": "node",
                    "lat": 47.2818702,
                    "lon": 11.5098667,
                    "amenity": "school",
                    "check_date": "2024-04-05",
                    "name": "Volkshochschule Hall",
                    "website": "https://www.vhs-tirol.at/"
                  },
                  "geometry": {
                    "type": "Point",
                    "coordinates": [
                      11.5098667,
                      47.2818702
                    ]
                  }
                },
                {
                  "type": "Feature",
                  "properties": {
                    "id": "11672937898",
                    "osm_type": "node",
                    "lat": 47.2868618,
                    "lon": 11.5113716,
                    "addr:city": "Hall in Tirol",
                    "addr:country": "AT",
                    "addr:housenumber": "3",
                    "addr:postcode": "6060",
                    "addr:street": "Kaiser-Max-Straße",
                    "amenity": "school",
                    "email": "direktion@tfbs-garamo.tsn.at",
                    "name": "Tiroler Fachberufsschule für Garten, Raum und Mode",
                    "phone": "+43 5223 42513",
                    "website": "https://www.tfbs-garamo.tsn.at/"
                  },
                  "geometry": {
                    "type": "Point",
                    "coordinates": [
                      11.5113716,
                      47.2868618
                    ]
                  }
                },
                {
                  "type": "Feature",
                  "properties": {
                    "id": "12014945696",
                    "osm_type": "node",
                    "lat": 47.2837828,
                    "lon": 11.5120608,
                    "addr:city": "Hall in Tirol",
                    "addr:country": "AT",
                    "addr:housenumber": "1",
                    "addr:postcode": "6060",
                    "addr:street": "Universitätsallee",
                    "amenity": "school",
                    "name": "Mittelschule Schulzentrum Hall in Tirol",
                    "operator:type": "public",
                    "phone": "+43 5223 45024",
                    "website": "https://ms-schulzentrum-hall.tsn.at"
                  },
                  "geometry": {
                    "type": "Point",
                    "coordinates": [
                      11.5120608,
                      47.2837828
                    ]
                  }
                },
                {
                  "type": "Feature",
                  "properties": {
                    "id": "12014945697",
                    "osm_type": "node",
                    "lat": 47.2838796,
                    "lon": 11.5114463,
                    "addr:city": "Hall in Tirol",
                    "addr:country": "AT",
                    "addr:housenumber": "1",
                    "addr:postcode": "6060",
                    "addr:street": "Universitätsallee",
                    "amenity": "school",
                    "name": "Allgemeine Sonderschule Schulzentrum Hall in Tirol",
                    "short_name": "ASO Schulzentrum Hall",
                    "source": "website",
                    "website": "https://aso-schulzentrum-hall.tsn.at/"
                  },
                  "geometry": {
                    "type": "Point",
                    "coordinates": [
                      11.5114463,
                      47.2838796
                    ]
                  }
                },
                {
                  "type": "Feature",
                  "properties": {
                    "id": "311387757",
                    "osm_type": "node",
                    "lat": 47.3007276,
                    "lon": 11.634286,
                    "addr:city": "Kolsass",
                    "addr:country": "AT",
                    "addr:housenumber": "4",
                    "addr:postcode": "6114",
                    "addr:street": "Fiechterweg",
                    "amenity": "school",
                    "name": "Volksschule Kolsass"
                  },
                  "geometry": {
                    "type": "Point",
                    "coordinates": [
                      11.634286,
                      47.3007276
                    ]
                  }
                },
                {
                  "type": "Feature",
                  "properties": {
                    "id": "823342937",
                    "osm_type": "node",
                    "lat": 47.3213421,
                    "lon": 11.6413812,
                    "amenity": "school",
                    "name": "Volksschule Terfens",
                    "wikidata": "Q106469979"
                  },
                  "geometry": {
                    "type": "Point",
                    "coordinates": [
                      11.6413812,
                      47.3213421
                    ]
                  }
                },
                {
                  "type": "Feature",
                  "properties": {
                    "id": "823471059",
                    "osm_type": "node",
                    "lat": 47.3269409,
                    "lon": 11.6698681,
                    "amenity": "school",
                    "name": "Volksschule Vomperbach"
                  },
                  "geometry": {
                    "type": "Point",
                    "coordinates": [
                      11.6698681,
                      47.3269409
                    ]
                  }
                },
                {
                  "type": "Feature",
                  "properties": {
                    "id": "2371626223",
                    "osm_type": "node",
                    "lat": 47.2981905,
                    "lon": 11.6661412,
                    "amenity": "school",
                    "name": "Volksschule",
                    "source": "geoimage.at MaxRes",
                    "wheelchair": "yes"
                  },
                  "geometry": {
                    "type": "Point",
                    "coordinates": [
                      11.6661412,
                      47.2981905
                    ]
                  }
                },
                {
                  "type": "Feature",
                  "properties": {
                    "id": "3416276713",
                    "osm_type": "node",
                    "lat": 47.2899565,
                    "lon": 11.5699916,
                    "addr:city": "Volders",
                    "addr:country": "AT",
                    "addr:housenumber": "9",
                    "addr:postcode": "6111",
                    "addr:street": "Augasse",
                    "amenity": "school",
                    "email": "direktion@ms-volders.tsn.at",
                    "fax": "+43 5224 522264",
                    "name": "Mittelschule Volders",
                    "phone": "+43 5224 52226",
                    "website": "https://ms-volders.tsn.at"
                  },
                  "geometry": {
                    "type": "Point",
                    "coordinates": [
                      11.5699916,
                      47.2899565
                    ]
                  }
                },
                {
                  "type": "Feature",
                  "properties": {
                    "id": "3422958912",
                    "osm_type": "node",
                    "lat": 47.2885022,
                    "lon": 11.5312562,
                    "addr:city": "Mils",
                    "addr:country": "AT",
                    "addr:housenumber": "4a",
                    "addr:postcode": "6068",
                    "addr:street": "Kirchstraße",
                    "amenity": "school",
                    "email": "direktion@vs-mils.tsn.at",
                    "name": "Volksschule Mils",
                    "phone": "+43 664 88944418",
                    "website": "https://mils-tirol.at/bildung/schulen/"
                  },
                  "geometry": {
                    "type": "Point",
                    "coordinates": [
                      11.5312562,
                      47.2885022
                    ]
                  }
                },
                {
                  "type": "Feature",
                  "properties": {
                    "id": "3439433841",
                    "osm_type": "node",
                    "lat": 47.3219353,
                    "lon": 11.5743678,
                    "addr:city": "Gnadenwald",
                    "addr:country": "AT",
                    "addr:housenumber": "51a",
                    "addr:postcode": "6069",
                    "addr:street": "Gnadenwald",
                    "amenity": "school",
                    "email": "direktion@vs-gnadenwald.tsn.at",
                    "name": "Volksschule Gnadenwald",
                    "phone": "+43 5223 48369"
                  },
                  "geometry": {
                    "type": "Point",
                    "coordinates": [
                      11.5743678,
                      47.3219353
                    ]
                  }
                },
                {
                  "type": "Feature",
                  "properties": {
                    "id": "10790200921",
                    "osm_type": "node",
                    "lat": 47.2941524,
                    "lon": 11.5834314,
                    "addr:city": "Wattens",
                    "addr:country": "AT",
                    "addr:housenumber": "27",
                    "addr:street": "Dr.-Karl-Stainer-Straße",
                    "amenity": "school",
                    "name": "Volkshochschule"
                  },
                  "geometry": {
                    "type": "Point",
                    "coordinates": [
                      11.5834314,
                      47.2941524
                    ]
                  }
                },
                {
                  "type": "Feature",
                  "properties": {
                    "id": "10790200925",
                    "osm_type": "node",
                    "lat": 47.2941713,
                    "lon": 11.5834342,
                    "addr:city": "Wattens",
                    "addr:country": "AT",
                    "addr:housenumber": "27",
                    "addr:street": "Dr.-Karl-Stainer-Straße",
                    "amenity": "school",
                    "name": "Expositur Polytechnische Schule"
                  },
                  "geometry": {
                    "type": "Point",
                    "coordinates": [
                      11.5834342,
                      47.2941713
                    ]
                  }
                },
                {
                  "type": "Feature",
                  "properties": {
                    "id": "11366256940",
                    "osm_type": "node",
                    "lat": 47.2930831,
                    "lon": 11.5938695,
                    "amenity": "school",
                    "name": "Polytechnischeschule"
                  },
                  "geometry": {
                    "type": "Point",
                    "coordinates": [
                      11.5938695,
                      47.2930831
                    ]
                  }
                },
                {
                  "type": "Feature",
                  "properties": {
                    "id": "11723351355",
                    "osm_type": "node",
                    "lat": 47.2942447,
                    "lon": 11.5834455,
                    "alt_name": "Sonderschule",
                    "amenity": "school",
                    "name": "Volksschule 1",
                    "note": "Gebäude der Volksschule am Kirchplatz 9 wird demnächst abgerissen und neu gebaut; Schule ist bis dahin die der Dr.-Karl-Stainer-Straße 27; 12.03.2024",
                    "official_name": "Volksschule am Kirchplatz Wattens",
                    "operator": "Gemeinde Wattens"
                  },
                  "geometry": {
                    "type": "Point",
                    "coordinates": [
                      11.5834455,
                      47.2942447
                    ]
                  }
                },
                {
                  "type": "Feature",
                  "properties": {
                    "id": "11778947165",
                    "osm_type": "node",
                    "lat": 47.2822668,
                    "lon": 11.5531126,
                    "addr:city": "Volders",
                    "addr:housenumber": "3",
                    "addr:postcode": "6111",
                    "addr:street": "Volderwaldstraße",
                    "amenity": "school",
                    "grades": "14-18",
                    "image": "https://www.porg-volders.at/fileadmin/user_upload/Bilder/PORGimSommer.jpg",
                    "name": "PORG Volders",
                    "official_name": "PORG Volders St. Karl Privates Oberstufenrealgymnasium Vereinigung von Ordensschulen Österreichs",
                    "operator": "Vereinigung von Ordensschulen Österreichs",
                    "religion": "christian",
                    "website": "https://porg-volders.at",
                    "wikidata": "Q47091364",
                    "wikipedia": "de:PORG Volders"
                  },
                  "geometry": {
                    "type": "Point",
                    "coordinates": [
                      11.5531126,
                      47.2822668
                    ]
                  }
                },
                {
                  "type": "Feature",
                  "properties": {
                    "id": "11840937304",
                    "osm_type": "node",
                    "lat": 47.2959422,
                    "lon": 11.5939599,
                    "addr:city": "Wattens",
                    "addr:housenumber": "30",
                    "addr:postcode": "6112",
                    "addr:street": "Swarovskistraße",
                    "amenity": "school",
                    "email": "fachberufs.schule@swarovski.com",
                    "fax": "+43 5224 5012844",
                    "name": "FBS Swarovski Wattens",
                    "phone": "+43 5224 5002419"
                  },
                  "geometry": {
                    "type": "Point",
                    "coordinates": [
                      11.5939599,
                      47.2959422
                    ]
                  }
                }
              ],
              "children": []
            },
            {
              "bbox": {
                "south": 47.281673437500004,
                "west": 11.676784875,
                "north": 47.36431175,
                "east": 11.915210749999998
              },
              "poiCount": 12,
              "leafCount": 12,
              "averagePosition": [
                11.787361158333333,
                47.3316413
              ],
              "data": [
                {
                  "type": "Feature",
                  "properties": {
                    "id": "1890008629",
                    "osm_type": "node",
                    "lat": 47.3439041,
                    "lon": 11.8491746,
                    "addr:city": "Fügen",
                    "addr:country": "AT",
                    "addr:housenumber": "22",
                    "addr:postcode": "6263",
                    "addr:street": "Lindenweg",
                    "amenity": "school",
                    "email": "direktion@pts-fuegen.tsn.at",
                    "name": "Polytechnische Schule Fügen",
                    "phone": "+43 5288 63167",
                    "website": "https://www.pts-fuegen.tsn.at"
                  },
                  "geometry": {
                    "type": "Point",
                    "coordinates": [
                      11.8491746,
                      47.3439041
                    ]
                  }
                },
                {
                  "type": "Feature",
                  "properties": {
                    "id": "1890008827",
                    "osm_type": "node",
                    "lat": 47.3436858,
                    "lon": 11.8491539,
                    "addr:city": "Fügen",
                    "addr:country": "AT",
                    "addr:housenumber": "24",
                    "addr:postcode": "6263",
                    "addr:street": "Lindenweg",
                    "amenity": "school",
                    "name": "Sonderschule",
                    "website": "http://www.spz-fuegen.tsn.at/"
                  },
                  "geometry": {
                    "type": "Point",
                    "coordinates": [
                      11.8491539,
                      47.3436858
                    ]
                  }
                },
                {
                  "type": "Feature",
                  "properties": {
                    "id": "6142538467",
                    "osm_type": "node",
                    "lat": 47.32235,
                    "lon": 11.8615207,
                    "amenity": "school",
                    "name": "Volksschule Uderns",
                    "wikidata": "Q106485047"
                  },
                  "geometry": {
                    "type": "Point",
                    "coordinates": [
                      11.8615207,
                      47.32235
                    ]
                  }
                },
                {
                  "type": "Feature",
                  "properties": {
                    "id": "6865025121",
                    "osm_type": "node",
                    "lat": 47.3495892,
                    "lon": 11.7083895,
                    "addr:city": "Schwaz",
                    "addr:country": "AT",
                    "addr:housenumber": "1",
                    "addr:postcode": "6130",
                    "addr:street": "Hubert-Danzl-Platz",
                    "amenity": "school",
                    "at_bev:addr_date": "2018-10-01",
                    "name": "Mittelschule 1"
                  },
                  "geometry": {
                    "type": "Point",
                    "coordinates": [
                      11.7083895,
                      47.3495892
                    ]
                  }
                },
                {
                  "type": "Feature",
                  "properties": {
                    "id": "8091108627",
                    "osm_type": "node",
                    "lat": 47.3491956,
                    "lon": 11.7081757,
                    "amenity": "school",
                    "name": "Polytechnische Schule"
                  },
                  "geometry": {
                    "type": "Point",
                    "coordinates": [
                      11.7081757,
                      47.3491956
                    ]
                  }
                },
                {
                  "type": "Feature",
                  "properties": {
                    "id": "8151008865",
                    "osm_type": "node",
                    "lat": 47.3209142,
                    "lon": 11.6807381,
                    "addr:city": "Pill",
                    "addr:housenumber": "3",
                    "addr:postcode": "6136",
                    "addr:street": "Auweg",
                    "amenity": "school",
                    "email": "direktion@vs-pill.tsn.at",
                    "mobile": "+43 676 7004854",
                    "name": "Volksschule Pill",
                    "website": "https://vs-pill.tsn.at"
                  },
                  "geometry": {
                    "type": "Point",
                    "coordinates": [
                      11.6807381,
                      47.3209142
                    ]
                  }
                },
                {
                  "type": "Feature",
                  "properties": {
                    "id": "8510588226",
                    "osm_type": "node",
                    "lat": 47.3502246,
                    "lon": 11.8729936,
                    "amenity": "school",
                    "name": "Volksschule Hart im Zillertal",
                    "website": "https://vs-hart.tsn.at/"
                  },
                  "geometry": {
                    "type": "Point",
                    "coordinates": [
                      11.8729936,
                      47.3502246
                    ]
                  }
                },
                {
                  "type": "Feature",
                  "properties": {
                    "id": "8524732583",
                    "osm_type": "node",
                    "lat": 47.2924518,
                    "lon": 11.8730194,
                    "addr:city": "Kaltenbach",
                    "addr:country": "AT",
                    "addr:housenumber": "17",
                    "addr:postcode": "6272",
                    "addr:street": "Schmiedau",
                    "amenity": "school",
                    "name": "Volksschule Kaltenbach"
                  },
                  "geometry": {
                    "type": "Point",
                    "coordinates": [
                      11.8730194,
                      47.2924518
                    ]
                  }
                },
                {
                  "type": "Feature",
                  "properties": {
                    "id": "8679633698",
                    "osm_type": "node",
                    "lat": 47.2896166,
                    "lon": 11.9003539,
                    "amenity": "school",
                    "name": "Volksschule Stummerberg",
                    "wikidata": "Q106508738"
                  },
                  "geometry": {
                    "type": "Point",
                    "coordinates": [
                      11.9003539,
                      47.2896166
                    ]
                  }
                },
                {
                  "type": "Feature",
                  "properties": {
                    "id": "11058248715",
                    "osm_type": "node",
                    "lat": 47.3530693,
                    "lon": 11.7162841,
                    "alt_name": "BORG Schwaz;BRG Schwaz",
                    "amenity": "school",
                    "name": "Bundesrealgymnasium und Bundes-Oberstufenrealgymnasium",
                    "operator": "Bundesministerium für Bildung, Wissenschaft und Forschung (BMBWF)"
                  },
                  "geometry": {
                    "type": "Point",
                    "coordinates": [
                      11.7162841,
                      47.3530693
                    ]
                  }
                },
                {
                  "type": "Feature",
                  "properties": {
                    "id": "11058248716",
                    "osm_type": "node",
                    "lat": 47.3526838,
                    "lon": 11.7166671,
                    "alt_name": "HAK;HASCH;Handelsakademie;Handelsschule",
                    "amenity": "school",
                    "name": "Bundeshandelsakademie und Bundeshandelsschule",
                    "operator": "Bundesministerium für Bildung, Wissenschaft und Forschung (BMBWF)"
                  },
                  "geometry": {
                    "type": "Point",
                    "coordinates": [
                      11.7166671,
                      47.3526838
                    ]
                  }
                },
                {
                  "type": "Feature",
                  "properties": {
                    "id": "11537752699",
                    "osm_type": "node",
                    "lat": 47.3120106,
                    "lon": 11.7118633,
                    "addr:city": "Pill",
                    "addr:housenumber": "109",
                    "addr:postcode": "6136",
                    "addr:street": "Pillbergstraße",
                    "amenity": "school",
                    "email": "direktion@vs-pill.tsn.at",
                    "mobile": "+43 676 7004855",
                    "name": "Volksschule Pillberg",
                    "website": "https://vs-pill.tsn.at"
                  },
                  "geometry": {
                    "type": "Point",
                    "coordinates": [
                      11.7118633,
                      47.3120106
                    ]
                  }
                }
              ],
              "children": []
            }
          ]
        },
        {
          "bbox": {
            "south": 47.199035125,
            "west": 11.915210749999998,
            "north": 47.36431175,
            "east": 12.392062499999998
          },
          "poiCount": 2,
          "leafCount": 2,
          "averagePosition": [
            12.16143915,
            47.24147635
          ],
          "data": [
            {
              "type": "Feature",
              "properties": {
                "id": "3358096696",
                "osm_type": "node",
                "lat": 47.255022,
                "lon": 12.2775458,
                "amenity": "school"
              },
              "geometry": {
                "type": "Point",
                "coordinates": [
                  12.2775458,
                  47.255022
                ]
              }
            },
            {
              "type": "Feature",
              "properties": {
                "id": "8575333397",
                "osm_type": "node",
                "lat": 47.2279307,
                "lon": 12.0453325,
                "addr:city": "Gerlos",
                "addr:country": "AT",
                "addr:housenumber": "272",
                "addr:place": "Gerlos",
                "addr:postcode": "6281",
                "amenity": "school",
                "email": "direktion@vs-gerlos.tsn.at",
                "name": "Volksschule Gerlos",
                "phone": "+43 5284 521023"
              },
              "geometry": {
                "type": "Point",
                "coordinates": [
                  12.0453325,
                  47.2279307
                ]
              }
            }
          ],
          "children": []
        }
      ]
    },
    {
      "bbox": {
        "south": 47.033758500000005,
        "west": 12.392062499999998,
        "north": 47.36431175,
        "east": 13.345766
      },
      "poiCount": 18,
      "leafCount": 18,
      "averagePosition": [
        12.823301422222222,
        47.29535065555555
      ],
      "data": [
        {
          "type": "Feature",
          "properties": {
            "id": "483183130",
            "osm_type": "node",
            "lat": 47.2755715,
            "lon": 12.4198527,
            "amenity": "school",
            "name": "Volksschule Hollersbach"
          },
          "geometry": {
            "type": "Point",
            "coordinates": [
              12.4198527,
              47.2755715
            ]
          }
        },
        {
          "type": "Feature",
          "properties": {
            "id": "1136665255",
            "osm_type": "node",
            "lat": 47.2789892,
            "lon": 12.4819078,
            "addr:city": "Mittersill",
            "addr:housenumber": "5",
            "addr:postcode": "5730",
            "addr:street": "Poststraße",
            "amenity": "school",
            "name": "Polytechnische Schule Mittersill",
            "phone": "+43 65624408",
            "website": "https://www.pts-mittersill.salzburg.at/"
          },
          "geometry": {
            "type": "Point",
            "coordinates": [
              12.4819078,
              47.2789892
            ]
          }
        },
        {
          "type": "Feature",
          "properties": {
            "id": "1136665293",
            "osm_type": "node",
            "lat": 47.2794271,
            "lon": 12.4818375,
            "addr:city": "Mittersill",
            "addr:country": "AT",
            "addr:housenumber": "5",
            "addr:postcode": "5730",
            "addr:street": "Poststraße",
            "amenity": "school",
            "contact:phone": "+43 6562 5338",
            "name": "Volksschule Mittersill",
            "phone": "+4365625338",
            "website": "https://www.vs-mittersill.salzburg.at/"
          },
          "geometry": {
            "type": "Point",
            "coordinates": [
              12.4818375,
              47.2794271
            ]
          }
        },
        {
          "type": "Feature",
          "properties": {
            "id": "12296948469",
            "osm_type": "node",
            "lat": 47.2876907,
            "lon": 12.5277073,
            "amenity": "school",
            "email": "direktion@vs-stuhlfelden.salzburg.at",
            "name": "VS Stuhlfelden",
            "phone": "+4365624237",
            "website": "https://www.vs-stuhlfelden.salzburg.at/"
          },
          "geometry": {
            "type": "Point",
            "coordinates": [
              12.5277073,
              47.2876907
            ]
          }
        },
        {
          "type": "Feature",
          "properties": {
            "id": "461714542",
            "osm_type": "node",
            "lat": 47.2711651,
            "lon": 12.7565469,
            "amenity": "school",
            "check_date": "2024-07-20",
            "name": "Sport- und Autonomiemittelschule Kaprun",
            "short_name": "MS Kaprun",
            "website": "https://ms-kaprun.salzburg.at/"
          },
          "geometry": {
            "type": "Point",
            "coordinates": [
              12.7565469,
              47.2711651
            ]
          }
        },
        {
          "type": "Feature",
          "properties": {
            "id": "3837110264",
            "osm_type": "node",
            "lat": 47.2930294,
            "lon": 12.9670203,
            "addr:city": "Taxenbach",
            "addr:country": "AT",
            "addr:housenumber": "13",
            "addr:postcode": "5660",
            "addr:street": "Marktstraße",
            "amenity": "school",
            "name": "Mittelschule Taxenbach",
            "short_name": "MS Taxenbach",
            "website": "https://www.ms-taxenbach.salzburg.at/",
            "wheelchair": "yes"
          },
          "geometry": {
            "type": "Point",
            "coordinates": [
              12.9670203,
              47.2930294
            ]
          }
        },
        {
          "type": "Feature",
          "properties": {
            "id": "3837110270",
            "osm_type": "node",
            "lat": 47.2931894,
            "lon": 12.9667553,
            "addr:city": "Taxenbach",
            "addr:country": "AT",
            "addr:housenumber": "11",
            "addr:postcode": "5660",
            "addr:street": "Marktstraße",
            "amenity": "school",
            "name": "Polytechnische Schule Taxenbach",
            "short_name": "PTS Taxenbach",
            "website": "https://www.pts-taxenbach.salzburg.at/",
            "wheelchair": "yes"
          },
          "geometry": {
            "type": "Point",
            "coordinates": [
              12.9667553,
              47.2931894
            ]
          }
        },
        {
          "type": "Feature",
          "properties": {
            "id": "3837111797",
            "osm_type": "node",
            "lat": 47.293069,
            "lon": 12.9674831,
            "addr:city": "Taxenbach",
            "addr:country": "AT",
            "addr:housenumber": "9",
            "addr:postcode": "5660",
            "addr:street": "Marktstraße",
            "amenity": "school",
            "at_bev:addr_date": "2017-10-01",
            "name": "Volksschule Taxenbach",
            "website": "https://www.vs-taxenbach.salzburg.at/",
            "wheelchair": "yes"
          },
          "geometry": {
            "type": "Point",
            "coordinates": [
              12.9674831,
              47.293069
            ]
          }
        },
        {
          "type": "Feature",
          "properties": {
            "id": "5559484326",
            "osm_type": "node",
            "lat": 47.3236142,
            "lon": 12.7953829,
            "addr:city": "Zell am See",
            "addr:country": "AT",
            "addr:housenumber": "2a",
            "addr:postcode": "5700",
            "addr:street": "Schulstraße",
            "amenity": "school",
            "at_bev:addr_date": "2017-10-01",
            "check_date": "2024-08-11",
            "name": "Musik Neue Mittelschule Zell am See",
            "website": "https://www.mmszell.com"
          },
          "geometry": {
            "type": "Point",
            "coordinates": [
              12.7953829,
              47.3236142
            ]
          }
        },
        {
          "type": "Feature",
          "properties": {
            "id": "7279680900",
            "osm_type": "node",
            "lat": 47.3011452,
            "lon": 12.792521,
            "alt_name": "Dr. Ernst Höfer Schule",
            "amenity": "school",
            "name": "Sonderpädagogisches Zentrum"
          },
          "geometry": {
            "type": "Point",
            "coordinates": [
              12.792521,
              47.3011452
            ]
          }
        },
        {
          "type": "Feature",
          "properties": {
            "id": "7279680901",
            "osm_type": "node",
            "lat": 47.301328,
            "lon": 12.7924298,
            "amenity": "school",
            "name": "Polytechnische Schule"
          },
          "geometry": {
            "type": "Point",
            "coordinates": [
              12.7924298,
              47.301328
            ]
          }
        },
        {
          "type": "Feature",
          "properties": {
            "id": "8381898473",
            "osm_type": "node",
            "lat": 47.2851435,
            "lon": 12.8251621,
            "amenity": "school",
            "contact:email": "post@lfs-bruck.at",
            "contact:phone": "+43 6545 7205",
            "contact:website": "https://www.lfs-bruck.at",
            "isced:level": "4",
            "name": "Landwirtschaftliche Fachschule Bruck"
          },
          "geometry": {
            "type": "Point",
            "coordinates": [
              12.8251621,
              47.2851435
            ]
          }
        },
        {
          "type": "Feature",
          "properties": {
            "id": "8381898475",
            "osm_type": "node",
            "lat": 47.2853037,
            "lon": 12.8264348,
            "amenity": "school",
            "contact:email": "office.ms@bruck.schule",
            "contact:phone": "+43 6545 7320 1",
            "contact:website": "https://ms-bruck.salzburg.at/",
            "isced:level": "2",
            "name": "Neue Informatik-Mittelschule Bruck"
          },
          "geometry": {
            "type": "Point",
            "coordinates": [
              12.8264348,
              47.2853037
            ]
          }
        },
        {
          "type": "Feature",
          "properties": {
            "id": "8381898476",
            "osm_type": "node",
            "lat": 47.2851308,
            "lon": 12.8270584,
            "amenity": "school",
            "contact:email": "direktion@vs-bruck.salzburg.at",
            "contact:phone": "+43 6545 7309",
            "contact:website": "https://vs-bruck.salzburg.at",
            "isced:level": "1",
            "name": "Volksschule Bruck"
          },
          "geometry": {
            "type": "Point",
            "coordinates": [
              12.8270584,
              47.2851308
            ]
          }
        },
        {
          "type": "Feature",
          "properties": {
            "id": "3057751513",
            "osm_type": "node",
            "lat": 47.3485962,
            "lon": 13.2027118,
            "addr:city": "St. Johann im Pongau",
            "addr:housenumber": "37",
            "addr:postcode": "5600",
            "addr:street": "Hauptstraße",
            "amenity": "school",
            "email": "st.johann-pongau@lernquadrat.at",
            "name": "Lernquadrat",
            "phone": "+4366488366878",
            "website": "https://www.lernquadrat.at/nachhilfe-salzburg-im-lernquadrat-st--johann-pongau/67_93",
            "wheelchair": "no"
          },
          "geometry": {
            "type": "Point",
            "coordinates": [
              13.2027118,
              47.3485962
            ]
          }
        },
        {
          "type": "Feature",
          "properties": {
            "id": "4751238452",
            "osm_type": "node",
            "lat": 47.3169178,
            "lon": 13.0989931,
            "amenity": "school",
            "check_date": "2025-07-04",
            "name": "Volksschule Goldegg"
          },
          "geometry": {
            "type": "Point",
            "coordinates": [
              13.0989931,
              47.3169178
            ]
          }
        },
        {
          "type": "Feature",
          "properties": {
            "id": "5491616279",
            "osm_type": "node",
            "lat": 47.2984395,
            "lon": 13.0447729,
            "addr:city": "Lend",
            "addr:country": "AT",
            "addr:housenumber": "32",
            "addr:place": "Lend",
            "addr:postcode": "5651",
            "amenity": "school",
            "at_bev:addr_date": "2017-10-01",
            "name": "Volksschule Lend-Embach",
            "website": "https://www.vs-lend-embach.salzburg.at/"
          },
          "geometry": {
            "type": "Point",
            "coordinates": [
              13.0447729,
              47.2984395
            ]
          }
        },
        {
          "type": "Feature",
          "properties": {
            "id": "12250519724",
            "osm_type": "node",
            "lat": 47.2985615,
            "lon": 13.0448479,
            "addr:city": "Lend",
            "addr:country": "AT",
            "addr:housenumber": "32",
            "addr:place": "Lend",
            "addr:postcode": "5651",
            "amenity": "school",
            "name": "Mittelschule Lend",
            "short_name": "MS Lend",
            "website": "https://www.ms-lend.salzburg.at/"
          },
          "geometry": {
            "type": "Point",
            "coordinates": [
              13.0448479,
              47.2985615
            ]
          }
        }
      ],
      "children": []
    },
    {
      "bbox": {
        "south": 47.36431175,
        "west": 11.438358999999998,
        "north": 47.694865,
        "east": 12.392062499999998
      },
      "poiCount": 69,
      "leafCount": 0,
      "averagePosition": [
        12.090864399999997,
        47.51289151594202
      ],
      "data": [],
      "children": [
        {
          "bbox": {
            "south": 47.36431175,
            "west": 11.438358999999998,
            "north": 47.529588375,
            "east": 11.915210749999998
          },
          "poiCount": 14,
          "leafCount": 14,
          "averagePosition": [
            11.817576364285713,
            47.43807290714285
          ],
          "data": [
            {
              "type": "Feature",
              "properties": {
                "id": "1968977747",
                "osm_type": "node",
                "lat": 47.369403,
                "lon": 11.7191088,
                "amenity": "school",
                "name": "Volksschule Stans"
              },
              "geometry": {
                "type": "Point",
                "coordinates": [
                  11.7191088,
                  47.369403
                ]
              }
            },
            {
              "type": "Feature",
              "properties": {
                "id": "1754704665",
                "osm_type": "node",
                "lat": 47.4899093,
                "lon": 11.8945498,
                "addr:city": "Brandenberg",
                "addr:country": "AT",
                "addr:housenumber": "20",
                "addr:postcode": "6234",
                "addr:street": "Brandenberg",
                "amenity": "school",
                "email": "direktion@vs-brandenberg.tsn.at",
                "name": "Volksschule Brandenberg",
                "phone": "+43 5331 5233",
                "website": "https://www.vs-brandenberg.tsn.at/"
              },
              "geometry": {
                "type": "Point",
                "coordinates": [
                  11.8945498,
                  47.4899093
                ]
              }
            },
            {
              "type": "Feature",
              "properties": {
                "id": "1765007830",
                "osm_type": "node",
                "lat": 47.4409565,
                "lon": 11.8937334,
                "amenity": "school",
                "name": "Mittelschule Rattenberg",
                "website": "https://ms-rb.edupage.org/"
              },
              "geometry": {
                "type": "Point",
                "coordinates": [
                  11.8937334,
                  47.4409565
                ]
              }
            },
            {
              "type": "Feature",
              "properties": {
                "id": "1775831436",
                "osm_type": "node",
                "lat": 47.4467628,
                "lon": 11.9064326,
                "amenity": "school",
                "name": "Volksschule",
                "source": "geoimage.at MaxRes"
              },
              "geometry": {
                "type": "Point",
                "coordinates": [
                  11.9064326,
                  47.4467628
                ]
              }
            },
            {
              "type": "Feature",
              "properties": {
                "id": "1911139268",
                "osm_type": "node",
                "lat": 47.4300074,
                "lon": 11.9145048,
                "amenity": "school",
                "name": "Volksschule",
                "source": "geoimage.at MaxRes"
              },
              "geometry": {
                "type": "Point",
                "coordinates": [
                  11.9145048,
                  47.4300074
                ]
              }
            },
            {
              "type": "Feature",
              "properties": {
                "id": "3415454629",
                "osm_type": "node",
                "lat": 47.5275925,
                "lon": 11.7060225,
                "addr:city": "Achenkirch",
                "addr:country": "AT",
                "addr:housenumber": "377a",
                "addr:postcode": "6215",
                "addr:street": "Achenkirch",
                "amenity": "school",
                "name": "Volksschule Achenkirch",
                "phone": "+43 5246 6267"
              },
              "geometry": {
                "type": "Point",
                "coordinates": [
                  11.7060225,
                  47.5275925
                ]
              }
            },
            {
              "type": "Feature",
              "properties": {
                "id": "5631150896",
                "osm_type": "node",
                "lat": 47.4331954,
                "lon": 11.73074,
                "amenity": "school",
                "name": "learn2kite",
                "operator": "Daniel Gredler"
              },
              "geometry": {
                "type": "Point",
                "coordinates": [
                  11.73074,
                  47.4331954
                ]
              }
            },
            {
              "type": "Feature",
              "properties": {
                "id": "6162384887",
                "osm_type": "node",
                "lat": 47.4549014,
                "lon": 11.8652491,
                "amenity": "school",
                "email": "direktion@mariatal.tsn.at",
                "name": "Landessonderschule mit Internat Mariatal",
                "phone": "+43 5337 62220",
                "website": "https://www.mariatal.tsn.at/"
              },
              "geometry": {
                "type": "Point",
                "coordinates": [
                  11.8652491,
                  47.4549014
                ]
              }
            },
            {
              "type": "Feature",
              "properties": {
                "id": "7747733682",
                "osm_type": "node",
                "lat": 47.4416874,
                "lon": 11.6954181,
                "amenity": "school",
                "name": "Volksschule"
              },
              "geometry": {
                "type": "Point",
                "coordinates": [
                  11.6954181,
                  47.4416874
                ]
              }
            },
            {
              "type": "Feature",
              "properties": {
                "id": "8510612290",
                "osm_type": "node",
                "lat": 47.3748572,
                "lon": 11.8402409,
                "amenity": "school",
                "name": "Volksschule"
              },
              "geometry": {
                "type": "Point",
                "coordinates": [
                  11.8402409,
                  47.3748572
                ]
              }
            },
            {
              "type": "Feature",
              "properties": {
                "id": "8628472143",
                "osm_type": "node",
                "lat": 47.5141962,
                "lon": 11.8018634,
                "addr:city": "Steinberg am Rofan",
                "addr:country": "AT",
                "addr:housenumber": "29",
                "addr:postcode": "6215",
                "addr:street": "Steinberg am Rofan",
                "amenity": "school",
                "name": "Volksschule Steinberg"
              },
              "geometry": {
                "type": "Point",
                "coordinates": [
                  11.8018634,
                  47.5141962
                ]
              }
            },
            {
              "type": "Feature",
              "properties": {
                "id": "11755410208",
                "osm_type": "node",
                "lat": 47.4290386,
                "lon": 11.8814857,
                "addr:city": "Brixlegg",
                "addr:housenumber": "18a",
                "addr:postcode": "6230",
                "addr:street": "Römerstraße",
                "amenity": "school",
                "email": "direktion@PTS-Brixlegg.tsn.at",
                "name": "Polytechnische Schule Brixlegg",
                "phone": "+43 5337 6224060",
                "website": "https://www.pts-brixlegg.tsn.at"
              },
              "geometry": {
                "type": "Point",
                "coordinates": [
                  11.8814857,
                  47.4290386
                ]
              }
            },
            {
              "type": "Feature",
              "properties": {
                "id": "11782848966",
                "osm_type": "node",
                "lat": 47.3897063,
                "lon": 11.7997103,
                "addr:city": "Strass im Zillertal",
                "addr:housenumber": "50",
                "addr:postcode": "6200",
                "addr:street": "Rotholz",
                "alt_name": "Höhere Bundeslehr- und Forschungsanstalt für Landwirtschaft und Ernährung sowie Lebensmitteltechnologie und Biotechnologie in Tirol",
                "amenity": "school",
                "name": "HBLFA Tirol",
                "website": "https://www.hblfa-tirol.at/",
                "wikidata": "Q50040854"
              },
              "geometry": {
                "type": "Point",
                "coordinates": [
                  11.7997103,
                  47.3897063
                ]
              }
            },
            {
              "type": "Feature",
              "properties": {
                "id": "11782869271",
                "osm_type": "node",
                "lat": 47.3908067,
                "lon": 11.7970097,
                "alt_name": "Landwirtschaftliche Lehranstalt Rotholz",
                "amenity": "school",
                "name": "LLA Rotholz",
                "website": "https://www.rotholz.at/",
                "wikidata": "Q14549628",
                "wikipedia": "de:Landwirtschaftliche Landeslehranstalt Rotholz"
              },
              "geometry": {
                "type": "Point",
                "coordinates": [
                  11.7970097,
                  47.3908067
                ]
              }
            }
          ],
          "children": []
        },
        {
          "bbox": {
            "south": 47.36431175,
            "west": 11.915210749999998,
            "north": 47.529588375,
            "east": 12.392062499999998
          },
          "poiCount": 31,
          "leafCount": 31,
          "averagePosition": [
            12.145531012903225,
            47.46541087741935
          ],
          "data": [
            {
              "type": "Feature",
              "properties": {
                "id": "746513234",
                "osm_type": "node",
                "lat": 47.4786628,
                "lon": 11.9741679,
                "amenity": "school",
                "name": "Volksschule Breitenbach am Inn",
                "wikidata": "Q98716206"
              },
              "geometry": {
                "type": "Point",
                "coordinates": [
                  11.9741679,
                  47.4786628
                ]
              }
            },
            {
              "type": "Feature",
              "properties": {
                "id": "1921597767",
                "osm_type": "node",
                "lat": 47.3760107,
                "lon": 11.9623795,
                "addr:city": "Alpbach",
                "addr:housenumber": "364",
                "addr:postcode": "6236",
                "addr:street": "Alpbach",
                "amenity": "school",
                "email": "direktion@vs-inneralpbach.tsn.at",
                "name": "Volksschule Inneralpbach",
                "phone": "+43 5336 5602",
                "source": "geoimage.at MaxRes"
              },
              "geometry": {
                "type": "Point",
                "coordinates": [
                  11.9623795,
                  47.3760107
                ]
              }
            },
            {
              "type": "Feature",
              "properties": {
                "id": "3416319121",
                "osm_type": "node",
                "lat": 47.4776107,
                "lon": 11.9706577,
                "addr:city": "Breitenbach am Inn",
                "addr:country": "AT",
                "addr:housenumber": "16",
                "addr:postcode": "6252",
                "addr:street": "Ausserdorf",
                "amenity": "school",
                "email": "direktion@ms-breitenbach.tsn.at",
                "name": "Mittelschule Breitenbach am Inn",
                "phone": "+43 5338 7983",
                "website": "https://ms-breitenbach.tsn.at/"
              },
              "geometry": {
                "type": "Point",
                "coordinates": [
                  11.9706577,
                  47.4776107
                ]
              }
            },
            {
              "type": "Feature",
              "properties": {
                "id": "8996083311",
                "osm_type": "node",
                "lat": 47.4773937,
                "lon": 11.9711494,
                "amenity": "school",
                "name": "Übergangsschule/Containerschule Volksschule"
              },
              "geometry": {
                "type": "Point",
                "coordinates": [
                  11.9711494,
                  47.4773937
                ]
              }
            },
            {
              "type": "Feature",
              "properties": {
                "id": "12105307697",
                "osm_type": "node",
                "lat": 47.4221252,
                "lon": 11.9902304,
                "addr:city": "Wildschönau-Thierbach",
                "addr:housenumber": "22",
                "addr:postcode": "6311",
                "addr:street": "Dorf",
                "amenity": "school",
                "email": "direktion@vs-thierbach.tsn.at",
                "name": "Volksschule Wildschönau-Thierbach",
                "phone": "+43 5339 8110540"
              },
              "geometry": {
                "type": "Point",
                "coordinates": [
                  11.9902304,
                  47.4221252
                ]
              }
            },
            {
              "type": "Feature",
              "properties": {
                "id": "317491979",
                "osm_type": "node",
                "lat": 47.5053187,
                "lon": 12.1948725,
                "addr:city": "Söll",
                "addr:country": "AT",
                "addr:housenumber": "33",
                "addr:postcode": "6306",
                "addr:street": "Dorf",
                "amenity": "school",
                "email": "direktion@ms-soell.tsn.at",
                "fax": "+43 5333 4334",
                "name": "Mittelschule Söll Scheffau",
                "phone": "+43 5333 5329",
                "website": "https://www.ms-soell.tsn.at"
              },
              "geometry": {
                "type": "Point",
                "coordinates": [
                  12.1948725,
                  47.5053187
                ]
              }
            },
            {
              "type": "Feature",
              "properties": {
                "id": "317492413",
                "osm_type": "node",
                "lat": 47.5066419,
                "lon": 12.195095,
                "addr:city": "Söll",
                "addr:country": "AT",
                "addr:housenumber": "34",
                "addr:place": "Dorf",
                "addr:postcode": "6306",
                "amenity": "school",
                "email": "direktion@vs-soell.tsn.at",
                "name": "Volksschule Söll",
                "phone": "+43 5333 5466",
                "website": "https://www.vs-soell.tsn.at"
              },
              "geometry": {
                "type": "Point",
                "coordinates": [
                  12.195095,
                  47.5066419
                ]
              }
            },
            {
              "type": "Feature",
              "properties": {
                "id": "1208770159",
                "osm_type": "node",
                "lat": 47.4817284,
                "lon": 12.059261,
                "alt_name": "BHAK/BHAS",
                "amenity": "school",
                "email": "hak-woergl@lsr-t.gv.at",
                "name": "Bundeshandelsakademie und Bundeshandelsschule Wörgl",
                "phone": "+43 5332 72564",
                "website": "http://www.hak-woergl.tsn.at/"
              },
              "geometry": {
                "type": "Point",
                "coordinates": [
                  12.059261,
                  47.4817284
                ]
              }
            },
            {
              "type": "Feature",
              "properties": {
                "id": "1208770210",
                "osm_type": "node",
                "lat": 47.4816463,
                "lon": 12.0601995,
                "alt_name": "BRG",
                "amenity": "school",
                "isced:level": "2-3",
                "name": "Bundesrealgymnasium Wörgl",
                "phone": "+43 5332 72563",
                "website": "https://www.brg-woergl.at/"
              },
              "geometry": {
                "type": "Point",
                "coordinates": [
                  12.0601995,
                  47.4816463
                ]
              }
            },
            {
              "type": "Feature",
              "properties": {
                "id": "1470738030",
                "osm_type": "node",
                "lat": 47.4822737,
                "lon": 12.0608069,
                "alt_name": "BFS",
                "amenity": "school",
                "name": "Bundesfachschule Wörgl",
                "website": "https://www.bfs-woergl.tsn.at/"
              },
              "geometry": {
                "type": "Point",
                "coordinates": [
                  12.0608069,
                  47.4822737
                ]
              }
            },
            {
              "type": "Feature",
              "properties": {
                "id": "1597297753",
                "osm_type": "node",
                "lat": 47.5279157,
                "lon": 12.2489952,
                "amenity": "school",
                "name": "Volksschule Scheffau"
              },
              "geometry": {
                "type": "Point",
                "coordinates": [
                  12.2489952,
                  47.5279157
                ]
              }
            },
            {
              "type": "Feature",
              "properties": {
                "id": "1621222327",
                "osm_type": "node",
                "lat": 47.5124663,
                "lon": 12.3022937,
                "addr:city": "Ellmau",
                "addr:housenumber": "13",
                "addr:postcode": "6352",
                "addr:street": "Kirchplatz",
                "amenity": "school",
                "email": "direktion@vs-ellmau.tsn.at",
                "name": "Volksschule Ellmau",
                "phone": "+43 5358 230711",
                "source": "geoimage.at MaxRes",
                "website": "https://www.vs-ellmau.at"
              },
              "geometry": {
                "type": "Point",
                "coordinates": [
                  12.3022937,
                  47.5124663
                ]
              }
            },
            {
              "type": "Feature",
              "properties": {
                "id": "1652546614",
                "osm_type": "node",
                "lat": 47.5259623,
                "lon": 12.0534905,
                "addr:city": "Mariastein",
                "addr:country": "AT",
                "addr:housenumber": "25",
                "addr:postcode": "6324",
                "addr:street": "Mariastein",
                "amenity": "school",
                "name": "Volksschule Mariastein",
                "source": "geoimage.at MaxRes"
              },
              "geometry": {
                "type": "Point",
                "coordinates": [
                  12.0534905,
                  47.5259623
                ]
              }
            },
            {
              "type": "Feature",
              "properties": {
                "id": "1662371173",
                "osm_type": "node",
                "lat": 47.510444,
                "lon": 12.1194388,
                "addr:city": "Bad Häring",
                "addr:housenumber": "2",
                "addr:postcode": "6323",
                "addr:street": "Obere Dorfstraße",
                "amenity": "school",
                "email": "direktion@vs-badhaering.tsn.at",
                "name": "Volksschule Bad Häring",
                "phone": "+43 5332 7615830",
                "source": "geoimage.at MaxRes",
                "website": "https://www.vs-badhaering.tsn.at/"
              },
              "geometry": {
                "type": "Point",
                "coordinates": [
                  12.1194388,
                  47.510444
                ]
              }
            },
            {
              "type": "Feature",
              "properties": {
                "id": "1738081027",
                "osm_type": "node",
                "lat": 47.5233007,
                "lon": 12.0900733,
                "addr:city": "Langkampfen",
                "addr:housenumber": "5",
                "addr:postcode": "6336",
                "addr:street": "Innstraße",
                "amenity": "school",
                "email": "direktion@vs-oberlangkampfen.tsn.at",
                "name": "Volksschule Oberlangkampfen",
                "phone": "+43 5332 87669250",
                "source": "geoimage.at MaxRes",
                "website": "https://www.vs-oberlangkampfen.at"
              },
              "geometry": {
                "type": "Point",
                "coordinates": [
                  12.0900733,
                  47.5233007
                ]
              }
            },
            {
              "type": "Feature",
              "properties": {
                "id": "1814540104",
                "osm_type": "node",
                "lat": 47.4489882,
                "lon": 12.0881438,
                "addr:city": "Wildschönau",
                "addr:housenumber": "100",
                "addr:postcode": "6314",
                "addr:street": "Wildschönauerstraße",
                "amenity": "school",
                "email": "direktion@vs-niederau.tsn.at",
                "name": "Volksschule Wildschönau-Niederau",
                "phone": "+43 5339 8110520",
                "source": "geoimage.at MaxRes",
                "website": "https://www.vs-niederau.at",
                "wikidata": "Q99801000"
              },
              "geometry": {
                "type": "Point",
                "coordinates": [
                  12.0881438,
                  47.4489882
                ]
              }
            },
            {
              "type": "Feature",
              "properties": {
                "id": "1828574794",
                "osm_type": "node",
                "lat": 47.4421048,
                "lon": 12.0483769,
                "addr:city": "Wildschönau",
                "addr:housenumber": "335",
                "addr:place": "Kirchen",
                "addr:postcode": "6311",
                "amenity": "school",
                "email": "direktion@mms-wildschoenau.tsn.at",
                "name": "Mittelschule Wildschönau",
                "phone": "+43 5339 8110552",
                "source": "geoimage.at MaxRes",
                "website": "https://www.mms-wildschoenau.tsn.at/"
              },
              "geometry": {
                "type": "Point",
                "coordinates": [
                  12.0483769,
                  47.4421048
                ]
              }
            },
            {
              "type": "Feature",
              "properties": {
                "id": "1828574922",
                "osm_type": "node",
                "lat": 47.4423043,
                "lon": 12.0494208,
                "addr:city": "Wildschönau",
                "addr:housenumber": "470",
                "addr:place": "Kirchen",
                "addr:postcode": "6311",
                "amenity": "school",
                "email": "direktion@vs-oberau.tsn.at",
                "name": "Volksschule Wildschönau-Oberau",
                "phone": "+43 5339 8110511"
              },
              "geometry": {
                "type": "Point",
                "coordinates": [
                  12.0494208,
                  47.4423043
                ]
              }
            },
            {
              "type": "Feature",
              "properties": {
                "id": "2091140564",
                "osm_type": "node",
                "lat": 47.445408,
                "lon": 12.3901529,
                "addr:city": "Kitzbühel",
                "addr:country": "AT",
                "addr:housenumber": "2",
                "addr:postcode": "6370",
                "addr:street": "Schulgasse",
                "amenity": "school",
                "name": "Volksschule Kitzbühel",
                "website": "https://www.vs-kitzbuehel.tsn.at/",
                "wikidata": "Q38067058"
              },
              "geometry": {
                "type": "Point",
                "coordinates": [
                  12.3901529,
                  47.445408
                ]
              }
            },
            {
              "type": "Feature",
              "properties": {
                "id": "2155648205",
                "osm_type": "node",
                "lat": 47.444891,
                "lon": 12.3192923,
                "amenity": "school",
                "name": "Volksschule"
              },
              "geometry": {
                "type": "Point",
                "coordinates": [
                  12.3192923,
                  47.444891
                ]
              }
            },
            {
              "type": "Feature",
              "properties": {
                "id": "3416270488",
                "osm_type": "node",
                "lat": 47.3832999,
                "lon": 12.3095749,
                "addr:city": "Kirchberg in Tirol",
                "addr:country": "AT",
                "addr:housename": "Schulhaus",
                "addr:housenumber": "62",
                "addr:postcode": "6365",
                "addr:street": "Aschau Dorf",
                "amenity": "school",
                "name": "Volksschule Aschau",
                "phone": "+43 5357 8105",
                "wikidata": "Q105223058"
              },
              "geometry": {
                "type": "Point",
                "coordinates": [
                  12.3095749,
                  47.3832999
                ]
              }
            },
            {
              "type": "Feature",
              "properties": {
                "id": "4271129584",
                "osm_type": "node",
                "lat": 47.4505645,
                "lon": 12.2538186,
                "amenity": "school",
                "name": "Polytechnische Schule"
              },
              "geometry": {
                "type": "Point",
                "coordinates": [
                  12.2538186,
                  47.4505645
                ]
              }
            },
            {
              "type": "Feature",
              "properties": {
                "id": "4271156805",
                "osm_type": "node",
                "lat": 47.4506509,
                "lon": 12.253327,
                "amenity": "school",
                "name": "Volksschule"
              },
              "geometry": {
                "type": "Point",
                "coordinates": [
                  12.253327,
                  47.4506509
                ]
              }
            },
            {
              "type": "Feature",
              "properties": {
                "id": "5586606290",
                "osm_type": "node",
                "lat": 47.4504891,
                "lon": 12.1556087,
                "amenity": "school",
                "contact:phone": "+43 5335 228111",
                "contact:website": "http://www.vs-hopfgarten.tsn.at/",
                "name": "Volksschule"
              },
              "geometry": {
                "type": "Point",
                "coordinates": [
                  12.1556087,
                  47.4504891
                ]
              }
            },
            {
              "type": "Feature",
              "properties": {
                "id": "5586606291",
                "osm_type": "node",
                "lat": 47.4507233,
                "lon": 12.1551394,
                "amenity": "school",
                "contact:email": "direktion@nms-hopfgarten.tsn.at",
                "contact:phone": "+43 5335 2281 10",
                "contact:website": "http://www.nms-hopfgarten.tsn.at/",
                "name": "Mittelschule Hopfgarten"
              },
              "geometry": {
                "type": "Point",
                "coordinates": [
                  12.1551394,
                  47.4507233
                ]
              }
            },
            {
              "type": "Feature",
              "properties": {
                "id": "8631786849",
                "osm_type": "node",
                "lat": 47.3883087,
                "lon": 12.1352538,
                "amenity": "school",
                "name": "Volksschule Kelchsau",
                "wikidata": "Q105064103"
              },
              "geometry": {
                "type": "Point",
                "coordinates": [
                  12.1352538,
                  47.3883087
                ]
              }
            },
            {
              "type": "Feature",
              "properties": {
                "id": "8667125012",
                "osm_type": "node",
                "lat": 47.4451803,
                "lon": 12.2087561,
                "amenity": "school",
                "name": "Alpenschule"
              },
              "geometry": {
                "type": "Point",
                "coordinates": [
                  12.2087561,
                  47.4451803
                ]
              }
            },
            {
              "type": "Feature",
              "properties": {
                "id": "8856559144",
                "osm_type": "node",
                "lat": 47.5003372,
                "lon": 12.3826829,
                "amenity": "school",
                "name": "Volksschule Oberndorf",
                "wikidata": "Q105527906"
              },
              "geometry": {
                "type": "Point",
                "coordinates": [
                  12.3826829,
                  47.5003372
                ]
              }
            },
            {
              "type": "Feature",
              "properties": {
                "id": "8879521489",
                "osm_type": "node",
                "lat": 47.5156574,
                "lon": 12.3303032,
                "amenity": "school",
                "name": "Volksschule Going",
                "wikidata": "Q101245889"
              },
              "geometry": {
                "type": "Point",
                "coordinates": [
                  12.3303032,
                  47.5156574
                ]
              }
            },
            {
              "type": "Feature",
              "properties": {
                "id": "11809123103",
                "osm_type": "node",
                "lat": 47.4697203,
                "lon": 12.1435484,
                "addr:city": "Itter",
                "addr:country": "AT",
                "addr:housename": "Schulhaus",
                "addr:housenumber": "3",
                "addr:postcode": "6305",
                "addr:street": "Dorfplatz",
                "amenity": "school",
                "name": "Volksschule Itter"
              },
              "geometry": {
                "type": "Point",
                "coordinates": [
                  12.1435484,
                  47.4697203
                ]
              }
            },
            {
              "type": "Feature",
              "properties": {
                "id": "12105321209",
                "osm_type": "node",
                "lat": 47.4096082,
                "lon": 12.0349504,
                "addr:city": "Wildschönau",
                "addr:housenumber": "173",
                "addr:postcode": "6313",
                "addr:street": "Dorf",
                "amenity": "school",
                "email": "direktion@vs-auffach.tsn.at",
                "name": "Volksschule Wildschönau-Auffach",
                "phone": "+43 5339 8110530",
                "website": "https://www.vs-thierbach.tsn.at"
              },
              "geometry": {
                "type": "Point",
                "coordinates": [
                  12.0349504,
                  47.4096082
                ]
              }
            }
          ],
          "children": []
        },
        {
          "bbox": {
            "south": 47.529588375,
            "west": 11.915210749999998,
            "north": 47.694865,
            "east": 12.392062499999998
          },
          "poiCount": 24,
          "leafCount": 24,
          "averagePosition": [
            12.179671379166665,
            47.6178648625
          ],
          "data": [
            {
              "type": "Feature",
              "properties": {
                "id": "342301045",
                "osm_type": "node",
                "lat": 47.6737829,
                "lon": 12.0128363,
                "addr:city": "Bayrischzell",
                "addr:country": "DE",
                "addr:housenumber": "5",
                "addr:postcode": "83735",
                "addr:street": "Schulstraße",
                "amenity": "school",
                "name": "Grundschule Bayrischzell",
                "website": "https://gemeinde.bayrischzell.de/oeffentliche-einrichtungen/schule-bildung.html"
              },
              "geometry": {
                "type": "Point",
                "coordinates": [
                  12.0128363,
                  47.6737829
                ]
              }
            },
            {
              "type": "Feature",
              "properties": {
                "id": "1555857874",
                "osm_type": "node",
                "lat": 47.5557194,
                "lon": 12.0043213,
                "amenity": "school",
                "name": "Volksschule",
                "source": "geoimage.at MaxRes"
              },
              "geometry": {
                "type": "Point",
                "coordinates": [
                  12.0043213,
                  47.5557194
                ]
              }
            },
            {
              "type": "Feature",
              "properties": {
                "id": "824851372",
                "osm_type": "node",
                "lat": 47.584768,
                "lon": 12.0654145,
                "addr:city": "Thiersee",
                "addr:housenumber": "78",
                "addr:place": "Hinterthiersee",
                "addr:postcode": "6335",
                "amenity": "school",
                "email": "direktion@vs-hinterthiersee.tsn.at",
                "name": "Volksschule Hinterthiersee",
                "phone": "+43 5376 523151"
              },
              "geometry": {
                "type": "Point",
                "coordinates": [
                  12.0654145,
                  47.584768
                ]
              }
            },
            {
              "type": "Feature",
              "properties": {
                "id": "1264230968",
                "osm_type": "node",
                "lat": 47.6458361,
                "lon": 12.173835,
                "amenity": "school",
                "isced:level": "1",
                "name": "Volksschule Oberaudorf"
              },
              "geometry": {
                "type": "Point",
                "coordinates": [
                  12.173835,
                  47.6458361
                ]
              }
            },
            {
              "type": "Feature",
              "properties": {
                "id": "1413324629",
                "osm_type": "node",
                "lat": 47.5891266,
                "lon": 12.168282,
                "amenity": "school",
                "name": "Mittelschule 1"
              },
              "geometry": {
                "type": "Point",
                "coordinates": [
                  12.168282,
                  47.5891266
                ]
              }
            },
            {
              "type": "Feature",
              "properties": {
                "id": "1454831802",
                "osm_type": "node",
                "lat": 47.5435736,
                "lon": 12.139823,
                "amenity": "school",
                "name": "Volksschule Schwoich"
              },
              "geometry": {
                "type": "Point",
                "coordinates": [
                  12.139823,
                  47.5435736
                ]
              }
            },
            {
              "type": "Feature",
              "properties": {
                "id": "1464776950",
                "osm_type": "node",
                "lat": 47.6286416,
                "lon": 12.2153572,
                "amenity": "school",
                "name": "Volksschule Ebbs",
                "wheelchair": "yes"
              },
              "geometry": {
                "type": "Point",
                "coordinates": [
                  12.2153572,
                  47.6286416
                ]
              }
            },
            {
              "type": "Feature",
              "properties": {
                "id": "1498617904",
                "osm_type": "node",
                "lat": 47.6523355,
                "lon": 12.2165896,
                "amenity": "school",
                "name": "Polytechnische Schule"
              },
              "geometry": {
                "type": "Point",
                "coordinates": [
                  12.2165896,
                  47.6523355
                ]
              }
            },
            {
              "type": "Feature",
              "properties": {
                "id": "1498625811",
                "osm_type": "node",
                "lat": 47.651171,
                "lon": 12.2164249,
                "amenity": "school",
                "name": "Musikschule"
              },
              "geometry": {
                "type": "Point",
                "coordinates": [
                  12.2164249,
                  47.651171
                ]
              }
            },
            {
              "type": "Feature",
              "properties": {
                "id": "1498625814",
                "osm_type": "node",
                "lat": 47.6520455,
                "lon": 12.2167491,
                "amenity": "school",
                "name": "Mittelschule Niederndorf",
                "wheelchair": "yes",
                "wikidata": "Q42379776",
                "wikipedia": "de:Mittelschule Niederndorf"
              },
              "geometry": {
                "type": "Point",
                "coordinates": [
                  12.2167491,
                  47.6520455
                ]
              }
            },
            {
              "type": "Feature",
              "properties": {
                "id": "1503632702",
                "osm_type": "node",
                "lat": 47.6509531,
                "lon": 12.2167822,
                "amenity": "school",
                "name": "Volksschule"
              },
              "geometry": {
                "type": "Point",
                "coordinates": [
                  12.2167822,
                  47.6509531
                ]
              }
            },
            {
              "type": "Feature",
              "properties": {
                "id": "1516328525",
                "osm_type": "node",
                "lat": 47.6813692,
                "lon": 12.1819988,
                "amenity": "school",
                "name": "Volksschule Erl"
              },
              "geometry": {
                "type": "Point",
                "coordinates": [
                  12.1819988,
                  47.6813692
                ]
              }
            },
            {
              "type": "Feature",
              "properties": {
                "id": "1520836867",
                "osm_type": "node",
                "lat": 47.6859534,
                "lon": 12.2127108,
                "amenity": "school",
                "source": "geoimage.at MaxRes"
              },
              "geometry": {
                "type": "Point",
                "coordinates": [
                  12.2127108,
                  47.6859534
                ]
              }
            },
            {
              "type": "Feature",
              "properties": {
                "id": "1557145023",
                "osm_type": "node",
                "lat": 47.5909596,
                "lon": 12.1134338,
                "addr:city": "Thiersee",
                "addr:country": "AT",
                "addr:housenumber": "4a",
                "addr:postcode": "6355",
                "addr:street": "Kirchdorf",
                "amenity": "school",
                "email": "direktion@vs-vorderthiersee.tsn.at",
                "name": "Volksschule Vorderthiersee",
                "phone": "+43 5376 523150"
              },
              "geometry": {
                "type": "Point",
                "coordinates": [
                  12.1134338,
                  47.5909596
                ]
              }
            },
            {
              "type": "Feature",
              "properties": {
                "id": "1631130207",
                "osm_type": "node",
                "lat": 47.6526813,
                "lon": 12.2633124,
                "addr:city": "Rettenschöss",
                "addr:country": "AT",
                "addr:housenumber": "66",
                "addr:place": "Rettenschöss",
                "addr:postcode": "6342",
                "amenity": "school",
                "name": "Volksschule Rettenschöss",
                "source": "geoimage.at MaxRes"
              },
              "geometry": {
                "type": "Point",
                "coordinates": [
                  12.2633124,
                  47.6526813
                ]
              }
            },
            {
              "type": "Feature",
              "properties": {
                "id": "1642898043",
                "osm_type": "node",
                "lat": 47.6534907,
                "lon": 12.3177448,
                "addr:city": "Walchsee",
                "addr:housenumber": "15",
                "addr:postcode": "6344",
                "addr:street": "Hausbergstraße",
                "amenity": "school",
                "email": "direktion@vs-walchsee.tsn.at",
                "mobile": "+43 676 841640890",
                "name": "Volksschule Walchsee",
                "source": "geoimage.at MaxRes",
                "website": "https://vs-walchsee.edupage.org/",
                "wheelchair": "yes"
              },
              "geometry": {
                "type": "Point",
                "coordinates": [
                  12.3177448,
                  47.6534907
                ]
              }
            },
            {
              "type": "Feature",
              "properties": {
                "id": "2190121247",
                "osm_type": "node",
                "lat": 47.5799519,
                "lon": 12.1729556,
                "alt_name": "HLW",
                "amenity": "school",
                "contact:email": "hlw-kufstein@lsr-t.gv.at",
                "contact:fax": "+43 5372 64147-17",
                "contact:phone": "+43 5372 64147",
                "contact:website": "http://www.hlwkufstein.net/moodle/",
                "name": "Höhere Bundeslehranstalt für Wirtschaftliche Berufe Kufstein",
                "opening_hours": "Mo-Fr 07:45-15:00",
                "source": "geoimage.at MaxRes"
              },
              "geometry": {
                "type": "Point",
                "coordinates": [
                  12.1729556,
                  47.5799519
                ]
              }
            },
            {
              "type": "Feature",
              "properties": {
                "id": "2949644441",
                "osm_type": "node",
                "lat": 47.5904849,
                "lon": 12.1784215,
                "amenity": "school",
                "name": "Waldorf Schule",
                "source": "geoimage.at MaxRes"
              },
              "geometry": {
                "type": "Point",
                "coordinates": [
                  12.1784215,
                  47.5904849
                ]
              }
            },
            {
              "type": "Feature",
              "properties": {
                "id": "2962558819",
                "osm_type": "node",
                "lat": 47.5831063,
                "lon": 12.1730941,
                "amenity": "school",
                "contact:email": "kufstein@lms.tsn.at",
                "contact:phone": "+43 5372 602-175",
                "contact:website": "http://www.tmsw.at/index.php?id=346",
                "name": "Landesmusikschule",
                "source": "knowledge",
                "wheelchair": "yes"
              },
              "geometry": {
                "type": "Point",
                "coordinates": [
                  12.1730941,
                  47.5831063
                ]
              }
            },
            {
              "type": "Feature",
              "properties": {
                "id": "8096902936",
                "osm_type": "node",
                "lat": 47.588985,
                "lon": 12.1689502,
                "amenity": "school",
                "name": "Mittelschule 2"
              },
              "geometry": {
                "type": "Point",
                "coordinates": [
                  12.1689502,
                  47.588985
                ]
              }
            },
            {
              "type": "Feature",
              "properties": {
                "id": "8458235642",
                "osm_type": "node",
                "lat": 47.5771727,
                "lon": 12.1617622,
                "addr:city": "Kufstein",
                "addr:housenumber": "22",
                "addr:postcode": "6330",
                "addr:street": "Salurner Straße",
                "amenity": "school",
                "email": "direktion@tfbs-kufstein.tsn.at",
                "name": "Tiroler Fachberufsschule für Wirtschaft und Technik",
                "phone": "+43 5372 64195",
                "website": "https://www.tfbs-kufstein.tsn.at"
              },
              "geometry": {
                "type": "Point",
                "coordinates": [
                  12.1617622,
                  47.5771727
                ]
              }
            },
            {
              "type": "Feature",
              "properties": {
                "id": "8887532350",
                "osm_type": "node",
                "lat": 47.6504664,
                "lon": 12.3749329,
                "amenity": "school",
                "name": "Volksschule Bichlach"
              },
              "geometry": {
                "type": "Point",
                "coordinates": [
                  12.3749329,
                  47.6504664
                ]
              }
            },
            {
              "type": "Feature",
              "properties": {
                "id": "11663987219",
                "osm_type": "node",
                "lat": 47.5833909,
                "lon": 12.1728395,
                "amenity": "school",
                "name": "International School Kufstein",
                "website": "https://www.isk-tirol.at/"
              },
              "geometry": {
                "type": "Point",
                "coordinates": [
                  12.1728395,
                  47.5833909
                ]
              }
            },
            {
              "type": "Feature",
              "properties": {
                "id": "12336652159",
                "osm_type": "node",
                "lat": 47.5827911,
                "lon": 12.1735414,
                "addr:city": "Kufstein",
                "addr:country": "AT",
                "addr:housenumber": "2a",
                "addr:postcode": "6330",
                "addr:street": "Andreas Hofer-Straße",
                "alt_name": "Center of Art & Science",
                "amenity": "school",
                "name": "ISK Centre of Art & Science",
                "operator": "International School Kufstein"
              },
              "geometry": {
                "type": "Point",
                "coordinates": [
                  12.1735414,
                  47.5827911
                ]
              }
            }
          ],
          "children": []
        }
      ]
    },
    {
      "bbox": {
        "south": 47.36431175,
        "west": 12.392062499999998,
        "north": 47.694865,
        "east": 13.345766
      },
      "poiCount": 46,
      "leafCount": 46,
      "averagePosition": [
        12.744205513043477,
        47.526084160869566
      ],
      "data": [
        {
          "type": "Feature",
          "properties": {
            "id": "601151474",
            "osm_type": "node",
            "lat": 47.489871,
            "lon": 12.5266712,
            "amenity": "school",
            "name": "Volksschule Rosenegg"
          },
          "geometry": {
            "type": "Point",
            "coordinates": [
              12.5266712,
              47.489871
            ]
          }
        },
        {
          "type": "Feature",
          "properties": {
            "id": "1356799323",
            "osm_type": "node",
            "lat": 47.5024374,
            "lon": 12.4799335,
            "addr:city": "St. Johann in Tirol",
            "addr:country": "AT",
            "addr:housenumber": "128",
            "addr:postcode": "6380",
            "addr:street": "Winkl-Schattseite",
            "amenity": "school",
            "email": "direktion@vs-jodler.tsn.at",
            "name": "Volksschule Jodler",
            "phone": "+43 5352 61108",
            "source": "Lokalerhebung 2012-2019",
            "website": "https://www.vs-jodler.tsn.at/"
          },
          "geometry": {
            "type": "Point",
            "coordinates": [
              12.4799335,
              47.5024374
            ]
          }
        },
        {
          "type": "Feature",
          "properties": {
            "id": "1356828356",
            "osm_type": "node",
            "lat": 47.5161962,
            "lon": 12.4474482,
            "amenity": "school",
            "name": "Sonnenhof"
          },
          "geometry": {
            "type": "Point",
            "coordinates": [
              12.4474482,
              47.5161962
            ]
          }
        },
        {
          "type": "Feature",
          "properties": {
            "id": "1483627011",
            "osm_type": "node",
            "lat": 47.5582864,
            "lon": 12.4493912,
            "amenity": "school",
            "name": "Volksschule",
            "wikidata": "Q117785742"
          },
          "geometry": {
            "type": "Point",
            "coordinates": [
              12.4493912,
              47.5582864
            ]
          }
        },
        {
          "type": "Feature",
          "properties": {
            "id": "2006081716",
            "osm_type": "node",
            "lat": 47.6317092,
            "lon": 12.3924023,
            "amenity": "school",
            "name": "Volksschule Schwendt",
            "source": "geoimage.at MaxRes",
            "wikidata": "Q37997537"
          },
          "geometry": {
            "type": "Point",
            "coordinates": [
              12.3924023,
              47.6317092
            ]
          }
        },
        {
          "type": "Feature",
          "properties": {
            "id": "3414060312",
            "osm_type": "node",
            "lat": 47.527059,
            "lon": 12.4301747,
            "addr:city": "St. Johann in Tirol",
            "addr:country": "AT",
            "addr:housenumber": "17",
            "addr:postcode": "6380",
            "addr:street": "Postfeld",
            "amenity": "school",
            "email": "direktion@ms1-stjohann.tsn.at",
            "name": "Mittelschule 1",
            "phone": "+4353526900431",
            "website": "https://ms1-stjohann.tsn.at/",
            "wikidata": "Q38152131"
          },
          "geometry": {
            "type": "Point",
            "coordinates": [
              12.4301747,
              47.527059
            ]
          }
        },
        {
          "type": "Feature",
          "properties": {
            "id": "3414060313",
            "osm_type": "node",
            "lat": 47.5271265,
            "lon": 12.4294753,
            "addr:city": "St. Johann in Tirol",
            "addr:country": "AT",
            "addr:housenumber": "17",
            "addr:postcode": "6380",
            "addr:street": "Postfeld",
            "amenity": "school",
            "email": "direktion@ms-stjohann2.tsn.at",
            "name": "Mittelschule 2",
            "phone": "+4353526900451",
            "website": "https://ms2-stjohann.tsn.at/",
            "wikidata": "Q38152131"
          },
          "geometry": {
            "type": "Point",
            "coordinates": [
              12.4294753,
              47.5271265
            ]
          }
        },
        {
          "type": "Feature",
          "properties": {
            "id": "4666226395",
            "osm_type": "node",
            "lat": 47.5235664,
            "lon": 12.4286354,
            "addr:city": "St. Johann in Tirol",
            "addr:country": "AT",
            "addr:housenumber": "3",
            "addr:postcode": "6380",
            "addr:street": "Neubauweg",
            "alt_name": "Sonderpädagogisches Zentrum St. Johann in Tirol",
            "amenity": "school",
            "email": "direktion@spz-stjohann.tsn.at",
            "name": "Sonderschule",
            "operator": "Marktgemeinde St. Johann in Tirol",
            "phone": "+4353526900460",
            "source": "Lokalerhebung 2012-2019",
            "website": "https://kinderplattform.tsn.at/content/sonderp%C3%A4dagogisches-zentrum-st-johann"
          },
          "geometry": {
            "type": "Point",
            "coordinates": [
              12.4286354,
              47.5235664
            ]
          }
        },
        {
          "type": "Feature",
          "properties": {
            "id": "4666226396",
            "osm_type": "node",
            "lat": 47.5237118,
            "lon": 12.4279044,
            "addr:city": "St. Johann in Tirol",
            "addr:country": "AT",
            "addr:housenumber": "5",
            "addr:postcode": "6380",
            "addr:street": "Neubauweg",
            "alt_name": "Volksschule St. Johann",
            "amenity": "school",
            "email": "direktion@vs-stjohann.tsn.at",
            "fax": "+43535269001430",
            "name": "Volksschule",
            "operator": "Marktgemeinde St. Johann in Tirol",
            "phone": "+4353526900430",
            "source": "Lokalerhebung 2012-2019",
            "wheelchair": "yes"
          },
          "geometry": {
            "type": "Point",
            "coordinates": [
              12.4279044,
              47.5237118
            ]
          }
        },
        {
          "type": "Feature",
          "properties": {
            "id": "4777780123",
            "osm_type": "node",
            "lat": 47.4461352,
            "lon": 12.3944233,
            "addr:city": "Kitzbühel",
            "addr:housenumber": "11",
            "addr:postcode": "6370",
            "addr:street": "Traunsteinerweg",
            "amenity": "school",
            "email": "info@hak-kitz.at",
            "fax": "+43 50 9028 24900",
            "name": "HAK / HASCH Kitzbühel",
            "name:de": "HAK / HASCH Kitzbühel",
            "phone": "+43 50 902 824",
            "website": "https://www.hak-kitz.at"
          },
          "geometry": {
            "type": "Point",
            "coordinates": [
              12.3944233,
              47.4461352
            ]
          }
        },
        {
          "type": "Feature",
          "properties": {
            "id": "8880138933",
            "osm_type": "node",
            "lat": 47.5219053,
            "lon": 12.4297806,
            "amenity": "school",
            "name": "Landesmusikschule"
          },
          "geometry": {
            "type": "Point",
            "coordinates": [
              12.4297806,
              47.5219053
            ]
          }
        },
        {
          "type": "Feature",
          "properties": {
            "id": "8880138934",
            "osm_type": "node",
            "lat": 47.5220096,
            "lon": 12.4298317,
            "amenity": "school",
            "name": "Polytechnische Schule",
            "url": "https://www.pts-stjohann.com/"
          },
          "geometry": {
            "type": "Point",
            "coordinates": [
              12.4298317,
              47.5220096
            ]
          }
        },
        {
          "type": "Feature",
          "properties": {
            "id": "8880138938",
            "osm_type": "node",
            "lat": 47.52012,
            "lon": 12.4286376,
            "amenity": "school",
            "name": "Gesundheits & Krankenpflegeschule"
          },
          "geometry": {
            "type": "Point",
            "coordinates": [
              12.4286376,
              47.52012
            ]
          }
        },
        {
          "type": "Feature",
          "properties": {
            "id": "8887532342",
            "osm_type": "node",
            "lat": 47.6713833,
            "lon": 12.4056704,
            "amenity": "school",
            "name": "Polytechnische Schule"
          },
          "geometry": {
            "type": "Point",
            "coordinates": [
              12.4056704,
              47.6713833
            ]
          }
        },
        {
          "type": "Feature",
          "properties": {
            "id": "8887532343",
            "osm_type": "node",
            "lat": 47.6710289,
            "lon": 12.4056756,
            "amenity": "school",
            "name": "Mittelschule"
          },
          "geometry": {
            "type": "Point",
            "coordinates": [
              12.4056756,
              47.6710289
            ]
          }
        },
        {
          "type": "Feature",
          "properties": {
            "id": "8887532345",
            "osm_type": "node",
            "lat": 47.670713,
            "lon": 12.4053659,
            "amenity": "school",
            "name": "Volksschule"
          },
          "geometry": {
            "type": "Point",
            "coordinates": [
              12.4053659,
              47.670713
            ]
          }
        },
        {
          "type": "Feature",
          "properties": {
            "id": "11801637968",
            "osm_type": "node",
            "lat": 47.3802175,
            "lon": 12.4206501,
            "addr:city": "Jochberg",
            "addr:country": "AT",
            "addr:housenumber": "4",
            "addr:postcode": "6373",
            "addr:street": "Schulgasse",
            "amenity": "school",
            "email": "direktion@vs-jochberg.tsn.at",
            "name": "Volksschule Jochberg",
            "phone": "+43 5355 5246",
            "website": "https://www.vs-jochberg.tsn.at"
          },
          "geometry": {
            "type": "Point",
            "coordinates": [
              12.4206501,
              47.3802175
            ]
          }
        },
        {
          "type": "Feature",
          "properties": {
            "id": "478947009",
            "osm_type": "node",
            "lat": 47.4272191,
            "lon": 12.8452277,
            "amenity": "school",
            "name": "Bildungszentrum"
          },
          "geometry": {
            "type": "Point",
            "coordinates": [
              12.8452277,
              47.4272191
            ]
          }
        },
        {
          "type": "Feature",
          "properties": {
            "id": "667409964",
            "osm_type": "node",
            "lat": 47.4261665,
            "lon": 12.8473123,
            "addr:city": "Saalfelden am Steinernen Meer",
            "addr:country": "AT",
            "addr:housenumber": "4",
            "addr:postcode": "5760",
            "addr:street": "Almerstraße",
            "amenity": "school",
            "check_date": "2024-09-13",
            "name": "Mittelschule Saalfelden Stadt",
            "old_name": "Hauptschule Markt",
            "short_name": "MS Saalfelden Stadt",
            "website": "https://www.ms-saalfeldenstadt.salzburg.at/"
          },
          "geometry": {
            "type": "Point",
            "coordinates": [
              12.8473123,
              47.4261665
            ]
          }
        },
        {
          "type": "Feature",
          "properties": {
            "id": "797216987",
            "osm_type": "node",
            "lat": 47.5863767,
            "lon": 12.6966842,
            "amenity": "school",
            "name": "Volksschule Lofer"
          },
          "geometry": {
            "type": "Point",
            "coordinates": [
              12.6966842,
              47.5863767
            ]
          }
        },
        {
          "type": "Feature",
          "properties": {
            "id": "802636694",
            "osm_type": "node",
            "lat": 47.5214394,
            "lon": 12.7542083,
            "amenity": "school",
            "name": "Volksschule Weißbach"
          },
          "geometry": {
            "type": "Point",
            "coordinates": [
              12.7542083,
              47.5214394
            ]
          }
        },
        {
          "type": "Feature",
          "properties": {
            "id": "812019379",
            "osm_type": "node",
            "lat": 47.5657186,
            "lon": 12.7055152,
            "amenity": "school",
            "name": "Volksschule Sankt Martin"
          },
          "geometry": {
            "type": "Point",
            "coordinates": [
              12.7055152,
              47.5657186
            ]
          }
        },
        {
          "type": "Feature",
          "properties": {
            "id": "1436552660",
            "osm_type": "node",
            "lat": 47.4045978,
            "lon": 12.9038759,
            "amenity": "school",
            "name": "Volksschule Maria-Alm",
            "phone": "+43 6584 7773"
          },
          "geometry": {
            "type": "Point",
            "coordinates": [
              12.9038759,
              47.4045978
            ]
          }
        },
        {
          "type": "Feature",
          "properties": {
            "id": "1703060854",
            "osm_type": "node",
            "lat": 47.4207052,
            "lon": 12.8548859,
            "addr:city": "Saalfelden am Steinernen Meer",
            "addr:country": "AT",
            "addr:housename": "HTL Saalfelden",
            "addr:housenumber": "33",
            "addr:postcode": "5760",
            "addr:street": "Almerstraße",
            "amenity": "school",
            "name": "HTL Saalfelden"
          },
          "geometry": {
            "type": "Point",
            "coordinates": [
              12.8548859,
              47.4207052
            ]
          }
        },
        {
          "type": "Feature",
          "properties": {
            "id": "1707056028",
            "osm_type": "node",
            "lat": 47.4478659,
            "lon": 12.8161365,
            "amenity": "school"
          },
          "geometry": {
            "type": "Point",
            "coordinates": [
              12.8161365,
              47.4478659
            ]
          }
        },
        {
          "type": "Feature",
          "properties": {
            "id": "2330470363",
            "osm_type": "node",
            "lat": 47.4807272,
            "lon": 12.5392155,
            "amenity": "school",
            "name": "Mittelschule Fieberbrunn",
            "source": "geoimage.at MaxRes",
            "website": "https://ms-fieberbrunn.tsn.at/"
          },
          "geometry": {
            "type": "Point",
            "coordinates": [
              12.5392155,
              47.4807272
            ]
          }
        },
        {
          "type": "Feature",
          "properties": {
            "id": "3224609396",
            "osm_type": "node",
            "lat": 47.4207281,
            "lon": 12.8542459,
            "addr:city": "Saalfelden am Steinernen Meer",
            "addr:country": "AT",
            "addr:housenumber": "33",
            "addr:postcode": "5760",
            "addr:street": "Almerstraße",
            "amenity": "school",
            "name": "HBLW"
          },
          "geometry": {
            "type": "Point",
            "coordinates": [
              12.8542459,
              47.4207281
            ]
          }
        },
        {
          "type": "Feature",
          "properties": {
            "id": "4217981582",
            "osm_type": "node",
            "lat": 47.4810179,
            "lon": 12.5389203,
            "amenity": "school",
            "name": "Polytechnische Schule Fieberbrunn",
            "website": "https://www.pts-fieberbrunn.tsn.at/"
          },
          "geometry": {
            "type": "Point",
            "coordinates": [
              12.5389203,
              47.4810179
            ]
          }
        },
        {
          "type": "Feature",
          "properties": {
            "id": "8903580821",
            "osm_type": "node",
            "lat": 47.5009355,
            "lon": 12.560591,
            "amenity": "school",
            "name": "Volksschule"
          },
          "geometry": {
            "type": "Point",
            "coordinates": [
              12.560591,
              47.5009355
            ]
          }
        },
        {
          "type": "Feature",
          "properties": {
            "id": "9110154266",
            "osm_type": "node",
            "lat": 47.4698394,
            "lon": 12.6215293,
            "addr:city": "Hochfilzen",
            "addr:country": "AT",
            "addr:housenumber": "2",
            "addr:postcode": "6395",
            "addr:street": "Schulgasse",
            "amenity": "school",
            "name": "Volksschule Hochfilzen"
          },
          "geometry": {
            "type": "Point",
            "coordinates": [
              12.6215293,
              47.4698394
            ]
          }
        },
        {
          "type": "Feature",
          "properties": {
            "id": "11818682858",
            "osm_type": "node",
            "lat": 47.5286426,
            "lon": 12.5746948,
            "addr:city": "Sankt Ulrich am Pillersee",
            "addr:housenumber": "17",
            "addr:postcode": "6393",
            "addr:street": "Dorfstraße",
            "amenity": "school",
            "name": "Volksschule St. Ulrich am Pillersee"
          },
          "geometry": {
            "type": "Point",
            "coordinates": [
              12.5746948,
              47.5286426
            ]
          }
        },
        {
          "type": "Feature",
          "properties": {
            "id": "11818682859",
            "osm_type": "node",
            "lat": 47.5844577,
            "lon": 12.5679758,
            "addr:city": "Waidring",
            "addr:country": "AT",
            "addr:housenumber": "1",
            "addr:postcode": "6384",
            "addr:street": "Vogeltennweg",
            "amenity": "school",
            "name": "Volksschule Waidring"
          },
          "geometry": {
            "type": "Point",
            "coordinates": [
              12.5679758,
              47.5844577
            ]
          }
        },
        {
          "type": "Feature",
          "properties": {
            "id": "12250453563",
            "osm_type": "node",
            "lat": 47.426358,
            "lon": 12.8470275,
            "addr:city": "Saalfelden am Steinernen Meer",
            "addr:country": "AT",
            "addr:housenumber": "4",
            "addr:postcode": "5760",
            "addr:street": "Almerstraße",
            "amenity": "school",
            "check_date": "2024-09-13",
            "name": "Nordische Schimittelschule Saalfelden",
            "short_name": "NMS Saalfelden",
            "website": "https://schimittelschule.at/de/"
          },
          "geometry": {
            "type": "Point",
            "coordinates": [
              12.8470275,
              47.426358
            ]
          }
        },
        {
          "type": "Feature",
          "properties": {
            "id": "13114737662",
            "osm_type": "node",
            "lat": 47.6386536,
            "lon": 13.0089927,
            "addr:city": "Berchtesgaden",
            "addr:country": "DE",
            "addr:housenumber": "15",
            "addr:postcode": "83471",
            "addr:street": "Salzburger Straße",
            "amenity": "school",
            "contact:email": "buero@schuelerforschung.de",
            "contact:instagram": "https://www.instagram.com/sfz_bgl/",
            "contact:phone": "+49 8652 656 12-0",
            "contact:website": "https://www.schuelerforschung.de",
            "name": "Schülerforschungszentrum",
            "official_name": "Schülerforschungszentrum Berchtesgadener Land",
            "opening_hours": "Mo,We,Th 08:00-13:00; Tu 08:00-13:00, 13:30-15:00"
          },
          "geometry": {
            "type": "Point",
            "coordinates": [
              13.0089927,
              47.6386536
            ]
          }
        },
        {
          "type": "Feature",
          "properties": {
            "id": "276852761",
            "osm_type": "node",
            "lat": 47.6783605,
            "lon": 13.1021017,
            "amenity": "school",
            "check_date": "2024-03-16",
            "name": "Volksschule Hallein Burgfried"
          },
          "geometry": {
            "type": "Point",
            "coordinates": [
              13.1021017,
              47.6783605
            ]
          }
        },
        {
          "type": "Feature",
          "properties": {
            "id": "276852762",
            "osm_type": "node",
            "lat": 47.6780567,
            "lon": 13.1012631,
            "amenity": "school",
            "check_date": "2024-05-02",
            "name": "Musikmittelschule Hallein Burgfried",
            "short_name": "MMS Hallein Burgfried",
            "website": "https://www.ms-hallein-burgfried.salzburg.at/"
          },
          "geometry": {
            "type": "Point",
            "coordinates": [
              13.1012631,
              47.6780567
            ]
          }
        },
        {
          "type": "Feature",
          "properties": {
            "id": "655122679",
            "osm_type": "node",
            "lat": 47.5666102,
            "lon": 13.3424491,
            "amenity": "school",
            "name": "Volksschule"
          },
          "geometry": {
            "type": "Point",
            "coordinates": [
              13.3424491,
              47.5666102
            ]
          }
        },
        {
          "type": "Feature",
          "properties": {
            "id": "655122680",
            "osm_type": "node",
            "lat": 47.5666682,
            "lon": 13.3422774,
            "amenity": "school",
            "name": "Polytechnischer Lehrgang"
          },
          "geometry": {
            "type": "Point",
            "coordinates": [
              13.3422774,
              47.5666682
            ]
          }
        },
        {
          "type": "Feature",
          "properties": {
            "id": "2358598311",
            "osm_type": "node",
            "lat": 47.477215,
            "lon": 13.1884601,
            "amenity": "school",
            "name": "Volksschule"
          },
          "geometry": {
            "type": "Point",
            "coordinates": [
              13.1884601,
              47.477215
            ]
          }
        },
        {
          "type": "Feature",
          "properties": {
            "id": "4805792618",
            "osm_type": "node",
            "lat": 47.6840234,
            "lon": 13.0913768,
            "amenity": "school",
            "check_date": "2024-04-19",
            "name": "Neue Mittelschule Stadt Hallein"
          },
          "geometry": {
            "type": "Point",
            "coordinates": [
              13.0913768,
              47.6840234
            ]
          }
        },
        {
          "type": "Feature",
          "properties": {
            "id": "5745981525",
            "osm_type": "node",
            "lat": 47.4773022,
            "lon": 13.1881669,
            "addr:city": "Werfen",
            "addr:housenumber": "22",
            "addr:postcode": "5450",
            "addr:street": "Markt",
            "amenity": "school",
            "check_date": "2024-09-07",
            "name": "Sport-Mittelschule"
          },
          "geometry": {
            "type": "Point",
            "coordinates": [
              13.1881669,
              47.4773022
            ]
          }
        },
        {
          "type": "Feature",
          "properties": {
            "id": "6106470890",
            "osm_type": "node",
            "lat": 47.6316442,
            "lon": 13.1494681,
            "amenity": "school",
            "name": "Schule für Einrichtungsberater"
          },
          "geometry": {
            "type": "Point",
            "coordinates": [
              13.1494681,
              47.6316442
            ]
          }
        },
        {
          "type": "Feature",
          "properties": {
            "id": "6346730004",
            "osm_type": "node",
            "lat": 47.6433073,
            "lon": 13.2023977,
            "addr:city": "St. Koloman",
            "addr:housenumber": "191",
            "addr:postcode": "5423",
            "addr:street": "Berneggweg",
            "amenity": "school",
            "name": "Volksschule St. Koloman",
            "website": "https://www.vs-st-koloman.salzburg.at/"
          },
          "geometry": {
            "type": "Point",
            "coordinates": [
              13.2023977,
              47.6433073
            ]
          }
        },
        {
          "type": "Feature",
          "properties": {
            "id": "6979562696",
            "osm_type": "node",
            "lat": 47.4138343,
            "lon": 13.217148,
            "addr:housenumber": "11",
            "addr:street": "Gasteiner Straße",
            "amenity": "school"
          },
          "geometry": {
            "type": "Point",
            "coordinates": [
              13.217148,
              47.4138343
            ]
          }
        },
        {
          "type": "Feature",
          "properties": {
            "id": "6979562697",
            "osm_type": "node",
            "lat": 47.4136637,
            "lon": 13.2170782,
            "addr:housenumber": "13",
            "addr:street": "Gasteiner Straße",
            "amenity": "school"
          },
          "geometry": {
            "type": "Point",
            "coordinates": [
              13.2170782,
              47.4136637
            ]
          }
        },
        {
          "type": "Feature",
          "properties": {
            "id": "10873214190",
            "osm_type": "node",
            "lat": 47.4342598,
            "lon": 13.2221563,
            "addr:city": "Bischofshofen",
            "addr:housenumber": "1",
            "addr:postcode": "5500",
            "addr:street": "St. Rupert",
            "amenity": "school",
            "denomination": "roman_catholic",
            "name": "Missionsprivatgymnasium St.Rupert",
            "operator": "Vereinigung von Ordensschulen Österreichs",
            "operator:type": "religious",
            "religion": "christian",
            "website": "https://www.gym-st-rupert.at/"
          },
          "geometry": {
            "type": "Point",
            "coordinates": [
              13.2221563,
              47.4342598
            ]
          }
        }
      ],
      "children": []
    }
  ]
}