{
  "bbox": {
    "south": 46.372652,
    "west": 9.530952,
    "north": 47.033758500000005,
    "east": 11.438358999999998
  },
  "poiCount": 124,
  "leafCount": 0,
  "averagePosition": [
    10.791600499193546,
    46.67456200725807
  ],
  "data": [],
  "children": [
    {
      "bbox": {
        "south": 46.372652,
        "west": 9.530952,
        "north": 46.70320525,
        "east": 10.484655499999999
      },
      "poiCount": 7,
      "leafCount": 7,
      "averagePosition": [
        9.909562014285713,
        46.55299158571428
      ],
      "data": [
        {
          "type": "Feature",
          "properties": {
            "id": "849765707",
            "osm_type": "node",
            "lat": 46.608792,
            "lon": 9.5904523,
            "amenity": "school",
            "name": "Tgesa Communala",
            "note": "Wirklich Schule und Gemeindehaus zusammen!?"
          },
          "geometry": {
            "type": "Point",
            "coordinates": [
              9.5904523,
              46.608792
            ]
          }
        },
        {
          "type": "Feature",
          "properties": {
            "id": "903915913",
            "osm_type": "node",
            "lat": 46.6504759,
            "lon": 9.5633485,
            "amenity": "school",
            "name": "Jgesa communala"
          },
          "geometry": {
            "type": "Point",
            "coordinates": [
              9.5633485,
              46.6504759
            ]
          }
        },
        {
          "type": "Feature",
          "properties": {
            "id": "6396471985",
            "osm_type": "node",
            "lat": 46.6027064,
            "lon": 9.9599572,
            "amenity": "school",
            "email": "info@truevalues.ch",
            "name": "True Values Snowboardschule",
            "name:de": "True Values Snowboardschule",
            "name:en": "True Values Snowboardschool",
            "name:fr": "True Values École de Snowboard",
            "name:it": "True Values Scuola di Snowboard",
            "opening_hours": "Mo-Su 08:00-19:00",
            "phone": "+41 81 854 00 09",
            "website": "https://www.truevalues.ch/"
          },
          "geometry": {
            "type": "Point",
            "coordinates": [
              9.9599572,
              46.6027064
            ]
          }
        },
        {
          "type": "Feature",
          "properties": {
            "id": "9949145719",
            "osm_type": "node",
            "lat": 46.4680399,
            "lon": 9.6515781,
            "addr:city": "Bivio",
            "addr:housenumber": "229",
            "addr:postcode": "7457",
            "addr:street": "Vea Jerts",
            "amenity": "school",
            "name": "Sala Polivalente",
            "phone": "+41816841200"
          },
          "geometry": {
            "type": "Point",
            "coordinates": [
              9.6515781,
              46.4680399
            ]
          }
        },
        {
          "type": "Feature",
          "properties": {
            "id": "8739339648",
            "osm_type": "node",
            "lat": 46.4892448,
            "lon": 10.2990325,
            "amenity": "school"
          },
          "geometry": {
            "type": "Point",
            "coordinates": [
              10.2990325,
              46.4892448
            ]
          }
        },
        {
          "type": "Feature",
          "properties": {
            "id": "12630498397",
            "osm_type": "node",
            "lat": 46.5241822,
            "lon": 10.127204,
            "addr:housenumber": "869",
            "addr:street": "Via Saroch",
            "amenity": "school",
            "contact:email": "SOIC80300T@istruzione.it",
            "contact:phone": "+39 0342 991400",
            "contact:website": "https://www.comprensivolivigno.edu.it/pagine/scuola-primaria-san-rocco-1",
            "isced:level": "1",
            "name": "Scuola elementare San Rocco",
            "operator": "Istituto comprensivo Luigi Credaro",
            "operator:type": "public",
            "ref": "SOEE80301X",
            "school:IT": "elementare"
          },
          "geometry": {
            "type": "Point",
            "coordinates": [
              10.127204,
              46.5241822
            ]
          }
        },
        {
          "type": "Feature",
          "properties": {
            "id": "13043577627",
            "osm_type": "node",
            "lat": 46.5274999,
            "lon": 10.1753615,
            "alt_name": "Scuola Primaria Plesso Trepalle",
            "amenity": "school",
            "contact:email": "soic80300t@istruzione.it",
            "contact:pec": "soic80300t@pec.istruzione.it",
            "contact:phone": "+39 0342 991400",
            "contact:website": "https://www.comprensivolivigno.edu.it/pagine/scuola-primaria-trepalle-1",
            "grades": "1-5",
            "isced:level": "1",
            "name": "Scuola Primaria di Trepalle",
            "operator": "Istituto Comprensivo Luigi Credaro Livigno",
            "operator:type": "public",
            "ref": "SOEE803021",
            "school:gender": "mixed",
            "school:language": "it"
          },
          "geometry": {
            "type": "Point",
            "coordinates": [
              10.1753615,
              46.5274999
            ]
          }
        }
      ],
      "children": []
    },
    {
      "bbox": {
        "south": 46.372652,
        "west": 10.484655499999999,
        "north": 46.70320525,
        "east": 11.438358999999998
      },
      "poiCount": 68,
      "leafCount": 0,
      "averagePosition": [
        11.200096677941175,
        46.552046770588234
      ],
      "data": [],
      "children": [
        {
          "bbox": {
            "south": 46.372652,
            "west": 10.484655499999999,
            "north": 46.537928625000006,
            "east": 10.961507249999999
          },
          "poiCount": 1,
          "leafCount": 1,
          "averagePosition": [
            10.8701247,
            46.4890842
          ],
          "data": [
            {
              "type": "Feature",
              "properties": {
                "id": "691990570",
                "osm_type": "node",
                "lat": 46.4890842,
                "lon": 10.8701247,
                "amenity": "school",
                "name": "Deutsche Grundschule Sankt Gertraud",
                "website": "https://www.ssp-ulten.it/"
              },
              "geometry": {
                "type": "Point",
                "coordinates": [
                  10.8701247,
                  46.4890842
                ]
              }
            }
          ],
          "children": []
        },
        {
          "bbox": {
            "south": 46.372652,
            "west": 10.961507249999999,
            "north": 46.537928625000006,
            "east": 11.438358999999998
          },
          "poiCount": 34,
          "leafCount": 34,
          "averagePosition": [
            11.329992894117646,
            46.472860370588236
          ],
          "data": [
            {
              "type": "Feature",
              "properties": {
                "id": "556669311",
                "osm_type": "node",
                "lat": 46.5039731,
                "lon": 11.3455818,
                "amenity": "school",
                "name": "Istituto Tecnico Economico \"Cesare Battisti\" - Fachoberschule für Wirtschaft \"Cesare Battisti\"",
                "name:de": "Fachoberschule für Wirtschaft \"Cesare Battisti\"",
                "name:it": "Istituto Tecnico Economico \"Cesare Battisti\"",
                "old_name": "Istituto Tecnico Commerciale",
                "short_name": "ITE Battisti",
                "website": "https://www.itebz.it/",
                "wikidata": "Q29838860"
              },
              "geometry": {
                "type": "Point",
                "coordinates": [
                  11.3455818,
                  46.5039731
                ]
              }
            },
            {
              "type": "Feature",
              "properties": {
                "id": "556671805",
                "osm_type": "node",
                "lat": 46.5044352,
                "lon": 11.3457921,
                "amenity": "school",
                "name": "Wirtschaftsfachoberschule Heinrich Kunter",
                "old_name": "Handelsoberschule \"Heinrich Kunter\"",
                "operator": "Land Südtirol",
                "short_name": "WFO Kunter",
                "website": "https://wfo.bz.it/",
                "wikidata": "Q1416846",
                "wikipedia": "de:Wirtschaftsfachoberschule „Heinrich Kunter“"
              },
              "geometry": {
                "type": "Point",
                "coordinates": [
                  11.3457921,
                  46.5044352
                ]
              }
            },
            {
              "type": "Feature",
              "properties": {
                "id": "582639217",
                "osm_type": "node",
                "lat": 46.5291109,
                "lon": 11.2495471,
                "amenity": "school",
                "check_date": "2024-08-22",
                "isced:level": "2",
                "name": "Mittelschule Terlan"
              },
              "geometry": {
                "type": "Point",
                "coordinates": [
                  11.2495471,
                  46.5291109
                ]
              }
            },
            {
              "type": "Feature",
              "properties": {
                "id": "582639278",
                "osm_type": "node",
                "lat": 46.5289176,
                "lon": 11.2505669,
                "amenity": "school",
                "check_date": "2024-08-26",
                "isced:level": "1",
                "name": "Grundschule Terlan - Scuola elementare di Lingua tedesca di Terlano",
                "name:de": "Grundschule Terlan",
                "name:it": "Scuola elementare di Lingua tedesca di Terlano",
                "school:language": "de"
              },
              "geometry": {
                "type": "Point",
                "coordinates": [
                  11.2505669,
                  46.5289176
                ]
              }
            },
            {
              "type": "Feature",
              "properties": {
                "id": "664037126",
                "osm_type": "node",
                "lat": 46.5037397,
                "lon": 11.3452381,
                "amenity": "school",
                "name": "Istituto Tecnico per le Costruzioni, l’Ambiente e il Territorio “Andrea e Pietro Delai”",
                "old_name": "Istituto Tecnico per Geometri Pietro e Andrea Delai",
                "short_name": "ITCAT Delai",
                "website": "http://www.itgdelai.it/"
              },
              "geometry": {
                "type": "Point",
                "coordinates": [
                  11.3452381,
                  46.5037397
                ]
              }
            },
            {
              "type": "Feature",
              "properties": {
                "id": "664039147",
                "osm_type": "node",
                "lat": 46.4985262,
                "lon": 11.3364384,
                "amenity": "school",
                "name": "Grundschule - Scuola Elementare Manlio Longon",
                "name:de": "Grundschule Manlio Longon",
                "name:it": "Scuola Elementare Manlio Longon"
              },
              "geometry": {
                "type": "Point",
                "coordinates": [
                  11.3364384,
                  46.4985262
                ]
              }
            },
            {
              "type": "Feature",
              "properties": {
                "id": "664039461",
                "osm_type": "node",
                "lat": 46.4988354,
                "lon": 11.3370866,
                "amenity": "school",
                "name": "Mittelschule - Scuola Media Archimede",
                "name:de": "Mittelschule",
                "name:it": "Scuola Media Archimede"
              },
              "geometry": {
                "type": "Point",
                "coordinates": [
                  11.3370866,
                  46.4988354
                ]
              }
            },
            {
              "type": "Feature",
              "properties": {
                "id": "1337549629",
                "osm_type": "node",
                "lat": 46.4968865,
                "lon": 11.351308,
                "addr:housename": "Istituto Rainerum",
                "addr:housenumber": "15",
                "addr:postcode": "39100",
                "addr:street": "Piazza Domenicani - Dominikanerplatz",
                "amenity": "school",
                "denomination": "catholic",
                "grades": "6-12",
                "name": "Istituto Rainerum - Salesiani Don Bosco",
                "name:de": "Rainerum Institut - Salesianer Don Bosco",
                "name:it": "Istituto Rainerum - Salesiani Don Bosco",
                "operator": "Istituto Maria Ausiliatrice - Salesiani Don Bosco",
                "operator:type": "private",
                "religion": "christian",
                "website": "https://rainerum.it/",
                "wikidata": "Q3803663",
                "wikipedia": "it:Istituto Rainerum"
              },
              "geometry": {
                "type": "Point",
                "coordinates": [
                  11.351308,
                  46.4968865
                ]
              }
            },
            {
              "type": "Feature",
              "properties": {
                "id": "1912321929",
                "osm_type": "node",
                "lat": 46.4924825,
                "lon": 11.3443638,
                "amenity": "school",
                "name": "Scuola media Leonardo da Vinci",
                "name:de": "Mittelschule „Leonardo da Vinci“"
              },
              "geometry": {
                "type": "Point",
                "coordinates": [
                  11.3443638,
                  46.4924825
                ]
              }
            },
            {
              "type": "Feature",
              "properties": {
                "id": "2023785060",
                "osm_type": "node",
                "lat": 46.5291005,
                "lon": 11.2504178,
                "amenity": "school",
                "check_date": "2024-08-22",
                "name": "Musikschule Terlan - Scuola di musica Terlano",
                "name:de": "Musikschule Terlan",
                "name:it": "Scuola di musica Terlano"
              },
              "geometry": {
                "type": "Point",
                "coordinates": [
                  11.2504178,
                  46.5291005
                ]
              }
            },
            {
              "type": "Feature",
              "properties": {
                "id": "2242649004",
                "osm_type": "node",
                "lat": 46.4136845,
                "lon": 11.3053037,
                "amenity": "school",
                "name": "Scuola elementare in lingua tedesca - Deutchsprachige Grundschule",
                "name:de": "Deutchsprachige Grundschule",
                "name:it": "Scuola elementare in lingua tedesca",
                "ref": "TBEE83704V"
              },
              "geometry": {
                "type": "Point",
                "coordinates": [
                  11.3053037,
                  46.4136845
                ]
              }
            },
            {
              "type": "Feature",
              "properties": {
                "id": "2749578952",
                "osm_type": "node",
                "lat": 46.503971,
                "lon": 11.3404961,
                "addr:city": "Bolzano - Bozen",
                "addr:city:de": "Bozen",
                "addr:city:it": "Bolzano",
                "addr:housenumber": "24",
                "addr:postcode": "39100",
                "addr:street": "Via Armando Diaz - Armando-Diaz-Straße",
                "addr:street:de": "Armando-Diaz-Straße",
                "addr:street:it": "Via Armando Diaz",
                "amenity": "school",
                "name": "Gamper-Heim",
                "opening_hours": "Mo-Fr"
              },
              "geometry": {
                "type": "Point",
                "coordinates": [
                  11.3404961,
                  46.503971
                ]
              }
            },
            {
              "type": "Feature",
              "properties": {
                "id": "2749603933",
                "osm_type": "node",
                "lat": 46.4943613,
                "lon": 11.3406557,
                "addr:city": "Bolzano - Bozen",
                "addr:city:de": "Bozen",
                "addr:city:it": "Bolzano",
                "addr:housenumber": "9",
                "addr:postcode": "39100",
                "addr:street": "Via Roma - Romstraße",
                "addr:street:de": "Romstraße",
                "addr:street:it": "Via Roma",
                "amenity": "school",
                "email": "cls@cls-bz.it",
                "fax": "+39 0471 1660186",
                "mobile": "+39 349 3400426",
                "name": "Consorzio Lavoratori Studenti",
                "name:de": "Konsortium der Studentenarbeiter",
                "name:en": "Student Workers Consortium",
                "opening_hours": "Mo-Th 09:00-19:00; Fr 09:00-13:00",
                "phone": "+39 0471 288003",
                "website": "https://www.cls-bz.it/"
              },
              "geometry": {
                "type": "Point",
                "coordinates": [
                  11.3406557,
                  46.4943613
                ]
              }
            },
            {
              "type": "Feature",
              "properties": {
                "id": "2749685129",
                "osm_type": "node",
                "lat": 46.4143991,
                "lon": 11.4269914,
                "addr:city": "Deutschnofen - Nova Ponente",
                "addr:city:de": "Deutschnofen",
                "addr:city:it": "Nova Ponente",
                "addr:hamlet": "Deutschnofen - Nova Ponente",
                "addr:hamlet:de": "Deutschnofen",
                "addr:hamlet:it": "Nova Ponente",
                "addr:housenumber": "4",
                "addr:postcode": "39050",
                "addr:street": "Schloss-Thurn-Straße - Via Castello Thurn",
                "addr:street:de": "Schloss-Thurn-Straße",
                "addr:street:it": "Via Castello Thurn",
                "amenity": "school",
                "name": "Grundschule"
              },
              "geometry": {
                "type": "Point",
                "coordinates": [
                  11.4269914,
                  46.4143991
                ]
              }
            },
            {
              "type": "Feature",
              "properties": {
                "id": "2749685862",
                "osm_type": "node",
                "lat": 46.4144494,
                "lon": 11.4275923,
                "addr:city": "Deutschnofen - Nova Ponente",
                "addr:city:de": "Deutschnofen",
                "addr:city:it": "Nova Ponente",
                "addr:hamlet": "Deutschnofen - Nova Ponente",
                "addr:hamlet:de": "Deutschnofen",
                "addr:hamlet:it": "Nova Ponente",
                "addr:housenumber": "6",
                "addr:postcode": "39050",
                "addr:street": "Schloss-Thurn-Straße - Via Castello Thurn",
                "addr:street:de": "Schloss-Thurn-Straße",
                "addr:street:it": "Via Castello Thurn",
                "amenity": "school",
                "check_date": "2024-06-25",
                "name": "Mittelschule"
              },
              "geometry": {
                "type": "Point",
                "coordinates": [
                  11.4275923,
                  46.4144494
                ]
              }
            },
            {
              "type": "Feature",
              "properties": {
                "id": "2749772686",
                "osm_type": "node",
                "lat": 46.4145209,
                "lon": 11.2421621,
                "addr:city": "Kaltern an der Weinstraße - Caldaro sulla Strada del Vino",
                "addr:city:de": "Kaltern an der Weinstraße",
                "addr:city:it": "Caldaro sulla Strada del Vino",
                "addr:housenumber": "1",
                "addr:postcode": "39052",
                "addr:street": "Mühlenweg - Via dei Molini",
                "addr:street:de": "Mühlenweg",
                "addr:street:it": "Via dei Molini",
                "amenity": "school",
                "name": "Kindergarten Mitterdorf"
              },
              "geometry": {
                "type": "Point",
                "coordinates": [
                  11.2421621,
                  46.4145209
                ]
              }
            },
            {
              "type": "Feature",
              "properties": {
                "id": "2749774708",
                "osm_type": "node",
                "lat": 46.4378417,
                "lon": 11.2493526,
                "addr:city": "Kaltern an der Weinstraße - Caldaro sulla Strada del Vino",
                "addr:city:de": "Kaltern an der Weinstraße",
                "addr:city:it": "Caldaro sulla Strada del Vino",
                "addr:housenumber": "32",
                "addr:place": "Oberplanitzing - Pianizza di Sopra",
                "addr:place:de": "Oberplanitzing",
                "addr:place:it": "Pianizza di Sopra",
                "addr:postcode": "39052",
                "amenity": "school"
              },
              "geometry": {
                "type": "Point",
                "coordinates": [
                  11.2493526,
                  46.4378417
                ]
              }
            },
            {
              "type": "Feature",
              "properties": {
                "id": "4772529908",
                "osm_type": "node",
                "lat": 46.4899561,
                "lon": 11.4077074,
                "addr:city": "Karneid - Cornedo all'Isarco",
                "addr:housenumber": "4",
                "addr:postcode": "39053",
                "addr:street": "Karneid Dorf",
                "amenity": "school",
                "name": "Grundschule \"Martin Wenter\" Karneid"
              },
              "geometry": {
                "type": "Point",
                "coordinates": [
                  11.4077074,
                  46.4899561
                ]
              }
            },
            {
              "type": "Feature",
              "properties": {
                "id": "4874848467",
                "osm_type": "node",
                "lat": 46.4958174,
                "lon": 11.3712882,
                "addr:city": "Bolzano - Bozen",
                "addr:housenumber": "31",
                "addr:postcode": "39100",
                "addr:street": "Via degli Artigiani - Handwerkerstraße",
                "amenity": "school",
                "email": "info@istitutowalther.it",
                "fax": "+39 0471 282203",
                "name": "Istituto \"Walther\"",
                "operator": "Istituto Walther",
                "phone": "+39 0471 264145",
                "ref:vatin": "IT01195320211"
              },
              "geometry": {
                "type": "Point",
                "coordinates": [
                  11.3712882,
                  46.4958174
                ]
              }
            },
            {
              "type": "Feature",
              "properties": {
                "id": "5102642639",
                "osm_type": "node",
                "lat": 46.474197,
                "lon": 11.3368599,
                "addr:city": "Bolzano - Bozen",
                "addr:housenumber": "4f",
                "addr:postcode": "39100",
                "addr:street": "Via Maso della Pieve - Pfarrhofstraße",
                "amenity": "school",
                "email": "info@itasbz.it",
                "fax": "+39 0471 051721",
                "name": "Liceo economico sociale \"Sandro Pertini\"",
                "operator": "Contempora Società Cooperativa Sociale",
                "phone": "+39 0471 051720",
                "ref:vatin": "IT02526520214",
                "website": "http://www.itasbz.it/"
              },
              "geometry": {
                "type": "Point",
                "coordinates": [
                  11.3368599,
                  46.474197
                ]
              }
            },
            {
              "type": "Feature",
              "properties": {
                "id": "5422943783",
                "osm_type": "node",
                "lat": 46.4163241,
                "lon": 11.3323197,
                "amenity": "school",
                "name": "Scuola professionale provinciale per la frutti-viticoltura e il giardinaggio - Landesberufsschule für Wein, Obst und Gartenbau",
                "name:de": "Landesberufsschule für Wein, Obst und Gartenbau",
                "name:it": "Scuola professionale provinciale per la frutti-viticoltura e il giardinaggio",
                "operator": "Provincia Autonoma di Bolzano - Autonome Provinz Bozen"
              },
              "geometry": {
                "type": "Point",
                "coordinates": [
                  11.3323197,
                  46.4163241
                ]
              }
            },
            {
              "type": "Feature",
              "properties": {
                "id": "6027956751",
                "osm_type": "node",
                "lat": 46.4137015,
                "lon": 11.3051811,
                "amenity": "school",
                "name": "Scuola elementare in lingua italiana - Italienischsprachige Grundschule",
                "name:de": "Italienischsprachige Grundschule",
                "name:it": "Scuola elementare in lingua italiana",
                "ref": "IBEE81903L"
              },
              "geometry": {
                "type": "Point",
                "coordinates": [
                  11.3051811,
                  46.4137015
                ]
              }
            },
            {
              "type": "Feature",
              "properties": {
                "id": "6165484120",
                "osm_type": "node",
                "lat": 46.4051413,
                "lon": 11.3211767,
                "amenity": "school",
                "isced:level": "1",
                "name": "Scuola elemenare in lingua italiana \"Giovanni Segantini\"",
                "name:de": "Italienische Grundschule „Giovanni Segantini“",
                "name:etymology:wikidata": "Q379300"
              },
              "geometry": {
                "type": "Point",
                "coordinates": [
                  11.3211767,
                  46.4051413
                ]
              }
            },
            {
              "type": "Feature",
              "properties": {
                "id": "6165484121",
                "osm_type": "node",
                "lat": 46.4048837,
                "lon": 11.3213824,
                "amenity": "school",
                "isced:level": "1",
                "name": "Grundschule Branzoll",
                "name:de": "Grundschule Branzoll"
              },
              "geometry": {
                "type": "Point",
                "coordinates": [
                  11.3213824,
                  46.4048837
                ]
              }
            },
            {
              "type": "Feature",
              "properties": {
                "id": "6176643613",
                "osm_type": "node",
                "lat": 46.4585617,
                "lon": 11.3326415,
                "amenity": "school",
                "check_date": "2025-07-29",
                "name": "Scuola primaria in lingua italiana"
              },
              "geometry": {
                "type": "Point",
                "coordinates": [
                  11.3326415,
                  46.4585617
                ]
              }
            },
            {
              "type": "Feature",
              "properties": {
                "id": "6176643623",
                "osm_type": "node",
                "lat": 46.458644,
                "lon": 11.3326509,
                "addr:city": "Laives - Leifers",
                "addr:housenumber": "3",
                "addr:postcode": "39055",
                "addr:street": "Via Maso Hilber - Hilberhofstraße",
                "amenity": "school",
                "check_date": "2025-07-29",
                "name": "Scuola elementare in lingua tedesca San Giacomo - Deutsche Grundschule St. Jakob",
                "name:de": "Deutsche Grundschule St. Jakob",
                "name:it": "Scuola elementare in lingua tedesca San Giacomo"
              },
              "geometry": {
                "type": "Point",
                "coordinates": [
                  11.3326509,
                  46.458644
                ]
              }
            },
            {
              "type": "Feature",
              "properties": {
                "id": "6439268839",
                "osm_type": "node",
                "lat": 46.4252515,
                "lon": 11.3402094,
                "amenity": "school",
                "name": "Scuola di musica in lingua tedesca - Deutschsprachige Musikschule",
                "name:de": "Deutschsprachige Musikschule",
                "name:it": "Scuola di musica in lingua tedesca"
              },
              "geometry": {
                "type": "Point",
                "coordinates": [
                  11.3402094,
                  46.4252515
                ]
              }
            },
            {
              "type": "Feature",
              "properties": {
                "id": "7107600814",
                "osm_type": "node",
                "lat": 46.4854652,
                "lon": 11.3457026,
                "amenity": "school",
                "email": "fs.haslach-ne-ti@schule.suedtirol.it",
                "name": "Scuola professionale per l'economia domestica e agroalimentare Aslago - Fachschule für Hauswirtschaft und Ernährung Haslach",
                "name:de": "Fachschule für Hauswirtschaft und Ernährung Haslach",
                "name:it": "Scuola professionale per l'economia domestica e agroalimentare Aslago",
                "operator": "Provincia Autonoma di Bolzano - Autonome Provinz Bozen",
                "phone": "+39 0471 440990",
                "website": "https://www.fachschule-haslach.it/"
              },
              "geometry": {
                "type": "Point",
                "coordinates": [
                  11.3457026,
                  46.4854652
                ]
              }
            },
            {
              "type": "Feature",
              "properties": {
                "id": "7166067840",
                "osm_type": "node",
                "lat": 46.4993885,
                "lon": 11.3458256,
                "amenity": "school",
                "name": "Grundschule St. Quirein"
              },
              "geometry": {
                "type": "Point",
                "coordinates": [
                  11.3458256,
                  46.4993885
                ]
              }
            },
            {
              "type": "Feature",
              "properties": {
                "id": "10749991506",
                "osm_type": "node",
                "lat": 46.3818791,
                "lon": 11.2878615,
                "amenity": "school",
                "name:de": "Fachschule Laimburg"
              },
              "geometry": {
                "type": "Point",
                "coordinates": [
                  11.2878615,
                  46.3818791
                ]
              }
            },
            {
              "type": "Feature",
              "properties": {
                "id": "12325558392",
                "osm_type": "node",
                "lat": 46.535772,
                "lon": 11.3317265,
                "amenity": "school",
                "isced:level": "2",
                "name:de": "Mittelschule",
                "school:language": "de"
              },
              "geometry": {
                "type": "Point",
                "coordinates": [
                  11.3317265,
                  46.535772
                ]
              }
            },
            {
              "type": "Feature",
              "properties": {
                "id": "12325558393",
                "osm_type": "node",
                "lat": 46.5358779,
                "lon": 11.3319803,
                "amenity": "school",
                "isced:level": "1",
                "name:de": "Grundschule",
                "school:language": "de"
              },
              "geometry": {
                "type": "Point",
                "coordinates": [
                  11.3319803,
                  46.5358779
                ]
              }
            },
            {
              "type": "Feature",
              "properties": {
                "id": "12996290135",
                "osm_type": "node",
                "lat": 46.5084908,
                "lon": 11.342695,
                "amenity": "school",
                "contact:city": "Bolzano - Bozen",
                "contact:city:de": "Bozen",
                "contact:city:it": "Bolzano",
                "contact:email": "os-rg-tfo-bau.bozen@schule.suedtirol.it",
                "contact:fax": "+39 0471 282511",
                "contact:housenumber": "10",
                "contact:pec": "rg.bozen@pec.prov.bz.it",
                "contact:phone": "+39 0471 288407",
                "contact:postcode": "39100",
                "contact:street": "Via Fago - Fagenstraße",
                "contact:street:de": "Fagenstraße",
                "contact:street:it": "Via Fago",
                "contact:website": "https://www.campusfagen.com/",
                "grades": "9-13",
                "isced:level": "3",
                "name": "Liceo scientifico Bolzano - Realgymnasium Bozen",
                "name:de": "Realgymnasium Bozen",
                "name:it": "Liceo scientifico Bolzano",
                "operator:ref": "TBIS01200D",
                "ref": "TBPS01201X",
                "ref:tax_id": "80013850211",
                "school:gender": "mixed",
                "school:language": "de"
              },
              "geometry": {
                "type": "Point",
                "coordinates": [
                  11.342695,
                  46.5084908
                ]
              }
            },
            {
              "type": "Feature",
              "properties": {
                "id": "12996290136",
                "osm_type": "node",
                "lat": 46.5086653,
                "lon": 11.3436552,
                "amenity": "school",
                "contact:city": "Bolzano - Bozen",
                "contact:city:de": "Bozen",
                "contact:city:it": "Bolzano",
                "contact:email": "os-rg-tfo-bau.bozen@schule.suedtirol.it",
                "contact:housenumber": "10",
                "contact:pec": "rg.bozen@pec.prov.bz.it",
                "contact:phone": "+39 0471 287406",
                "contact:postcode": "39100",
                "contact:street": "Via Fago - Fagenstraße",
                "contact:street:de": "Fagenstraße",
                "contact:street:it": "Via Fago",
                "contact:website": "https://www.campusfagen.com/",
                "grades": "9-13",
                "isced:level": "3",
                "name": "Istituto Tecnico per le Costruzioni Peter Anich - Fachoberschule für Bauwesen Peter Anich",
                "name:de": "Fachoberschule für Bauwesen Peter Anich",
                "name:it": "Istituto Tecnico per le Costruzioni Peter Anich",
                "operator:ref": "TBIS01200D",
                "ref": "TBTL012016",
                "ref:tax_id": "80013850211",
                "school:gender": "mixed",
                "school:language": "de"
              },
              "geometry": {
                "type": "Point",
                "coordinates": [
                  11.3436552,
                  46.5086653
                ]
              }
            }
          ],
          "children": []
        },
        {
          "bbox": {
            "south": 46.537928625000006,
            "west": 10.484655499999999,
            "north": 46.70320525,
            "east": 10.961507249999999
          },
          "poiCount": 8,
          "leafCount": 8,
          "averagePosition": [
            10.684089775,
            46.6510781875
          ],
          "data": [
            {
              "type": "Feature",
              "properties": {
                "id": "4888534494",
                "osm_type": "node",
                "lat": 46.6917884,
                "lon": 10.5239643,
                "addr:city": "Mals - Malles Venosta",
                "addr:postcode": "39024",
                "addr:street": "Schleis",
                "amenity": "school",
                "email": "gs.schleis@schule.suedtirol.it",
                "name": "Grundschule Schleis",
                "operator": "Schulsprengel Mals",
                "phone": "+39 0473 830661"
              },
              "geometry": {
                "type": "Point",
                "coordinates": [
                  10.5239643,
                  46.6917884
                ]
              }
            },
            {
              "type": "Feature",
              "properties": {
                "id": "3003020081",
                "osm_type": "node",
                "lat": 46.6190164,
                "lon": 10.8252333,
                "amenity": "school",
                "name": "VinschgauBIKE Schule",
                "phone": "+39 333 2354986",
                "school": "bicycle",
                "website": "https://vinschgaubike.com/"
              },
              "geometry": {
                "type": "Point",
                "coordinates": [
                  10.8252333,
                  46.6190164
                ]
              }
            },
            {
              "type": "Feature",
              "properties": {
                "id": "4635824489",
                "osm_type": "node",
                "lat": 46.6317036,
                "lon": 10.6511022,
                "amenity": "school",
                "name": "Grundschule - Scuola Elementare",
                "name:de": "Grundschule",
                "name:it": "Scuola Elementare"
              },
              "geometry": {
                "type": "Point",
                "coordinates": [
                  10.6511022,
                  46.6317036
                ]
              }
            },
            {
              "type": "Feature",
              "properties": {
                "id": "4862200907",
                "osm_type": "node",
                "lat": 46.6305874,
                "lon": 10.7601121,
                "addr:city": "Kortsch",
                "addr:housenumber": "14a",
                "addr:postcode": "39028",
                "addr:street": "Alte Landstraße - Strada Vecchia",
                "amenity": "school",
                "name": "Grundschule Kortsch",
                "operator": "Schulsprengel Schlanders",
                "phone": "+39 0473 620325"
              },
              "geometry": {
                "type": "Point",
                "coordinates": [
                  10.7601121,
                  46.6305874
                ]
              }
            },
            {
              "type": "Feature",
              "properties": {
                "id": "4865089365",
                "osm_type": "node",
                "lat": 46.6947374,
                "lon": 10.6175628,
                "addr:housenumber": "150",
                "addr:place": "Matsch - Mazia",
                "addr:place:de": "Matsch",
                "addr:place:it": "Mazia",
                "addr:postcode": "39024",
                "amenity": "school",
                "email": "gs.matsch@schule.suedtirol.it",
                "name": "Grundschule Matsch",
                "phone": "+39 0473 842658"
              },
              "geometry": {
                "type": "Point",
                "coordinates": [
                  10.6175628,
                  46.6947374
                ]
              }
            },
            {
              "type": "Feature",
              "properties": {
                "id": "6549151472",
                "osm_type": "node",
                "lat": 46.6817207,
                "lon": 10.5492396,
                "amenity": "school",
                "name": "Schülerheim Moles"
              },
              "geometry": {
                "type": "Point",
                "coordinates": [
                  10.5492396,
                  46.6817207
                ]
              }
            },
            {
              "type": "Feature",
              "properties": {
                "id": "8981019795",
                "osm_type": "node",
                "lat": 46.6296053,
                "lon": 10.772951,
                "amenity": "school",
                "check_date": "2024-05-09",
                "fax": "+39 0473 621722",
                "name": "Grundschule - Scuola elementare",
                "name:de": "Grundschule",
                "name:it": "Scuola elementare",
                "phone": "+39 0473 730102"
              },
              "geometry": {
                "type": "Point",
                "coordinates": [
                  10.772951,
                  46.6296053
                ]
              }
            },
            {
              "type": "Feature",
              "properties": {
                "id": "8981019796",
                "osm_type": "node",
                "lat": 46.6294663,
                "lon": 10.7725529,
                "amenity": "school",
                "check_date": "2024-05-09",
                "fax": "+39 0473 730497",
                "name": "Mittelschule \"Dr. Fritz Ebner\" - Scuola media \"Dr. Fritz Ebner\"",
                "name:de": "Mittelschule \"Dr. Fritz Ebner\"",
                "name:it": "Scuola media \"Dr. Fritz Ebner\"",
                "phone": "+39 0473 730075",
                "website": "https://www.ssp-schlanders.it/"
              },
              "geometry": {
                "type": "Point",
                "coordinates": [
                  10.7725529,
                  46.6294663
                ]
              }
            }
          ],
          "children": []
        },
        {
          "bbox": {
            "south": 46.537928625000006,
            "west": 10.961507249999999,
            "north": 46.70320525,
            "east": 11.438358999999998
          },
          "poiCount": 25,
          "leafCount": 25,
          "averagePosition": [
            11.201758912,
            46.63056872400001
          ],
          "data": [
            {
              "type": "Feature",
              "properties": {
                "id": "582654229",
                "osm_type": "node",
                "lat": 46.5611128,
                "lon": 11.4135148,
                "amenity": "school",
                "name": "Grundschule Oberinn - Scuola elementare di Auna di Sopra",
                "name:de": "Grundschule Oberinn",
                "name:it": "Scuola elementare di Auna di Sopra"
              },
              "geometry": {
                "type": "Point",
                "coordinates": [
                  11.4135148,
                  46.5611128
                ]
              }
            },
            {
              "type": "Feature",
              "properties": {
                "id": "602491553",
                "osm_type": "node",
                "lat": 46.679313,
                "lon": 11.1543597,
                "amenity": "school",
                "name": "Mittelschule Stadt Meran - Scuola media di lingua tedesca Cittä di Merano",
                "name:de": "Mittelschule Stadt Meran",
                "name:it": "Scuola media di lingua tedesca Città di Merano",
                "wheelchair": "yes"
              },
              "geometry": {
                "type": "Point",
                "coordinates": [
                  11.1543597,
                  46.679313
                ]
              }
            },
            {
              "type": "Feature",
              "properties": {
                "id": "760631850",
                "osm_type": "node",
                "lat": 46.6661473,
                "lon": 11.3656282,
                "amenity": "school",
                "name": "Astfeld"
              },
              "geometry": {
                "type": "Point",
                "coordinates": [
                  11.3656282,
                  46.6661473
                ]
              }
            },
            {
              "type": "Feature",
              "properties": {
                "id": "1213246596",
                "osm_type": "node",
                "lat": 46.5867778,
                "lon": 11.0855491,
                "addr:city": "St. Pankraz - San Pancrazio",
                "addr:city:de": "St. Pankraz",
                "addr:city:it": "San Pancrazio",
                "addr:housenumber": "6",
                "addr:postcode": "39010",
                "addr:street": "Widumanger",
                "amenity": "school",
                "isced:level": "1",
                "name": "Grundschule"
              },
              "geometry": {
                "type": "Point",
                "coordinates": [
                  11.0855491,
                  46.5867778
                ]
              }
            },
            {
              "type": "Feature",
              "properties": {
                "id": "1213247039",
                "osm_type": "node",
                "lat": 46.586482,
                "lon": 11.0855249,
                "amenity": "school",
                "isced:level": "2",
                "name": "Mittelschule"
              },
              "geometry": {
                "type": "Point",
                "coordinates": [
                  11.0855249,
                  46.586482
                ]
              }
            },
            {
              "type": "Feature",
              "properties": {
                "id": "2158771379",
                "osm_type": "node",
                "lat": 46.5587559,
                "lon": 11.2247534,
                "amenity": "school",
                "isced:level": "1",
                "name": "Grundschule Vilpian - Scuola elementare Vilpiano",
                "name:de": "Grundschule Vilpian",
                "name:it": "Scuola elementare Vilpiano"
              },
              "geometry": {
                "type": "Point",
                "coordinates": [
                  11.2247534,
                  46.5587559
                ]
              }
            },
            {
              "type": "Feature",
              "properties": {
                "id": "2445346268",
                "osm_type": "node",
                "lat": 46.5869454,
                "lon": 11.2542088,
                "amenity": "school",
                "isced:level": "2",
                "name": "Mittelschule \"Siegfried Teßmann\" - Scuola media di lingua tedesca \"Siegfried Teßmann\"",
                "name:de": "Mittelschule \"Siegfried Teßmann\"",
                "name:it": "Scuola media di lingua tedesca \"Siegfried Teßmann\"",
                "school:language": "de"
              },
              "geometry": {
                "type": "Point",
                "coordinates": [
                  11.2542088,
                  46.5869454
                ]
              }
            },
            {
              "type": "Feature",
              "properties": {
                "id": "2445346279",
                "osm_type": "node",
                "lat": 46.5870263,
                "lon": 11.2544177,
                "amenity": "school",
                "isced:level": "1",
                "name": "Grundschule \"Johannes Greif\" - Scuola elementare di lingua tedesca \"Johannes Greif\"",
                "name:de": "Grundschule \"Johannes Greif\"",
                "name:it": "Scuola elementare di lingua tedesca \"Johannes Greif\"",
                "school:language": "de"
              },
              "geometry": {
                "type": "Point",
                "coordinates": [
                  11.2544177,
                  46.5870263
                ]
              }
            },
            {
              "type": "Feature",
              "properties": {
                "id": "2755799312",
                "osm_type": "node",
                "lat": 46.6710788,
                "lon": 11.1531872,
                "addr:city": "Meran - Merano",
                "addr:city:de": "Meran",
                "addr:city:it": "Merano",
                "addr:housenumber": "155",
                "addr:postcode": "39012",
                "addr:street": "Freiheitsstraße - Corso della Libertà",
                "addr:street:de": "Freiheitsstraße",
                "addr:street:it": "Corso della Libertà",
                "amenity": "school",
                "email": "lhf.me-kaiserhof@schule.suedtirol.it",
                "name": "Landeshotelfachschule Kaiserhof",
                "name:de": "Landeshotelfachschule \"Kaiserhof\"",
                "phone": "+39 0473 203200",
                "website": "https://www.kaiserhof.berufsschule.it/",
                "wikidata": "Q1802242"
              },
              "geometry": {
                "type": "Point",
                "coordinates": [
                  11.1531872,
                  46.6710788
                ]
              }
            },
            {
              "type": "Feature",
              "properties": {
                "id": "2755814061",
                "osm_type": "node",
                "lat": 46.6740315,
                "lon": 11.1569028,
                "addr:city": "Meran - Merano",
                "addr:city:de": "Meran",
                "addr:city:it": "Merano",
                "addr:housenumber": "72",
                "addr:postcode": "39012",
                "addr:street": "Otto-Huber-Straße - Via Otto Huber",
                "addr:street:de": "Otto-Huber-Straße",
                "addr:street:it": "Via Otto Huber",
                "amenity": "school",
                "description:de": "Sozialwissenschaftliche, Klassische, Sprachen- und Kunstgymnasium Meran",
                "email": "hg.meran@schule.suedtirol.it",
                "name": "Gymnasium \"J. Ferrari\" - Liceo \"J. Ferrari\"",
                "name:de": "Gymnasium \"J. Ferrari\"",
                "name:it": "Liceo \"J. Ferrari\"",
                "phone": "+39 0473 231090",
                "website": "https://www.gymme.it/"
              },
              "geometry": {
                "type": "Point",
                "coordinates": [
                  11.1569028,
                  46.6740315
                ]
              }
            },
            {
              "type": "Feature",
              "properties": {
                "id": "2755814536",
                "osm_type": "node",
                "lat": 46.6742928,
                "lon": 11.1594794,
                "addr:city": "Meran - Merano",
                "addr:city:de": "Meran",
                "addr:city:it": "Merano",
                "addr:housenumber": "8",
                "addr:postcode": "39012",
                "addr:street": "Giuseppe-Verdi-Straße - Via Giuseppe Verdi",
                "addr:street:de": "Giuseppe-Verdi-Straße",
                "addr:street:it": "Via Giuseppe Verdi",
                "amenity": "school",
                "email": "os-gym.meran@schule.suedtirol.it",
                "name": "Gymnasium \"J. Ferrari\" - Liceo \"J. Ferrari\"",
                "name:de": "Sozialwissenschaftlichen, Klassischen, Sprachen- und Kunstgymnasiums Meran",
                "phone": "+39 0473 230028",
                "website": "https://www.gymme.it/"
              },
              "geometry": {
                "type": "Point",
                "coordinates": [
                  11.1594794,
                  46.6742928
                ]
              }
            },
            {
              "type": "Feature",
              "properties": {
                "id": "2756011856",
                "osm_type": "node",
                "lat": 46.5601452,
                "lon": 11.2268964,
                "addr:city": "Terlan - Terlano",
                "addr:city:de": "Terlan",
                "addr:city:it": "Terlano",
                "addr:hamlet": "Vilpian - Vilpiano",
                "addr:hamlet:de": "Vilpian",
                "addr:hamlet:it": "Vilpiano",
                "addr:housenumber": "20",
                "addr:postcode": "39018",
                "addr:street": "Brauereistraße - Via Birreria",
                "addr:street:de": "Brauereistraße",
                "addr:street:it": "Via Birreria",
                "amenity": "school",
                "name": "Landesfeuerwehrschule Südtirol - Scuola Provinciale Antincendi dell'Alto Adige",
                "name:de": "Landesfeuerwehrschule Südtirol",
                "name:it": "Scuola Provinciale Antincendi dell'Alto Adige",
                "operator": "Landesfeuerwehrschule Südtirol - Scuola Provinciale Antincendi dell'Alto Adige"
              },
              "geometry": {
                "type": "Point",
                "coordinates": [
                  11.2268964,
                  46.5601452
                ]
              }
            },
            {
              "type": "Feature",
              "properties": {
                "id": "4487084634",
                "osm_type": "node",
                "lat": 46.6125866,
                "lon": 11.1940524,
                "amenity": "school",
                "name": "Grundschule Burgstall - Scuola elementare Postal",
                "name:de": "Grundschule Burgstall",
                "name:it": "Scuola elementare Postal"
              },
              "geometry": {
                "type": "Point",
                "coordinates": [
                  11.1940524,
                  46.6125866
                ]
              }
            },
            {
              "type": "Feature",
              "properties": {
                "id": "4862192629",
                "osm_type": "node",
                "lat": 46.6883345,
                "lon": 11.4174312,
                "addr:city": "Reinswald",
                "addr:housenumber": "66",
                "addr:postcode": "39058",
                "amenity": "school",
                "fax": "+39 0471 625300",
                "name": "Grundschule Reinswald",
                "operator": "Schulsprengel Sarntal",
                "phone": "+39 0471 625300"
              },
              "geometry": {
                "type": "Point",
                "coordinates": [
                  11.4174312,
                  46.6883345
                ]
              }
            },
            {
              "type": "Feature",
              "properties": {
                "id": "4865355922",
                "osm_type": "node",
                "lat": 46.5651712,
                "lon": 11.2638482,
                "addr:city": "Verschneid - Frassineto",
                "addr:housenumber": "90",
                "addr:postcode": "39010",
                "addr:street": "Möltner Straße - Via Meltina",
                "amenity": "school",
                "name": "Grundschule Verschneid",
                "phone": "+39 0471 668305"
              },
              "geometry": {
                "type": "Point",
                "coordinates": [
                  11.2638482,
                  46.5651712
                ]
              }
            },
            {
              "type": "Feature",
              "properties": {
                "id": "4988575976",
                "osm_type": "node",
                "lat": 46.5887515,
                "lon": 11.1474008,
                "amenity": "school",
                "name": "Deutschsprachiger Landeskindergarten - Scuola materna statale di lingua tedesca",
                "name:de": "Deutschsprachiger Landeskindergarten",
                "name:it": "Scuola materna statale di lingua tedesca"
              },
              "geometry": {
                "type": "Point",
                "coordinates": [
                  11.1474008,
                  46.5887515
                ]
              }
            },
            {
              "type": "Feature",
              "properties": {
                "id": "4988575983",
                "osm_type": "node",
                "lat": 46.5893881,
                "lon": 11.1457348,
                "amenity": "school",
                "name": "Grundschule Völlan - Scuola elementare di Lingua tedesca Foiana",
                "name:de": "Grundschule Völlan",
                "name:it": "Scuola elementare di Lingua tedesca Foiana"
              },
              "geometry": {
                "type": "Point",
                "coordinates": [
                  11.1457348,
                  46.5893881
                ]
              }
            },
            {
              "type": "Feature",
              "properties": {
                "id": "6415585980",
                "osm_type": "node",
                "lat": 46.6678398,
                "lon": 11.0720627,
                "amenity": "school",
                "name": "Hundeschule Martin Rütter - Scuola per cani Martin Rütter",
                "name:de": "Hundeschule Martin Rütter",
                "name:it": "Scuola per cani Martin Rütter"
              },
              "geometry": {
                "type": "Point",
                "coordinates": [
                  11.0720627,
                  46.6678398
                ]
              }
            },
            {
              "type": "Feature",
              "properties": {
                "id": "6457279463",
                "osm_type": "node",
                "lat": 46.6674871,
                "lon": 11.1730483,
                "addr:city": "Meran - Merano",
                "addr:housenumber": "78",
                "addr:postcode": "39012",
                "addr:street": "Schafferstraße - Via Schaffer",
                "amenity": "school",
                "check_date": "2025-03-16",
                "name": "Scuola professionale provinciale alberghiera Cesare Ritz"
              },
              "geometry": {
                "type": "Point",
                "coordinates": [
                  11.1730483,
                  46.6674871
                ]
              }
            },
            {
              "type": "Feature",
              "properties": {
                "id": "6549131690",
                "osm_type": "node",
                "lat": 46.6699679,
                "lon": 11.1653982,
                "addr:housenumber": "16",
                "addr:street": "Sandplatz - Piazza della Rena",
                "amenity": "school",
                "check_date": "2025-04-16",
                "name": "Mittelschule Peter Rosegger"
              },
              "geometry": {
                "type": "Point",
                "coordinates": [
                  11.1653982,
                  46.6699679
                ]
              }
            },
            {
              "type": "Feature",
              "properties": {
                "id": "7248921633",
                "osm_type": "node",
                "lat": 46.6981066,
                "lon": 11.1719979,
                "amenity": "school",
                "contact:email": "gskuens@hotmail.de",
                "contact:phone": "+39 0473 241493",
                "name": "Grundschule Kuens - Scuola elementare Caines",
                "name:de": "Grundschule Kuens",
                "name:it": "Scuola elementare Caines"
              },
              "geometry": {
                "type": "Point",
                "coordinates": [
                  11.1719979,
                  46.6981066
                ]
              }
            },
            {
              "type": "Feature",
              "properties": {
                "id": "12183437145",
                "osm_type": "node",
                "lat": 46.6794714,
                "lon": 11.1538511,
                "amenity": "school",
                "name": "Realgymnasium \"Albert Einstein\" und Technologische Fachoberschule \"Oskar von Miller\" Meran",
                "website": "https://www.rg-me.it/drupal7/",
                "wikidata": "Q24192253"
              },
              "geometry": {
                "type": "Point",
                "coordinates": [
                  11.1538511,
                  46.6794714
                ]
              }
            },
            {
              "type": "Feature",
              "properties": {
                "id": "12183720690",
                "osm_type": "node",
                "lat": 46.6798017,
                "lon": 11.1549087,
                "amenity": "school",
                "name": "Aula Magna"
              },
              "geometry": {
                "type": "Point",
                "coordinates": [
                  11.1549087,
                  46.6798017
                ]
              }
            },
            {
              "type": "Feature",
              "properties": {
                "id": "12183771641",
                "osm_type": "node",
                "lat": 46.6801246,
                "lon": 11.1540664,
                "amenity": "school",
                "name": "Turnhalle"
              },
              "geometry": {
                "type": "Point",
                "coordinates": [
                  11.1540664,
                  46.6801246
                ]
              }
            },
            {
              "type": "Feature",
              "properties": {
                "id": "12725588702",
                "osm_type": "node",
                "lat": 46.5850783,
                "lon": 11.2957497,
                "addr:housenumber": "3",
                "addr:street": "Flaas Dorf - Valas paese",
                "amenity": "school",
                "name": "Deutschsprachige Grundschule",
                "name:de": "Deutschsprachige Grundschule",
                "name:it": "Scuola elementare in lingua tedesca"
              },
              "geometry": {
                "type": "Point",
                "coordinates": [
                  11.2957497,
                  46.5850783
                ]
              }
            }
          ],
          "children": []
        }
      ]
    },
    {
      "bbox": {
        "south": 46.70320525,
        "west": 9.530952,
        "north": 47.033758500000005,
        "east": 10.484655499999999
      },
      "poiCount": 28,
      "leafCount": 28,
      "averagePosition": [
        9.865380067857144,
        46.86309763928572
      ],
      "data": [
        {
          "type": "Feature",
          "properties": {
            "id": "433458577",
            "osm_type": "node",
            "lat": 46.7900499,
            "lon": 9.8158318,
            "amenity": "school",
            "name": "Sportgymnasium Davos",
            "wheelchair": "limited"
          },
          "geometry": {
            "type": "Point",
            "coordinates": [
              9.8158318,
              46.7900499
            ]
          }
        },
        {
          "type": "Feature",
          "properties": {
            "id": "697442893",
            "osm_type": "node",
            "lat": 46.7829614,
            "lon": 9.6786406,
            "amenity": "school",
            "name": "Schweizerische Ski und Snowboardschule"
          },
          "geometry": {
            "type": "Point",
            "coordinates": [
              9.6786406,
              46.7829614
            ]
          }
        },
        {
          "type": "Feature",
          "properties": {
            "id": "800336195",
            "osm_type": "node",
            "lat": 46.869507,
            "lon": 9.8836518,
            "amenity": "school"
          },
          "geometry": {
            "type": "Point",
            "coordinates": [
              9.8836518,
              46.869507
            ]
          }
        },
        {
          "type": "Feature",
          "properties": {
            "id": "2175225538",
            "osm_type": "node",
            "lat": 46.8326977,
            "lon": 9.6725596,
            "amenity": "school",
            "name": "Schulhaus Peist"
          },
          "geometry": {
            "type": "Point",
            "coordinates": [
              9.6725596,
              46.8326977
            ]
          }
        },
        {
          "type": "Feature",
          "properties": {
            "id": "2838933184",
            "osm_type": "node",
            "lat": 46.8069508,
            "lon": 9.8419235,
            "amenity": "school",
            "grades": "1-6",
            "name": "Primarschule Bünda"
          },
          "geometry": {
            "type": "Point",
            "coordinates": [
              9.8419235,
              46.8069508
            ]
          }
        },
        {
          "type": "Feature",
          "properties": {
            "id": "4618431831",
            "osm_type": "node",
            "lat": 46.7965604,
            "lon": 9.8237205,
            "amenity": "school",
            "name": "Primarschule Davos Platz"
          },
          "geometry": {
            "type": "Point",
            "coordinates": [
              9.8237205,
              46.7965604
            ]
          }
        },
        {
          "type": "Feature",
          "properties": {
            "id": "4618431832",
            "osm_type": "node",
            "lat": 46.7962887,
            "lon": 9.8233719,
            "amenity": "school",
            "name": "Talentschule Davos"
          },
          "geometry": {
            "type": "Point",
            "coordinates": [
              9.8233719,
              46.7962887
            ]
          }
        },
        {
          "type": "Feature",
          "properties": {
            "id": "5931690979",
            "osm_type": "node",
            "lat": 46.712546,
            "lon": 9.7701697,
            "addr:city": "Davos Monstein",
            "addr:housenumber": "14",
            "addr:postcode": "7278",
            "addr:street": "Hauptstrasse",
            "amenity": "school",
            "name": "Primarschule"
          },
          "geometry": {
            "type": "Point",
            "coordinates": [
              9.7701697,
              46.712546
            ]
          }
        },
        {
          "type": "Feature",
          "properties": {
            "id": "6322936946",
            "osm_type": "node",
            "lat": 46.8504891,
            "lon": 9.5338566,
            "amenity": "school",
            "name": "Chen Taijiquan Schule",
            "operator": "Chen Taijiquan Schule",
            "website": "https://www.chen-style.school"
          },
          "geometry": {
            "type": "Point",
            "coordinates": [
              9.5338566,
              46.8504891
            ]
          }
        },
        {
          "type": "Feature",
          "properties": {
            "id": "7418533507",
            "osm_type": "node",
            "lat": 46.8706267,
            "lon": 9.8806143,
            "amenity": "school",
            "name": "Schule Klosters"
          },
          "geometry": {
            "type": "Point",
            "coordinates": [
              9.8806143,
              46.8706267
            ]
          }
        },
        {
          "type": "Feature",
          "properties": {
            "id": "7418533508",
            "osm_type": "node",
            "lat": 46.8706341,
            "lon": 9.8810413,
            "amenity": "school"
          },
          "geometry": {
            "type": "Point",
            "coordinates": [
              9.8810413,
              46.8706341
            ]
          }
        },
        {
          "type": "Feature",
          "properties": {
            "id": "7418533509",
            "osm_type": "node",
            "lat": 46.8709844,
            "lon": 9.8807935,
            "amenity": "school"
          },
          "geometry": {
            "type": "Point",
            "coordinates": [
              9.8807935,
              46.8709844
            ]
          }
        },
        {
          "type": "Feature",
          "properties": {
            "id": "7418533511",
            "osm_type": "node",
            "lat": 46.8710125,
            "lon": 9.8810521,
            "amenity": "school"
          },
          "geometry": {
            "type": "Point",
            "coordinates": [
              9.8810521,
              46.8710125
            ]
          }
        },
        {
          "type": "Feature",
          "properties": {
            "id": "9949241117",
            "osm_type": "node",
            "lat": 46.7959268,
            "lon": 9.8231461,
            "addr:postcode": "7270",
            "addr:street": "Guggerbachstrasse",
            "amenity": "school",
            "name": "Oberstufe Davos"
          },
          "geometry": {
            "type": "Point",
            "coordinates": [
              9.8231461,
              46.7959268
            ]
          }
        },
        {
          "type": "Feature",
          "properties": {
            "id": "12456340871",
            "osm_type": "node",
            "lat": 46.7297874,
            "lon": 9.5548032,
            "addr:housenumber": "4",
            "addr:street": "Voa Sporz",
            "amenity": "school",
            "name": "Gemeindeschule Vaz/Obervaz",
            "phone": "081 385 21 40",
            "website": "https://www.schule-vazobervaz.ch/"
          },
          "geometry": {
            "type": "Point",
            "coordinates": [
              9.5548032,
              46.7297874
            ]
          }
        },
        {
          "type": "Feature",
          "properties": {
            "id": "12853145596",
            "osm_type": "node",
            "lat": 46.7918007,
            "lon": 9.8197671,
            "addr:city": "Davos",
            "addr:housenumber": "5",
            "addr:postcode": "7270",
            "addr:street": "Bahnhofstrasse Platz",
            "amenity": "school",
            "education": "school",
            "name": "Berufsfachschule Davos"
          },
          "geometry": {
            "type": "Point",
            "coordinates": [
              9.8197671,
              46.7918007
            ]
          }
        },
        {
          "type": "Feature",
          "properties": {
            "id": "618336595",
            "osm_type": "node",
            "lat": 46.7942558,
            "lon": 10.2476309,
            "amenity": "school"
          },
          "geometry": {
            "type": "Point",
            "coordinates": [
              10.2476309,
              46.7942558
            ]
          }
        },
        {
          "type": "Feature",
          "properties": {
            "id": "618392197",
            "osm_type": "node",
            "lat": 46.7926203,
            "lon": 10.2395371,
            "amenity": "school",
            "name": "Hochalpines Institut Ftan",
            "wikidata": "Q1621642",
            "wikipedia": "de:Hochalpines Institut Ftan"
          },
          "geometry": {
            "type": "Point",
            "coordinates": [
              10.2395371,
              46.7926203
            ]
          }
        },
        {
          "type": "Feature",
          "properties": {
            "id": "5359588666",
            "osm_type": "node",
            "lat": 46.7965248,
            "lon": 10.302979,
            "amenity": "school",
            "sport": "shooting"
          },
          "geometry": {
            "type": "Point",
            "coordinates": [
              10.302979,
              46.7965248
            ]
          }
        },
        {
          "type": "Feature",
          "properties": {
            "id": "391914332",
            "osm_type": "node",
            "lat": 46.9710776,
            "lon": 9.687985,
            "amenity": "school",
            "check_date": "2024-09-07",
            "name": "Evangelische Mittelschule Schiers",
            "wikidata": "Q1381056",
            "wikipedia": "de:Evangelische Mittelschule Schiers"
          },
          "geometry": {
            "type": "Point",
            "coordinates": [
              9.687985,
              46.9710776
            ]
          }
        },
        {
          "type": "Feature",
          "properties": {
            "id": "2135157567",
            "osm_type": "node",
            "lat": 46.8904798,
            "lon": 9.841426,
            "amenity": "school",
            "name": "Primarschule Serneus"
          },
          "geometry": {
            "type": "Point",
            "coordinates": [
              9.841426,
              46.8904798
            ]
          }
        },
        {
          "type": "Feature",
          "properties": {
            "id": "2682689122",
            "osm_type": "node",
            "lat": 46.9887527,
            "lon": 9.6366066,
            "addr:city": "Seewis Dorf",
            "addr:country": "CH",
            "addr:housename": "Schloss",
            "addr:housenumber": "2",
            "addr:postcode": "7212",
            "addr:street": "Von Salis-Strasse",
            "amenity": "school",
            "name": "Primarschule"
          },
          "geometry": {
            "type": "Point",
            "coordinates": [
              9.6366066,
              46.9887527
            ]
          }
        },
        {
          "type": "Feature",
          "properties": {
            "id": "4558932791",
            "osm_type": "node",
            "lat": 46.9721081,
            "lon": 9.6845326,
            "amenity": "school",
            "name": "Oberstufenschuhlhaus",
            "name:de": "Oberstufenschuhlhaus"
          },
          "geometry": {
            "type": "Point",
            "coordinates": [
              9.6845326,
              46.9721081
            ]
          }
        },
        {
          "type": "Feature",
          "properties": {
            "id": "4558950789",
            "osm_type": "node",
            "lat": 46.9691252,
            "lon": 9.6921269,
            "addr:city": "Schiers",
            "addr:housenumber": "14",
            "addr:postcode": "7220",
            "addr:street": "Farbstrasse",
            "amenity": "school",
            "name": "Schulhaus Farb"
          },
          "geometry": {
            "type": "Point",
            "coordinates": [
              9.6921269,
              46.9691252
            ]
          }
        },
        {
          "type": "Feature",
          "properties": {
            "id": "6835491247",
            "osm_type": "node",
            "lat": 46.9861746,
            "lon": 10.026045,
            "amenity": "school",
            "check_date": "2024-03-27",
            "name": "Volksschule Gaschurn",
            "operator": "Gemeinde Gaschurn",
            "operator:type": "public"
          },
          "geometry": {
            "type": "Point",
            "coordinates": [
              10.026045,
              46.9861746
            ]
          }
        },
        {
          "type": "Feature",
          "properties": {
            "id": "8365709655",
            "osm_type": "node",
            "lat": 47.0092246,
            "lon": 10.0023314,
            "addr:city": "Gortipohl",
            "addr:housenumber": "9",
            "addr:postcode": "6791",
            "addr:street": "Alte Landstraße",
            "amenity": "school",
            "name": "Schülerbetreuung Innermontafon",
            "operator": "Gemeinden St. Gallenkirch und Gaschurn"
          },
          "geometry": {
            "type": "Point",
            "coordinates": [
              10.0023314,
              47.0092246
            ]
          }
        },
        {
          "type": "Feature",
          "properties": {
            "id": "1143671841",
            "osm_type": "node",
            "lat": 46.968663,
            "lon": 10.060311,
            "amenity": "school"
          },
          "geometry": {
            "type": "Point",
            "coordinates": [
              10.060311,
              46.968663
            ]
          }
        },
        {
          "type": "Feature",
          "properties": {
            "id": "11968101074",
            "osm_type": "node",
            "lat": 46.9889038,
            "lon": 10.2441868,
            "addr:city": "Ischgl",
            "addr:housenumber": "48",
            "addr:postcode": "6562",
            "addr:street": "Mathoner Straße",
            "amenity": "school",
            "email": "direktion@vs-mathon.tsn.at",
            "name": "Volksschule Ischgl-Mathon",
            "phone": "+43 5444 5222250"
          },
          "geometry": {
            "type": "Point",
            "coordinates": [
              10.2441868,
              46.9889038
            ]
          }
        }
      ],
      "children": []
    },
    {
      "bbox": {
        "south": 46.70320525,
        "west": 10.484655499999999,
        "north": 47.033758500000005,
        "east": 11.438358999999998
      },
      "poiCount": 21,
      "leafCount": 21,
      "averagePosition": [
        10.997824371428571,
        46.86042064285714
      ],
      "data": [
        {
          "type": "Feature",
          "properties": {
            "id": "418026865",
            "osm_type": "node",
            "lat": 46.7097348,
            "lon": 10.5263591,
            "addr:city": "Mals - Malles Venosta",
            "addr:housenumber": "130",
            "addr:postcode": "39024",
            "addr:street": "Burgeis",
            "amenity": "school",
            "check_date": "2024-05-25",
            "name": "Grundschule J.e. Holzer",
            "operator": "Schulsprengel Mals",
            "phone": "+39 0473 831716"
          },
          "geometry": {
            "type": "Point",
            "coordinates": [
              10.5263591,
              46.7097348
            ]
          }
        },
        {
          "type": "Feature",
          "properties": {
            "id": "4864999167",
            "osm_type": "node",
            "lat": 46.8303574,
            "lon": 10.5158411,
            "amenity": "school",
            "email": "gs.reschen@schule.suedtirol.it",
            "name": "Grundschule Reschen",
            "operator": "Schulsprengel Graun",
            "phone": "+39 0473 632019",
            "website": "http://www.ssp-graun.it/gs-reschen/"
          },
          "geometry": {
            "type": "Point",
            "coordinates": [
              10.5158411,
              46.8303574
            ]
          }
        },
        {
          "type": "Feature",
          "properties": {
            "id": "4888513044",
            "osm_type": "node",
            "lat": 46.7073376,
            "lon": 10.5252483,
            "addr:city": "Mals - Malles Venosta",
            "addr:city:de": "Mals",
            "addr:housenumber": "7",
            "addr:postcode": "39024",
            "addr:street": "Burgeis",
            "addr:street:de": "Burgeis",
            "amenity": "school",
            "email": "fs.fuerstenburg@schule.suedtirol.it",
            "fax": "+39 0473 836599",
            "name": "Fachschule für Land- und Forstwirtschaft Fürstenburg",
            "name:de": "Fachschule für Land- und Forstwirtschaft Fürstenburg",
            "phone": "+39 0473 836500",
            "website": "https://www.fachschule-fuerstenburg.it/"
          },
          "geometry": {
            "type": "Point",
            "coordinates": [
              10.5252483,
              46.7073376
            ]
          }
        },
        {
          "type": "Feature",
          "properties": {
            "id": "603586347",
            "osm_type": "node",
            "lat": 46.9864675,
            "lon": 10.8681783,
            "amenity": "school",
            "name": "Volksschule Plangeross"
          },
          "geometry": {
            "type": "Point",
            "coordinates": [
              10.8681783,
              46.9864675
            ]
          }
        },
        {
          "type": "Feature",
          "properties": {
            "id": "8340441379",
            "osm_type": "node",
            "lat": 47.0181437,
            "lon": 10.6068247,
            "amenity": "school",
            "name": "Volksschule Tösens",
            "wikidata": "Q38144383"
          },
          "geometry": {
            "type": "Point",
            "coordinates": [
              10.6068247,
              47.0181437
            ]
          }
        },
        {
          "type": "Feature",
          "properties": {
            "id": "11588959131",
            "osm_type": "node",
            "lat": 47.028806,
            "lon": 10.7472072,
            "amenity": "school",
            "name": "Volksschule Feichten"
          },
          "geometry": {
            "type": "Point",
            "coordinates": [
              10.7472072,
              47.028806
            ]
          }
        },
        {
          "type": "Feature",
          "properties": {
            "id": "1324592301",
            "osm_type": "node",
            "lat": 46.8993026,
            "lon": 11.4317128,
            "addr:housename": "Liceo Virgilio",
            "addr:housenumber": "5",
            "addr:postcode": "39049",
            "addr:street": "Piazza Città",
            "amenity": "school",
            "description:de": "Italienisches Gymnasium",
            "description:it": "Liceo Italiano",
            "name": "Humanistisches Gymnasium P. Virgilio - Liceo classico P. Virgilio",
            "name:de": "Humanistisches Gymnasium P. Virgilio",
            "name:it": "Liceo classico P. Virgilio"
          },
          "geometry": {
            "type": "Point",
            "coordinates": [
              11.4317128,
              46.8993026
            ]
          }
        },
        {
          "type": "Feature",
          "properties": {
            "id": "1399246655",
            "osm_type": "node",
            "lat": 46.9006301,
            "lon": 11.4289926,
            "amenity": "school",
            "name": "Don Lorenzo Milani"
          },
          "geometry": {
            "type": "Point",
            "coordinates": [
              11.4289926,
              46.9006301
            ]
          }
        },
        {
          "type": "Feature",
          "properties": {
            "id": "1930990437",
            "osm_type": "node",
            "lat": 46.8916466,
            "lon": 11.4319899,
            "amenity": "school",
            "name": "Grundschule Dr. Josef Rampold"
          },
          "geometry": {
            "type": "Point",
            "coordinates": [
              11.4319899,
              46.8916466
            ]
          }
        },
        {
          "type": "Feature",
          "properties": {
            "id": "1970269783",
            "osm_type": "node",
            "lat": 46.883425,
            "lon": 11.381739,
            "amenity": "school",
            "name": "Grundschule Stange - Scuola Scuola Elementare Stanghe",
            "name:de": "Grundschule Stange",
            "name:it": "Scuola Scuola Elementare Stanghe"
          },
          "geometry": {
            "type": "Point",
            "coordinates": [
              11.381739,
              46.883425
            ]
          }
        },
        {
          "type": "Feature",
          "properties": {
            "id": "2791248889",
            "osm_type": "node",
            "lat": 46.9653198,
            "lon": 11.3461414,
            "amenity": "school",
            "check_date": "2024-05-16",
            "name": "Grundschule Innerpflersch - Scuola elementare in lingua tedesca Fleres di Dentro",
            "name:de": "Grundschule Innerpflersch",
            "name:it": "Scuola elementare in lingua tedesca Fleres di Dentro"
          },
          "geometry": {
            "type": "Point",
            "coordinates": [
              11.3461414,
              46.9653198
            ]
          }
        },
        {
          "type": "Feature",
          "properties": {
            "id": "2848876616",
            "osm_type": "node",
            "lat": 46.8924801,
            "lon": 11.3517814,
            "amenity": "school"
          },
          "geometry": {
            "type": "Point",
            "coordinates": [
              11.3517814,
              46.8924801
            ]
          }
        },
        {
          "type": "Feature",
          "properties": {
            "id": "4811445626",
            "osm_type": "node",
            "lat": 46.9964131,
            "lon": 11.1194932,
            "amenity": "school",
            "name": "Schischule Neustift Büro",
            "name:de": "Schischule Neustift Büro",
            "name:en": "Ski School Neustift Office"
          },
          "geometry": {
            "type": "Point",
            "coordinates": [
              11.1194932,
              46.9964131
            ]
          }
        },
        {
          "type": "Feature",
          "properties": {
            "id": "8794335540",
            "osm_type": "node",
            "lat": 46.9125901,
            "lon": 11.3973737,
            "amenity": "school",
            "name": "Ski School - Sterzing Rosskopf",
            "name:de": "Ski Schule - Sterzing Rosskopf",
            "name:it": "Scuola Sci - Vipiteno Monte Cavallo"
          },
          "geometry": {
            "type": "Point",
            "coordinates": [
              11.3973737,
              46.9125901
            ]
          }
        },
        {
          "type": "Feature",
          "properties": {
            "id": "1219940601",
            "osm_type": "node",
            "lat": 46.8135736,
            "lon": 10.5789781,
            "amenity": "school",
            "name": "Grundschule"
          },
          "geometry": {
            "type": "Point",
            "coordinates": [
              10.5789781,
              46.8135736
            ]
          }
        },
        {
          "type": "Feature",
          "properties": {
            "id": "4864969181",
            "osm_type": "node",
            "lat": 46.808235,
            "lon": 10.5431414,
            "amenity": "school",
            "email": "gs.graun-i-v@schule.suedtirol.it",
            "name": "Grundschule \"Josef Duile\" Graun",
            "phone": "+39 0473 633412",
            "website": "http://www.ssp-graun.it/gs-graun"
          },
          "geometry": {
            "type": "Point",
            "coordinates": [
              10.5431414,
              46.808235
            ]
          }
        },
        {
          "type": "Feature",
          "properties": {
            "id": "4865052338",
            "osm_type": "node",
            "lat": 46.7653698,
            "lon": 10.5351012,
            "addr:city": "St. Valentin auf der Haide - San Valentino alla Muta",
            "addr:housenumber": "77",
            "addr:postcode": "39027",
            "addr:street": "Landstrasse - Strada provinciale",
            "amenity": "school",
            "email": "gs.st-valentin@schule.suedtirol.it",
            "name": "Grundschule St. Valentin",
            "phone": "+39 0473 634767",
            "website": "http://www.ssp-graun.it/gs-haid"
          },
          "geometry": {
            "type": "Point",
            "coordinates": [
              10.5351012,
              46.7653698
            ]
          }
        },
        {
          "type": "Feature",
          "properties": {
            "id": "4866382278",
            "osm_type": "node",
            "lat": 46.7220189,
            "lon": 10.8600103,
            "addr:city": "Schnals - Senales",
            "addr:housenumber": "109",
            "addr:postcode": "39020",
            "addr:street": "Unser Frau",
            "amenity": "school",
            "email": "Gs.Unserfrau@schule.suedtirol.it",
            "name": "Grundschule Unser Frau",
            "operator": "Schulsprengel Naturns",
            "phone": "+39 0473 676040"
          },
          "geometry": {
            "type": "Point",
            "coordinates": [
              10.8600103,
              46.7220189
            ]
          }
        },
        {
          "type": "Feature",
          "properties": {
            "id": "1776068981",
            "osm_type": "node",
            "lat": 46.7829581,
            "lon": 11.2263977,
            "amenity": "school"
          },
          "geometry": {
            "type": "Point",
            "coordinates": [
              11.2263977,
              46.7829581
            ]
          }
        },
        {
          "type": "Feature",
          "properties": {
            "id": "2380309459",
            "osm_type": "node",
            "lat": 46.8278517,
            "lon": 11.1987887,
            "amenity": "school",
            "name": "Grundschule Stuls"
          },
          "geometry": {
            "type": "Point",
            "coordinates": [
              11.1987887,
              46.8278517
            ]
          }
        },
        {
          "type": "Feature",
          "properties": {
            "id": "4877155124",
            "osm_type": "node",
            "lat": 46.726172,
            "lon": 11.3330117,
            "addr:city": "Sarntal - Sarentino",
            "addr:housenumber": "17",
            "addr:postcode": "39058",
            "addr:street": "Aberstückl",
            "amenity": "school",
            "name": "Grundschule Aberstückl",
            "operator": "Schulsprengel Sarntal",
            "phone": "+39 0471 627360",
            "website": "https://www.schule-sarntal.com/de/schulstellen/grundschule-aberstueckl.html"
          },
          "geometry": {
            "type": "Point",
            "coordinates": [
              11.3330117,
              46.726172
            ]
          }
        }
      ],
      "children": []
    }
  ]
}