{
  "bbox": {
    "south": 46.372652,
    "west": 15.253173,
    "north": 47.033758500000005,
    "east": 17.16058
  },
  "poiCount": 110,
  "leafCount": 0,
  "averagePosition": [
    15.915134794545454,
    46.76062250363637
  ],
  "data": [],
  "children": [
    {
      "bbox": {
        "south": 46.372652,
        "west": 15.253173,
        "north": 46.70320525,
        "east": 16.2068765
      },
      "poiCount": 27,
      "leafCount": 27,
      "averagePosition": [
        15.698630403703703,
        46.53556858518518
      ],
      "data": [
        {
          "type": "Feature",
          "properties": {
            "id": "276399294",
            "osm_type": "node",
            "lat": 46.6145008,
            "lon": 15.4599979,
            "addr:housenumber": "53",
            "addr:street": "Sveti duh na Ostrem vrhu",
            "amenity": "school",
            "name": "Osnovna šola Selnica ob Dravi; dislociran oddelek Duh na Ostrem vrhu"
          },
          "geometry": {
            "type": "Point",
            "coordinates": [
              15.4599979,
              46.6145008
            ]
          }
        },
        {
          "type": "Feature",
          "properties": {
            "id": "288261773",
            "osm_type": "node",
            "lat": 46.6379566,
            "lon": 15.4273737,
            "addr:housenumber": "39",
            "addr:street": "Gradišče na Kozjaku",
            "amenity": "school",
            "name": "Osnovna šola Selnica ob Dravi; dislociran oddelek Gradišče na Kozjaku"
          },
          "geometry": {
            "type": "Point",
            "coordinates": [
              15.4273737,
              46.6379566
            ]
          }
        },
        {
          "type": "Feature",
          "properties": {
            "id": "288262082",
            "osm_type": "node",
            "lat": 46.6368562,
            "lon": 15.376103,
            "amenity": "school",
            "name": "Osnovna šola Brezno Podvelka; podružnica Kapla"
          },
          "geometry": {
            "type": "Point",
            "coordinates": [
              15.376103,
              46.6368562
            ]
          }
        },
        {
          "type": "Feature",
          "properties": {
            "id": "290510065",
            "osm_type": "node",
            "lat": 46.5526522,
            "lon": 15.3279987,
            "amenity": "school"
          },
          "geometry": {
            "type": "Point",
            "coordinates": [
              15.3279987,
              46.5526522
            ]
          }
        },
        {
          "type": "Feature",
          "properties": {
            "id": "861699432",
            "osm_type": "node",
            "lat": 46.4033621,
            "lon": 15.3926594,
            "amenity": "school",
            "name": "OŠ Zreče - podružnična šola Gorenje"
          },
          "geometry": {
            "type": "Point",
            "coordinates": [
              15.3926594,
              46.4033621
            ]
          }
        },
        {
          "type": "Feature",
          "properties": {
            "id": "1449626769",
            "osm_type": "node",
            "lat": 46.6254404,
            "lon": 15.2999216,
            "amenity": "school"
          },
          "geometry": {
            "type": "Point",
            "coordinates": [
              15.2999216,
              46.6254404
            ]
          }
        },
        {
          "type": "Feature",
          "properties": {
            "id": "264974040",
            "osm_type": "node",
            "lat": 46.5693553,
            "lon": 15.5823815,
            "amenity": "school",
            "name": "Osnovna šola Kamnica podružnica Bresternica"
          },
          "geometry": {
            "type": "Point",
            "coordinates": [
              15.5823815,
              46.5693553
            ]
          }
        },
        {
          "type": "Feature",
          "properties": {
            "id": "266670448",
            "osm_type": "node",
            "lat": 46.6186098,
            "lon": 15.5654225,
            "amenity": "school"
          },
          "geometry": {
            "type": "Point",
            "coordinates": [
              15.5654225,
              46.6186098
            ]
          }
        },
        {
          "type": "Feature",
          "properties": {
            "id": "476785927",
            "osm_type": "node",
            "lat": 46.4561858,
            "lon": 15.6272767,
            "addr:housenumber": "56",
            "addr:street": "Fram",
            "amenity": "school",
            "name": "Osnovna šola Fram"
          },
          "geometry": {
            "type": "Point",
            "coordinates": [
              15.6272767,
              46.4561858
            ]
          }
        },
        {
          "type": "Feature",
          "properties": {
            "id": "1845074348",
            "osm_type": "node",
            "lat": 46.6080431,
            "lon": 15.8899456,
            "amenity": "school",
            "name": "Osnovna šola Benedikt"
          },
          "geometry": {
            "type": "Point",
            "coordinates": [
              15.8899456,
              46.6080431
            ]
          }
        },
        {
          "type": "Feature",
          "properties": {
            "id": "2780489855",
            "osm_type": "node",
            "lat": 46.3930975,
            "lon": 15.5728116,
            "addr:city": "Slovenska Bistrica",
            "addr:housenumber": "1",
            "addr:postcode": "2310",
            "addr:street": "Ozka ulica",
            "amenity": "school",
            "name": "Glasbena šola Slovenska Bistrica",
            "website": "http://www.glasbena-sb.si/cms/",
            "wheelchair": "yes"
          },
          "geometry": {
            "type": "Point",
            "coordinates": [
              15.5728116,
              46.3930975
            ]
          }
        },
        {
          "type": "Feature",
          "properties": {
            "id": "2780534433",
            "osm_type": "node",
            "lat": 46.390996,
            "lon": 15.5673663,
            "addr:city": "Slovenska Bistrica",
            "addr:housenumber": "21",
            "addr:postcode": "2310",
            "addr:street": "Ulica dr. Jožeta Pučnika",
            "amenity": "school",
            "email": "info@sssb.si",
            "name": "Srednja šola Slovenska Bistrica",
            "phone": "02 8432070",
            "website": "http://www.sssb.si/",
            "wheelchair": "yes"
          },
          "geometry": {
            "type": "Point",
            "coordinates": [
              15.5673663,
              46.390996
            ]
          }
        },
        {
          "type": "Feature",
          "properties": {
            "id": "3148722529",
            "osm_type": "node",
            "lat": 46.419041,
            "lon": 15.8706106,
            "addr:city": "Ptuj",
            "addr:housenumber": "1",
            "addr:postcode": "2250",
            "addr:street": "Aškerčeva ulica",
            "amenity": "school",
            "name": "Animacija d.o.o.",
            "wheelchair": "limited"
          },
          "geometry": {
            "type": "Point",
            "coordinates": [
              15.8706106,
              46.419041
            ]
          }
        },
        {
          "type": "Feature",
          "properties": {
            "id": "3148745329",
            "osm_type": "node",
            "lat": 46.4186681,
            "lon": 15.8679837,
            "addr:city": "Ptuj",
            "addr:housenumber": "11",
            "addr:postcode": "2250",
            "addr:street": "Dravska ulica",
            "amenity": "school",
            "name": "Glasbena šola Karol Pahor Ptuj PE Dravska",
            "website": "https://gsptuj.si/",
            "wheelchair": "no"
          },
          "geometry": {
            "type": "Point",
            "coordinates": [
              15.8679837,
              46.4186681
            ]
          }
        },
        {
          "type": "Feature",
          "properties": {
            "id": "3148763929",
            "osm_type": "node",
            "lat": 46.4199237,
            "lon": 15.8667671,
            "addr:city": "Ptuj",
            "addr:housenumber": "31",
            "addr:postcode": "2250",
            "addr:street": "Prešernova ulica",
            "amenity": "school",
            "grades": "6-14",
            "name": "Osnovna šola Olge Meglič",
            "operator": "Mestna občina Ptuj",
            "religion": "none",
            "website": "www.olgica.si",
            "wheelchair": "no"
          },
          "geometry": {
            "type": "Point",
            "coordinates": [
              15.8667671,
              46.4199237
            ]
          }
        },
        {
          "type": "Feature",
          "properties": {
            "id": "4897852811",
            "osm_type": "node",
            "lat": 46.5607164,
            "lon": 15.6515603,
            "addr:city": "Maribor",
            "addr:housenumber": "1",
            "addr:postcode": "2000",
            "addr:street": "Prešernova ulica",
            "amenity": "school",
            "email": "info@doba.si",
            "fax": "+386 2 228 3861",
            "name": "Šola DOBA",
            "phone": "+386 2 228 3850",
            "website": "https://www.doba.si/"
          },
          "geometry": {
            "type": "Point",
            "coordinates": [
              15.6515603,
              46.5607164
            ]
          }
        },
        {
          "type": "Feature",
          "properties": {
            "id": "5282708148",
            "osm_type": "node",
            "lat": 46.5558853,
            "lon": 15.6304979,
            "addr:city": "Maribor",
            "addr:housenumber": "75",
            "addr:postcode": "2000",
            "addr:street": "Valvasorjeva ulica",
            "amenity": "school",
            "email": "info@waldorf-maribor.si",
            "name": "Waldorfska šola Maribor",
            "phone": "+386 2 251 6334",
            "website": "http://waldorf-maribor.si/"
          },
          "geometry": {
            "type": "Point",
            "coordinates": [
              15.6304979,
              46.5558853
            ]
          }
        },
        {
          "type": "Feature",
          "properties": {
            "id": "5483325121",
            "osm_type": "node",
            "lat": 46.569027,
            "lon": 15.6340304,
            "addr:city": "Maribor",
            "addr:housenumber": "30",
            "addr:postcode": "2000",
            "addr:street": "Vrbanska cesta",
            "amenity": "school",
            "description": "Vrtec Montessori, Škofijska gimnazija, dijaški dom, glasbena in baletna šola, medgeneracijska akademija.",
            "email": "zavod@slomskov-zavod.si",
            "name": "Zavod Antona Martina Slomška",
            "phone": "+386 59 09 2100",
            "website": "http://www.slomskov-zavod.si/",
            "wikipedia": "sl:Zavod Antona Martina Slomška"
          },
          "geometry": {
            "type": "Point",
            "coordinates": [
              15.6340304,
              46.569027
            ]
          }
        },
        {
          "type": "Feature",
          "properties": {
            "id": "5483325122",
            "osm_type": "node",
            "lat": 46.5687541,
            "lon": 15.6347734,
            "addr:city": "Maribor",
            "addr:housenumber": "30",
            "addr:postcode": "2000",
            "addr:street": "Vrbanska cesta",
            "amenity": "school",
            "email": "info@bts.si",
            "fax": "+386 2 235 37 01",
            "name": "Srednja biotehniška šola Maribor",
            "phone": "+386 2 235 37 00",
            "website": "https://www.bts.si/index.php"
          },
          "geometry": {
            "type": "Point",
            "coordinates": [
              15.6347734,
              46.5687541
            ]
          }
        },
        {
          "type": "Feature",
          "properties": {
            "id": "5499120149",
            "osm_type": "node",
            "lat": 46.557667,
            "lon": 15.6463686,
            "addr:city": "Maribor",
            "addr:housenumber": "17",
            "addr:postcode": "2000",
            "addr:street": "Glavni Trg",
            "amenity": "school",
            "email": "info@b2.eu",
            "name": "Izobraževalni center B2 Maribor",
            "operator": "B2 d.o.o.",
            "phone": "+386 2 234 5280",
            "website": "https://www.b2.eu/"
          },
          "geometry": {
            "type": "Point",
            "coordinates": [
              15.6463686,
              46.557667
            ]
          }
        },
        {
          "type": "Feature",
          "properties": {
            "id": "5550716888",
            "osm_type": "node",
            "lat": 46.5762653,
            "lon": 15.8300898,
            "amenity": "school",
            "name": "Akademija dosežkov"
          },
          "geometry": {
            "type": "Point",
            "coordinates": [
              15.8300898,
              46.5762653
            ]
          }
        },
        {
          "type": "Feature",
          "properties": {
            "id": "6163743539",
            "osm_type": "node",
            "lat": 46.5570824,
            "lon": 15.6469426,
            "addr:city": "Maribor",
            "addr:housenumber": "24",
            "addr:postcode": "2000",
            "addr:street": "Glavni Trg",
            "amenity": "school",
            "email": "info@atilem.si",
            "name": "Šola umetnosti Atilem",
            "name:en": "Art school Atilem",
            "phone": "+386 7 065 7025",
            "school": "art",
            "website": "https://www.atilem.si/"
          },
          "geometry": {
            "type": "Point",
            "coordinates": [
              15.6469426,
              46.5570824
            ]
          }
        },
        {
          "type": "Feature",
          "properties": {
            "id": "11551933700",
            "osm_type": "node",
            "lat": 46.4135209,
            "lon": 15.9214116,
            "addr:city": "Ptuj",
            "addr:housenumber": "34a",
            "addr:postcode": "2250",
            "addr:street": "Spuhlja",
            "amenity": "school",
            "name": "CŠOD OE Štrk",
            "operator": "Center šolskih in obšolskih dejavnosti",
            "phone": "+386 31 607 582",
            "website": "https://www.csod.si/dom/strk"
          },
          "geometry": {
            "type": "Point",
            "coordinates": [
              15.9214116,
              46.4135209
            ]
          }
        },
        {
          "type": "Feature",
          "properties": {
            "id": "2131245412",
            "osm_type": "node",
            "lat": 46.6602032,
            "lon": 16.1512413,
            "addr:housename": "Srednja poklicna in tehniška šola",
            "addr:housenumber": "12",
            "addr:postcode": "9000",
            "addr:street": "Šolsko naselje",
            "amenity": "school",
            "name": "SPTŠ Murska Sobota"
          },
          "geometry": {
            "type": "Point",
            "coordinates": [
              16.1512413,
              46.6602032
            ]
          }
        },
        {
          "type": "Feature",
          "properties": {
            "id": "3087947042",
            "osm_type": "node",
            "lat": 46.6336762,
            "lon": 16.1371416,
            "amenity": "school",
            "name": "Telovadnica"
          },
          "geometry": {
            "type": "Point",
            "coordinates": [
              16.1371416,
              46.6336762
            ]
          }
        },
        {
          "type": "Feature",
          "properties": {
            "id": "6253622564",
            "osm_type": "node",
            "lat": 46.6334751,
            "lon": 16.1377872,
            "amenity": "school",
            "name": "OŠ Krog"
          },
          "geometry": {
            "type": "Point",
            "coordinates": [
              16.1377872,
              46.6334751
            ]
          }
        },
        {
          "type": "Feature",
          "properties": {
            "id": "12438775801",
            "osm_type": "node",
            "lat": 46.4093903,
            "lon": 16.1465563,
            "addr:city": "Ormož",
            "addr:country": "SI",
            "addr:housenumber": "13A",
            "addr:postcode": "2270",
            "addr:street": "Dobravska ulica",
            "amenity": "school",
            "building": "yes",
            "name": "OŠ Stanka Vraza"
          },
          "geometry": {
            "type": "Point",
            "coordinates": [
              16.1465563,
              46.4093903
            ]
          }
        }
      ],
      "children": []
    },
    {
      "bbox": {
        "south": 46.372652,
        "west": 16.2068765,
        "north": 46.70320525,
        "east": 17.16058
      },
      "poiCount": 11,
      "leafCount": 11,
      "averagePosition": [
        16.814889545454545,
        46.557968518181816
      ],
      "data": [
        {
          "type": "Feature",
          "properties": {
            "id": "6613020650",
            "osm_type": "node",
            "lat": 46.386808,
            "lon": 16.4330262,
            "addr:city": "Čakovec",
            "addr:housenumber": "14",
            "addr:postcode": "40000",
            "addr:street": "Ulica Vladimira Nazora",
            "amenity": "school",
            "isced:level": "1;2;3",
            "name": "Umjetnička škola Miroslav Magdalenić",
            "ref:HR:e-matica": "20-010-008",
            "website": "http://www.umjetnicka-skola-miroslav-magdalenic.com.hr/i"
          },
          "geometry": {
            "type": "Point",
            "coordinates": [
              16.4330262,
              46.386808
            ]
          }
        },
        {
          "type": "Feature",
          "properties": {
            "id": "9571796857",
            "osm_type": "node",
            "lat": 46.5138393,
            "lon": 16.439468,
            "addr:housenumber": "10",
            "addr:postcode": "40315",
            "addr:street": "Trg bana Josipa Jelačića",
            "amenity": "school",
            "name": "Područna umjetnička škola Mursko Središće",
            "operator": "Umjetnička škola Miroslav Magdalenić",
            "operator:ref:e-matica": "20-010-008",
            "ref:HR:e-matica": "20-010-008",
            "website": "https://www.umjetnicka-skola-miroslav-magdalenic.com.hr"
          },
          "geometry": {
            "type": "Point",
            "coordinates": [
              16.439468,
              46.5138393
            ]
          }
        },
        {
          "type": "Feature",
          "properties": {
            "id": "3392846952",
            "osm_type": "node",
            "lat": 46.520782,
            "lon": 16.733504,
            "addr:city": "Bázakerettye",
            "addr:postcode": "8887",
            "amenity": "school",
            "name": "Alsóiskola",
            "source": "turistautak.hu",
            "url": "http://turistautak.hu/poi.php?id=85413"
          },
          "geometry": {
            "type": "Point",
            "coordinates": [
              16.733504,
              46.520782
            ]
          }
        },
        {
          "type": "Feature",
          "properties": {
            "id": "3392846962",
            "osm_type": "node",
            "lat": 46.519679,
            "lon": 16.734314,
            "addr:city": "Bázakerettye",
            "addr:postcode": "8887",
            "amenity": "school",
            "name": "Felső iskola",
            "source": "turistautak.hu",
            "url": "http://turistautak.hu/poi.php?id=85414"
          },
          "geometry": {
            "type": "Point",
            "coordinates": [
              16.734314,
              46.519679
            ]
          }
        },
        {
          "type": "Feature",
          "properties": {
            "id": "3446767995",
            "osm_type": "node",
            "lat": 46.670052,
            "lon": 16.797094,
            "addr:city": "Tófej",
            "addr:postcode": "8946",
            "amenity": "school",
            "name": "Általános iskola",
            "source": "turistautak.hu",
            "source:date": "2011-09-19",
            "url": "http://turistautak.hu/poi.php?id=92961"
          },
          "geometry": {
            "type": "Point",
            "coordinates": [
              16.797094,
              46.670052
            ]
          }
        },
        {
          "type": "Feature",
          "properties": {
            "id": "3456440312",
            "osm_type": "node",
            "lat": 46.67665,
            "lon": 16.9864,
            "addr:city": "Felsőrajk",
            "addr:postcode": "8767",
            "amenity": "school",
            "name": "Általános iskola",
            "source": "turistautak.hu",
            "source:date": "2011-09-19",
            "url": "http://turistautak.hu/poi.php?id=98575"
          },
          "geometry": {
            "type": "Point",
            "coordinates": [
              16.9864,
              46.67665
            ]
          }
        },
        {
          "type": "Feature",
          "properties": {
            "id": "3468083710",
            "osm_type": "node",
            "lat": 46.5729,
            "lon": 16.59268,
            "addr:city": "Szécsisziget",
            "addr:postcode": "8879",
            "amenity": "school",
            "source": "turistautak.hu",
            "source:date": "2011-09-19",
            "url": "http://turistautak.hu/poi.php?id=18290"
          },
          "geometry": {
            "type": "Point",
            "coordinates": [
              16.59268,
              46.5729
            ]
          }
        },
        {
          "type": "Feature",
          "properties": {
            "id": "11158966161",
            "osm_type": "node",
            "lat": 46.5868312,
            "lon": 16.9182931,
            "addr:city": "Zalaszentbalázs",
            "addr:housenumber": "94",
            "addr:postcode": "8772",
            "addr:street": "Kossuth Lajos utca",
            "amenity": "school",
            "contact:phone": "+36 93 391 010",
            "name": "Petőfi Sándor Általános Iskola"
          },
          "geometry": {
            "type": "Point",
            "coordinates": [
              16.9182931,
              46.5868312
            ]
          }
        },
        {
          "type": "Feature",
          "properties": {
            "id": "3372363412",
            "osm_type": "node",
            "lat": 46.527147,
            "lon": 17.091943,
            "addr:city": "Csapi",
            "addr:postcode": "8756",
            "amenity": "school",
            "name": "Szakiskola és diákotthon",
            "source": "turistautak.hu",
            "url": "http://turistautak.hu/poi.php?id=48032"
          },
          "geometry": {
            "type": "Point",
            "coordinates": [
              17.091943,
              46.527147
            ]
          }
        },
        {
          "type": "Feature",
          "properties": {
            "id": "3456440310",
            "osm_type": "node",
            "lat": 46.521585,
            "lon": 17.125887,
            "addr:city": "Galambok",
            "addr:postcode": "8754",
            "amenity": "school",
            "name": "Általános iskola",
            "source": "turistautak.hu",
            "source:date": "2011-09-19",
            "url": "http://turistautak.hu/poi.php?id=48018"
          },
          "geometry": {
            "type": "Point",
            "coordinates": [
              17.125887,
              46.521585
            ]
          }
        },
        {
          "type": "Feature",
          "properties": {
            "id": "3456440311",
            "osm_type": "node",
            "lat": 46.6413802,
            "lon": 17.1111757,
            "addr:city": "Zalaszabar",
            "addr:postcode": "8743",
            "amenity": "school",
            "name": "Általános iskola",
            "source": "turistautak.hu",
            "source:date": "2011-09-19",
            "url": "http://turistautak.hu/poi.php?id=98422"
          },
          "geometry": {
            "type": "Point",
            "coordinates": [
              17.1111757,
              46.6413802
            ]
          }
        }
      ],
      "children": []
    },
    {
      "bbox": {
        "south": 46.70320525,
        "west": 15.253173,
        "north": 47.033758500000005,
        "east": 16.2068765
      },
      "poiCount": 59,
      "leafCount": 0,
      "averagePosition": [
        15.653634169491525,
        46.87874164067797
      ],
      "data": [],
      "children": [
        {
          "bbox": {
            "south": 46.70320525,
            "west": 15.253173,
            "north": 46.868481875,
            "east": 15.73002475
          },
          "poiCount": 19,
          "leafCount": 19,
          "averagePosition": [
            15.450301315789474,
            46.789554736842106
          ],
          "data": [
            {
              "type": "Feature",
              "properties": {
                "id": "1597652374",
                "osm_type": "node",
                "lat": 46.8661176,
                "lon": 15.3350123,
                "addr:city": "Stainz",
                "addr:country": "AT",
                "addr:housenumber": "46",
                "addr:place": "Mettersdorf",
                "addr:postcode": "8504",
                "amenity": "school",
                "at_bev:addr_date": "2018-04-02",
                "name": "Volksschule Stainztal",
                "phone": "+433185 8313",
                "website": "https://vsstainztal.at/"
              },
              "geometry": {
                "type": "Point",
                "coordinates": [
                  15.3350123,
                  46.8661176
                ]
              }
            },
            {
              "type": "Feature",
              "properties": {
                "id": "1768324509",
                "osm_type": "node",
                "lat": 46.7152227,
                "lon": 15.3209829,
                "addr:city": "Sankt Martin im Sulmtal",
                "addr:country": "AT",
                "addr:housenumber": "51",
                "addr:place": "Kopreinigg",
                "addr:postcode": "8544",
                "amenity": "school",
                "at_bev:addr_date": "2018-10-01",
                "name": "Volksschule St. Ulrich im Greith",
                "phone": "+43 3465 2464",
                "website": "https://www.st-martin-sulmtal.gv.at/bildung-kultur/volksschule-st-ulrich-in-greith/"
              },
              "geometry": {
                "type": "Point",
                "coordinates": [
                  15.3209829,
                  46.7152227
                ]
              }
            },
            {
              "type": "Feature",
              "properties": {
                "id": "2475244235",
                "osm_type": "node",
                "lat": 46.8230499,
                "lon": 15.4127975,
                "amenity": "school",
                "name": "Segelschule Krauss"
              },
              "geometry": {
                "type": "Point",
                "coordinates": [
                  15.4127975,
                  46.8230499
                ]
              }
            },
            {
              "type": "Feature",
              "properties": {
                "id": "5142955621",
                "osm_type": "node",
                "lat": 46.8323719,
                "lon": 15.3867705,
                "addr:city": "Wettmannstätten",
                "addr:country": "AT",
                "addr:place": "Wettmannstätten",
                "addr:postcode": "8521",
                "amenity": "school",
                "name": "Volksschule Wettmannstätten",
                "phone": "+43 3185 2275",
                "website": "http://vs-wettmannstaetten.at"
              },
              "geometry": {
                "type": "Point",
                "coordinates": [
                  15.3867705,
                  46.8323719
                ]
              }
            },
            {
              "type": "Feature",
              "properties": {
                "id": "5377861961",
                "osm_type": "node",
                "lat": 46.8588839,
                "lon": 15.4004026,
                "addr:city": "Preding",
                "addr:country": "AT",
                "addr:housenumber": "2",
                "addr:postcode": "8504",
                "addr:street": "Schulweg",
                "amenity": "school",
                "name": "Volksschule Preding",
                "phone": "+43 3185 6110-40",
                "website": "https://www.vspreding.at/"
              },
              "geometry": {
                "type": "Point",
                "coordinates": [
                  15.4004026,
                  46.8588839
                ]
              }
            },
            {
              "type": "Feature",
              "properties": {
                "id": "5377861962",
                "osm_type": "node",
                "lat": 46.8583887,
                "lon": 15.4005126,
                "addr:city": "Preding",
                "addr:country": "AT",
                "addr:housenumber": "4",
                "addr:postcode": "8504",
                "addr:street": "Schulweg",
                "amenity": "school",
                "name": "Mittelschule Preding",
                "phone": "+43 3185 6110",
                "website": "https://www.nmspreding.at/"
              },
              "geometry": {
                "type": "Point",
                "coordinates": [
                  15.4005126,
                  46.8583887
                ]
              }
            },
            {
              "type": "Feature",
              "properties": {
                "id": "5836538789",
                "osm_type": "node",
                "lat": 46.7836643,
                "lon": 15.4530993,
                "amenity": "school",
                "name": "Volksschule Kitzeck"
              },
              "geometry": {
                "type": "Point",
                "coordinates": [
                  15.4530993,
                  46.7836643
                ]
              }
            },
            {
              "type": "Feature",
              "properties": {
                "id": "6935430148",
                "osm_type": "node",
                "lat": 46.7531392,
                "lon": 15.4883762,
                "addr:city": "Heimschuh",
                "addr:country": "AT",
                "addr:housenumber": "9",
                "addr:postcode": "8451",
                "addr:street": "Am Schutzengelberg",
                "amenity": "school",
                "at_bev:addr_date": "2019-10-01",
                "name": "Volksschule Heimschuh"
              },
              "geometry": {
                "type": "Point",
                "coordinates": [
                  15.4883762,
                  46.7531392
                ]
              }
            },
            {
              "type": "Feature",
              "properties": {
                "id": "7334570226",
                "osm_type": "node",
                "lat": 46.7191056,
                "lon": 15.2647999,
                "addr:city": "Wies",
                "addr:housenumber": "11",
                "addr:postcode": "8551",
                "addr:street": "Am Schloßberg",
                "amenity": "school",
                "name": "Fachschule für Land- und Ernährungswirtschaft Burgstall - St. Martin",
                "website": "https://www.burgstall.at/"
              },
              "geometry": {
                "type": "Point",
                "coordinates": [
                  15.2647999,
                  46.7191056
                ]
              }
            },
            {
              "type": "Feature",
              "properties": {
                "id": "7621890545",
                "osm_type": "node",
                "lat": 46.7518817,
                "lon": 15.3675875,
                "addr:city": "Gleinstätten",
                "addr:housenumber": "1",
                "addr:place": "Gleinstätten",
                "addr:postcode": "8443",
                "amenity": "school",
                "name": "Volksschule Gleinstätten",
                "phone": "+43 3457 22 63",
                "website": "https://www.vs-gleinstaetten.at/"
              },
              "geometry": {
                "type": "Point",
                "coordinates": [
                  15.3675875,
                  46.7518817
                ]
              }
            },
            {
              "type": "Feature",
              "properties": {
                "id": "7621890546",
                "osm_type": "node",
                "lat": 46.7542884,
                "lon": 15.3663155,
                "addr:city": "Gleinstätten",
                "addr:country": "AT",
                "addr:housenumber": "149",
                "addr:place": "Gleinstätten",
                "addr:postcode": "8443",
                "amenity": "school",
                "name": "Polytechnische Schule Gleinstätten",
                "phone": "+43 3457 40 92",
                "website": "https://www.ps-gleinstaetten.at"
              },
              "geometry": {
                "type": "Point",
                "coordinates": [
                  15.3663155,
                  46.7542884
                ]
              }
            },
            {
              "type": "Feature",
              "properties": {
                "id": "10783785753",
                "osm_type": "node",
                "lat": 46.8239702,
                "lon": 15.3156613,
                "addr:city": "Groß Sankt Florian",
                "addr:country": "AT",
                "addr:housenumber": "4b",
                "addr:postcode": "8522",
                "addr:street": "Oberer Markt",
                "amenity": "school",
                "name": "Erzherzog Johann Musikschule Stainz",
                "source": "geoimage.at"
              },
              "geometry": {
                "type": "Point",
                "coordinates": [
                  15.3156613,
                  46.8239702
                ]
              }
            },
            {
              "type": "Feature",
              "properties": {
                "id": "11299877815",
                "osm_type": "node",
                "lat": 46.7918688,
                "lon": 15.3778443,
                "amenity": "school",
                "name": "Volksschule St. Andrä - Höch"
              },
              "geometry": {
                "type": "Point",
                "coordinates": [
                  15.3778443,
                  46.7918688
                ]
              }
            },
            {
              "type": "Feature",
              "properties": {
                "id": "570993263",
                "osm_type": "node",
                "lat": 46.7765886,
                "lon": 15.7049632,
                "addr:city": "Sankt Veit in der Südsteiermark",
                "addr:country": "AT",
                "addr:housenumber": "42",
                "addr:place": "Siebing",
                "addr:postcode": "8481",
                "amenity": "school",
                "at_bev:addr_date": "2017-10-01",
                "name": "alte Volksschule Siebing"
              },
              "geometry": {
                "type": "Point",
                "coordinates": [
                  15.7049632,
                  46.7765886
                ]
              }
            },
            {
              "type": "Feature",
              "properties": {
                "id": "1578728060",
                "osm_type": "node",
                "lat": 46.805044,
                "lon": 15.7115172,
                "addr:city": "Mettersdorf am Saßbach",
                "addr:country": "AT",
                "addr:housenumber": "66",
                "addr:place": "Mettersdorf",
                "addr:postcode": "8092",
                "amenity": "school",
                "at_bev:addr_date": "2020-10-01",
                "name": "Volksschule Mettersdorf am Saßbach"
              },
              "geometry": {
                "type": "Point",
                "coordinates": [
                  15.7115172,
                  46.805044
                ]
              }
            },
            {
              "type": "Feature",
              "properties": {
                "id": "1684061923",
                "osm_type": "node",
                "lat": 46.7785186,
                "lon": 15.5390999,
                "addr:housename": "Weboffice Building",
                "addr:housenumber": "21",
                "addr:postcode": "8430",
                "addr:street": "Kadagasse",
                "amenity": "school",
                "name": "Bildungszentrum Compass"
              },
              "geometry": {
                "type": "Point",
                "coordinates": [
                  15.5390999,
                  46.7785186
                ]
              }
            },
            {
              "type": "Feature",
              "properties": {
                "id": "2367504880",
                "osm_type": "node",
                "lat": 46.7498563,
                "lon": 15.6254318,
                "addr:postcode": "8423",
                "addr:street": "St. Veit am Vogau",
                "amenity": "school",
                "name": "Volksschule St. Veit am Vogau"
              },
              "geometry": {
                "type": "Point",
                "coordinates": [
                  15.6254318,
                  46.7498563
                ]
              }
            },
            {
              "type": "Feature",
              "properties": {
                "id": "6985702894",
                "osm_type": "node",
                "lat": 46.7798974,
                "lon": 15.5422053,
                "addr:city": "Leibnitz",
                "addr:country": "AT",
                "addr:housenumber": "14",
                "addr:postcode": "8430",
                "addr:street": "Karl Morre-Gasse",
                "amenity": "school",
                "at_bev:addr_date": "2019-10-01",
                "contact:phone": "+43 3452 82593",
                "email": "office@ms2-leibnitz.at",
                "isced:level": "2",
                "name": "Mittelschule 2 Leibnitz",
                "website": "https://www.ms2-leibnitz.at"
              },
              "geometry": {
                "type": "Point",
                "coordinates": [
                  15.5422053,
                  46.7798974
                ]
              }
            },
            {
              "type": "Feature",
              "properties": {
                "id": "8937509283",
                "osm_type": "node",
                "lat": 46.7796822,
                "lon": 15.5423452,
                "addr:city": "Leibnitz",
                "addr:country": "AT",
                "addr:housenumber": "14",
                "addr:postcode": "8430",
                "addr:street": "Karl Morre-Gasse",
                "amenity": "school",
                "at_bev:addr_date": "2019-10-01",
                "contact:phone": "+43 3452 82871",
                "email": "office@polyleibnitz.at",
                "name": "Polytechnische Schule Leibnitz",
                "website": "http://polyleibnitz.at/kontakt/"
              },
              "geometry": {
                "type": "Point",
                "coordinates": [
                  15.5423452,
                  46.7796822
                ]
              }
            }
          ],
          "children": []
        },
        {
          "bbox": {
            "south": 46.70320525,
            "west": 15.73002475,
            "north": 46.868481875,
            "east": 16.2068765
          },
          "poiCount": 6,
          "leafCount": 6,
          "averagePosition": [
            15.857093050000001,
            46.75528135
          ],
          "data": [
            {
              "type": "Feature",
              "properties": {
                "id": "544062243",
                "osm_type": "node",
                "lat": 46.7445792,
                "lon": 15.8184621,
                "amenity": "school",
                "name": "Volksschule"
              },
              "geometry": {
                "type": "Point",
                "coordinates": [
                  15.8184621,
                  46.7445792
                ]
              }
            },
            {
              "type": "Feature",
              "properties": {
                "id": "2292335809",
                "osm_type": "node",
                "lat": 46.7866635,
                "lon": 15.9457511,
                "amenity": "school"
              },
              "geometry": {
                "type": "Point",
                "coordinates": [
                  15.9457511,
                  46.7866635
                ]
              }
            },
            {
              "type": "Feature",
              "properties": {
                "id": "2377452900",
                "osm_type": "node",
                "lat": 46.7041242,
                "lon": 15.7649629,
                "alt_name": "Bundesbildungsanstalt für Kindergartenpädagogik Mureck",
                "amenity": "school",
                "name": "BAKIP Mureck"
              },
              "geometry": {
                "type": "Point",
                "coordinates": [
                  15.7649629,
                  46.7041242
                ]
              }
            },
            {
              "type": "Feature",
              "properties": {
                "id": "2941134359",
                "osm_type": "node",
                "lat": 46.7103967,
                "lon": 15.7745527,
                "amenity": "school",
                "name": "BFI Bildungszentrum Mureck"
              },
              "geometry": {
                "type": "Point",
                "coordinates": [
                  15.7745527,
                  46.7103967
                ]
              }
            },
            {
              "type": "Feature",
              "properties": {
                "id": "4224077195",
                "osm_type": "node",
                "lat": 46.776069,
                "lon": 16.0257598,
                "addr:postcode": "9262",
                "addr:street": "Pertoča",
                "amenity": "school",
                "name": "podružnična šola Pertoča",
                "opening_hours": "Mo-Fr 07:00-15:00"
              },
              "geometry": {
                "type": "Point",
                "coordinates": [
                  16.0257598,
                  46.776069
                ]
              }
            },
            {
              "type": "Feature",
              "properties": {
                "id": "4486542481",
                "osm_type": "node",
                "lat": 46.8098555,
                "lon": 15.8130697,
                "addr:city": "Sankt Peter am Ottersbach",
                "addr:housenumber": "62",
                "addr:place": "Dietersdorf am Gnasbach",
                "addr:postcode": "8093",
                "amenity": "school",
                "name": "Josef-Krainer-Volksschule"
              },
              "geometry": {
                "type": "Point",
                "coordinates": [
                  15.8130697,
                  46.8098555
                ]
              }
            }
          ],
          "children": []
        },
        {
          "bbox": {
            "south": 46.868481875,
            "west": 15.253173,
            "north": 47.033758500000005,
            "east": 15.73002475
          },
          "poiCount": 17,
          "leafCount": 17,
          "averagePosition": [
            15.557369452941176,
            46.96291414117647
          ],
          "data": [
            {
              "type": "Feature",
              "properties": {
                "id": "279600201",
                "osm_type": "node",
                "lat": 46.9616925,
                "lon": 15.4780941,
                "addr:city": "Kalsdorf",
                "addr:housenumber": "5",
                "addr:postcode": "8401",
                "addr:street": "Fritz-Matzner-Weg",
                "amenity": "school",
                "name": "NMS Kalsdorf"
              },
              "geometry": {
                "type": "Point",
                "coordinates": [
                  15.4780941,
                  46.9616925
                ]
              }
            },
            {
              "type": "Feature",
              "properties": {
                "id": "1826085723",
                "osm_type": "node",
                "lat": 47.0293388,
                "lon": 15.4327016,
                "addr:city": "Graz",
                "addr:country": "AT",
                "addr:housenumber": "361",
                "addr:postcode": "8055",
                "addr:street": "Triester Straße",
                "alt_name": "Chemie Akademie",
                "amenity": "school",
                "contact:phone": "+43 316 381153 16",
                "name": "HLA Technische Chemie u. Umwelttechnikkolleg"
              },
              "geometry": {
                "type": "Point",
                "coordinates": [
                  15.4327016,
                  47.0293388
                ]
              }
            },
            {
              "type": "Feature",
              "properties": {
                "id": "4314062084",
                "osm_type": "node",
                "lat": 46.8953635,
                "lon": 15.2595864,
                "addr:housenumber": "29",
                "addr:postcode": "8510",
                "addr:street": "Sauerbrunnstraße",
                "alt_name": "Erzherzog-Johann-Musikschule Stainz",
                "amenity": "school",
                "name": "Musikschule Stainz",
                "phone": "+43 3463 2935"
              },
              "geometry": {
                "type": "Point",
                "coordinates": [
                  15.2595864,
                  46.8953635
                ]
              }
            },
            {
              "type": "Feature",
              "properties": {
                "id": "4899418475",
                "osm_type": "node",
                "lat": 46.9722267,
                "lon": 15.5026806,
                "addr:housenumber": "27",
                "addr:postcode": "8072",
                "addr:street": "Sportplatzstraße",
                "amenity": "school",
                "check_date": "2024-08-19",
                "contact:mobile": "+43 664 54 95 990",
                "name": "Musikschule Fernitz-Mellach",
                "website": "http://musikschule.fernitz-mellach.gv.at/"
              },
              "geometry": {
                "type": "Point",
                "coordinates": [
                  15.5026806,
                  46.9722267
                ]
              }
            },
            {
              "type": "Feature",
              "properties": {
                "id": "12183651093",
                "osm_type": "node",
                "lat": 47.0230832,
                "lon": 15.4275674,
                "addr:city": "Graz",
                "addr:country": "AT",
                "addr:housenumber": "24",
                "addr:postcode": "8055",
                "addr:street": "Gradnerstraße",
                "alt_name": "SAG Puntigam",
                "amenity": "school",
                "name": "Mittelschule Puntigam",
                "short_name": "MS Puntigam",
                "website": "https://www.sag-puntigam.at"
              },
              "geometry": {
                "type": "Point",
                "coordinates": [
                  15.4275674,
                  47.0230832
                ]
              }
            },
            {
              "type": "Feature",
              "properties": {
                "id": "12183651094",
                "osm_type": "node",
                "lat": 47.0236628,
                "lon": 15.4267225,
                "addr:city": "Graz",
                "addr:country": "AT",
                "addr:housenumber": "24",
                "addr:postcode": "8055",
                "addr:street": "Gradnerstraße",
                "amenity": "school",
                "name": "Volksschule Puntigam",
                "short_name": "VS Puntigam",
                "website": "https://www.vspuntigam.at"
              },
              "geometry": {
                "type": "Point",
                "coordinates": [
                  15.4267225,
                  47.0236628
                ]
              }
            },
            {
              "type": "Feature",
              "properties": {
                "id": "1259872731",
                "osm_type": "node",
                "lat": 46.9333117,
                "lon": 15.6594688,
                "addr:city": "Kirchbach in Steiermark",
                "addr:housenumber": "29",
                "addr:place": "Kirchbach in Steiermark",
                "addr:postcode": "8082",
                "amenity": "school",
                "name": "Volksschule Kirchbach",
                "website": "http://www.vs-kirchbach.at"
              },
              "geometry": {
                "type": "Point",
                "coordinates": [
                  15.6594688,
                  46.9333117
                ]
              }
            },
            {
              "type": "Feature",
              "properties": {
                "id": "1259872746",
                "osm_type": "node",
                "lat": 46.9335172,
                "lon": 15.6593534,
                "addr:postcode": "8082",
                "amenity": "school",
                "name": "Polytechnische Schule Kirchbach"
              },
              "geometry": {
                "type": "Point",
                "coordinates": [
                  15.6593534,
                  46.9335172
                ]
              }
            },
            {
              "type": "Feature",
              "properties": {
                "id": "1259872747",
                "osm_type": "node",
                "lat": 46.9329448,
                "lon": 15.6598267,
                "addr:city": "Kirchbach in Steiermark",
                "addr:housenumber": "29a",
                "addr:place": "Kirchbach in Steiermark",
                "addr:postcode": "8082",
                "alt_name": "Hauptschule Kirchbach",
                "amenity": "school",
                "name": "NMS Kirchbach",
                "website": "http://www.nms-kirchbach.at"
              },
              "geometry": {
                "type": "Point",
                "coordinates": [
                  15.6598267,
                  46.9329448
                ]
              }
            },
            {
              "type": "Feature",
              "properties": {
                "id": "2085741954",
                "osm_type": "node",
                "lat": 47.0190573,
                "lon": 15.6883357,
                "addr:city": "Sankt Marein bei Graz",
                "addr:country": "AT",
                "addr:housenumber": "15",
                "addr:postcode": "8323",
                "addr:street": "Markt",
                "amenity": "school",
                "contact:mobile": "+43 664 531 9124",
                "contact:phone": "+43 3119 5110",
                "isced:level": "2",
                "name": "Mittelschule St. Marein bei Graz",
                "old_name": "Hauptschule St. Marein bei Graz",
                "website": "https://www.ms-marein.at/"
              },
              "geometry": {
                "type": "Point",
                "coordinates": [
                  15.6883357,
                  47.0190573
                ]
              }
            },
            {
              "type": "Feature",
              "properties": {
                "id": "2111269988",
                "osm_type": "node",
                "lat": 47.0187304,
                "lon": 15.635998,
                "addr:housenumber": "11",
                "addr:place": "Krumegg",
                "addr:postcode": "8323",
                "amenity": "school",
                "name": "Volksschule Krumegg"
              },
              "geometry": {
                "type": "Point",
                "coordinates": [
                  15.635998,
                  47.0187304
                ]
              }
            },
            {
              "type": "Feature",
              "properties": {
                "id": "2450398136",
                "osm_type": "node",
                "lat": 46.8753555,
                "lon": 15.5752678,
                "addr:city": "Sankt Georgen an der Stiefing",
                "addr:country": "AT",
                "addr:postcode": "8413",
                "amenity": "school",
                "name": "Mittelschule",
                "website": "http://www.vs-stgeorgen.at"
              },
              "geometry": {
                "type": "Point",
                "coordinates": [
                  15.5752678,
                  46.8753555
                ]
              }
            },
            {
              "type": "Feature",
              "properties": {
                "id": "3186284191",
                "osm_type": "node",
                "lat": 47.0188723,
                "lon": 15.6884883,
                "addr:city": "Sankt Marein bei Graz",
                "addr:country": "AT",
                "addr:housenumber": "15",
                "addr:postcode": "8323",
                "addr:street": "Markt",
                "amenity": "school",
                "atm": "yes",
                "contact:phone": "+43 3119 2286",
                "isced:level": "1",
                "name": "Volksschule St. Marein bei Graz",
                "website": "https://www.vs-marein.at/"
              },
              "geometry": {
                "type": "Point",
                "coordinates": [
                  15.6884883,
                  47.0188723
                ]
              }
            },
            {
              "type": "Feature",
              "properties": {
                "id": "3239610694",
                "osm_type": "node",
                "lat": 46.9126224,
                "lon": 15.5514614,
                "amenity": "school",
                "name": "Schule",
                "operator": "Gemeinde Allerheiligen bei Wildon"
              },
              "geometry": {
                "type": "Point",
                "coordinates": [
                  15.5514614,
                  46.9126224
                ]
              }
            },
            {
              "type": "Feature",
              "properties": {
                "id": "3596510850",
                "osm_type": "node",
                "lat": 46.9071518,
                "lon": 15.7085188,
                "addr:postcode": "8083",
                "amenity": "school",
                "name": "Volksschule",
                "old_name": "Hauptschule St. Stefan im Rosental"
              },
              "geometry": {
                "type": "Point",
                "coordinates": [
                  15.7085188,
                  46.9071518
                ]
              }
            },
            {
              "type": "Feature",
              "properties": {
                "id": "6858725469",
                "osm_type": "node",
                "lat": 47.0187112,
                "lon": 15.5622411,
                "addr:city": "Vasoldsberg",
                "addr:country": "AT",
                "addr:housenumber": "26",
                "addr:postcode": "8076",
                "addr:street": "Gemeindestraße",
                "amenity": "school",
                "email": "vs.vasoldsberg@chello.at",
                "name": "Volksschule Vasoldsberg Jenaplan",
                "phone": "+43 3135 47460",
                "website": "https://www.vs-vasoldsberg.at/"
              },
              "geometry": {
                "type": "Point",
                "coordinates": [
                  15.5622411,
                  47.0187112
                ]
              }
            },
            {
              "type": "Feature",
              "properties": {
                "id": "10416624034",
                "osm_type": "node",
                "lat": 46.8938983,
                "lon": 15.5589681,
                "amenity": "school",
                "description": "Fachschule für Land- und Ernährungswirtschaft",
                "name": "Fachschule Neudorf",
                "website": "https://www.fachschulen.steiermark.at/cms/ziel/105341058/DE"
              },
              "geometry": {
                "type": "Point",
                "coordinates": [
                  15.5589681,
                  46.8938983
                ]
              }
            }
          ],
          "children": []
        },
        {
          "bbox": {
            "south": 46.868481875,
            "west": 15.73002475,
            "north": 47.033758500000005,
            "east": 16.2068765
          },
          "poiCount": 17,
          "leafCount": 17,
          "averagePosition": [
            15.905344235294118,
            46.93782284117647
          ],
          "data": [
            {
              "type": "Feature",
              "properties": {
                "id": "677437707",
                "osm_type": "node",
                "lat": 46.8785192,
                "lon": 15.9088129,
                "addr:city": "Bad Gleichenberg",
                "addr:housenumber": "16",
                "addr:postcode": "8344",
                "addr:street": "Mailandbergstraße",
                "amenity": "school",
                "name": "Landesberufsschule für Tourismus",
                "wikidata": "Q19288772"
              },
              "geometry": {
                "type": "Point",
                "coordinates": [
                  15.9088129,
                  46.8785192
                ]
              }
            },
            {
              "type": "Feature",
              "properties": {
                "id": "704297154",
                "osm_type": "node",
                "lat": 46.9896186,
                "lon": 15.7609446,
                "amenity": "school",
                "name": "Volksschule"
              },
              "geometry": {
                "type": "Point",
                "coordinates": [
                  15.7609446,
                  46.9896186
                ]
              }
            },
            {
              "type": "Feature",
              "properties": {
                "id": "704297185",
                "osm_type": "node",
                "lat": 46.9896403,
                "lon": 15.7600862,
                "addr:housenumber": "121",
                "addr:postcode": "8324",
                "addr:street": "Kirchberg an der Raab",
                "amenity": "school",
                "name": "Musikmittelschule Kirchberg an der Raab",
                "short_name": "MMS Kirchberg an der Raab",
                "website": "https://www.schulzentrum-kirchberg.at/"
              },
              "geometry": {
                "type": "Point",
                "coordinates": [
                  15.7600862,
                  46.9896403
                ]
              }
            },
            {
              "type": "Feature",
              "properties": {
                "id": "1979408834",
                "osm_type": "node",
                "lat": 46.8779309,
                "lon": 15.9101047,
                "addr:city": "Bad Gleichenberg",
                "addr:housenumber": "4",
                "addr:postcode": "8344",
                "addr:street": "Mailandbergstraße",
                "amenity": "school",
                "name": "Volksschule"
              },
              "geometry": {
                "type": "Point",
                "coordinates": [
                  15.9101047,
                  46.8779309
                ]
              }
            },
            {
              "type": "Feature",
              "properties": {
                "id": "1980036659",
                "osm_type": "node",
                "lat": 46.8788408,
                "lon": 15.9127441,
                "addr:city": "Bad Gleichenberg",
                "addr:country": "AT",
                "addr:housenumber": "10",
                "addr:postcode": "8344",
                "addr:street": "Schulstraße",
                "amenity": "school",
                "contact:email": "direktion@msbg.at",
                "contact:phone": "+43 3159 2253",
                "isced:level": "2",
                "name": "Mittelschule Bad Gleichenberg",
                "old_name": "Hauptschule",
                "website": "http://www.nmsbg.at/nmsweb/index.php/kontakt"
              },
              "geometry": {
                "type": "Point",
                "coordinates": [
                  15.9127441,
                  46.8788408
                ]
              }
            },
            {
              "type": "Feature",
              "properties": {
                "id": "3320399569",
                "osm_type": "node",
                "lat": 46.9394456,
                "lon": 15.7996027,
                "addr:country": "AT",
                "addr:housenumber": "155",
                "addr:place": "Paldau",
                "addr:postcode": "8341",
                "amenity": "school",
                "contact:email": "ms.paldau@ms-paldau.at",
                "contact:phone": "+43 3150 5113",
                "isced:level": "2",
                "name": "Mittelschule Paldau"
              },
              "geometry": {
                "type": "Point",
                "coordinates": [
                  15.7996027,
                  46.9394456
                ]
              }
            },
            {
              "type": "Feature",
              "properties": {
                "id": "3320399882",
                "osm_type": "node",
                "lat": 46.9393357,
                "lon": 15.7991087,
                "addr:country": "AT",
                "addr:housenumber": "155",
                "addr:place": "Paldau",
                "addr:postcode": "8341",
                "amenity": "school",
                "contact:phone": "+43 3150 5112",
                "isced:level": "1",
                "name": "Volksschule Paldau",
                "website": "https://www.vspaldau.at/"
              },
              "geometry": {
                "type": "Point",
                "coordinates": [
                  15.7991087,
                  46.9393357
                ]
              }
            },
            {
              "type": "Feature",
              "properties": {
                "id": "3540016039",
                "osm_type": "node",
                "lat": 46.914794,
                "lon": 15.9260353,
                "addr:housenumber": "23",
                "addr:place": "Gossendorf",
                "addr:postcode": "8330",
                "amenity": "school",
                "name": "Volksschule Gossendorf",
                "phone": "+43 3159 2171",
                "website": "https://www.vsgossendorf.at/"
              },
              "geometry": {
                "type": "Point",
                "coordinates": [
                  15.9260353,
                  46.914794
                ]
              }
            },
            {
              "type": "Feature",
              "properties": {
                "id": "4704005159",
                "osm_type": "node",
                "lat": 46.9552886,
                "lon": 15.8859666,
                "addr:city": "Feldbach",
                "addr:housenumber": "6",
                "addr:postcode": "8330",
                "addr:street": "Pfarrgasse",
                "amenity": "school",
                "name": "BORG Feldbach",
                "phone": "+43 5 0248 062",
                "website": "https://www.borg-feldbach.at/"
              },
              "geometry": {
                "type": "Point",
                "coordinates": [
                  15.8859666,
                  46.9552886
                ]
              }
            },
            {
              "type": "Feature",
              "properties": {
                "id": "4704005160",
                "osm_type": "node",
                "lat": 46.9550947,
                "lon": 15.8859304,
                "addr:city": "Feldbach",
                "addr:housenumber": "6",
                "addr:postcode": "8330",
                "addr:street": "Pfarrgasse",
                "amenity": "school",
                "name": "HAK/HAS Feldbach",
                "phone": "+43 5 0248063100",
                "website": "https://www.hak-feldbach.at/"
              },
              "geometry": {
                "type": "Point",
                "coordinates": [
                  15.8859304,
                  46.9550947
                ]
              }
            },
            {
              "type": "Feature",
              "properties": {
                "id": "4704005161",
                "osm_type": "node",
                "lat": 46.9551758,
                "lon": 15.8859015,
                "addr:city": "Feldbach",
                "addr:housenumber": "6",
                "addr:postcode": "8330",
                "addr:street": "Pfarrgasse",
                "amenity": "school",
                "name": "HLW Feldbach",
                "phone": "+43 5 0248064",
                "website": "https://www.hlwfeldbach.at/"
              },
              "geometry": {
                "type": "Point",
                "coordinates": [
                  15.8859015,
                  46.9551758
                ]
              }
            },
            {
              "type": "Feature",
              "properties": {
                "id": "4704005163",
                "osm_type": "node",
                "lat": 46.9516988,
                "lon": 15.8864066,
                "addr:city": "Feldbach",
                "addr:housenumber": "21",
                "addr:postcode": "8330",
                "addr:street": "Ringstraße",
                "amenity": "school",
                "contact:phone": "+43 3152 2279",
                "isced:level": "2",
                "name": "Mittelschule/Sportmittelschule Feldbach",
                "website": "https://www.sport-mittelschule-feldbach.at/"
              },
              "geometry": {
                "type": "Point",
                "coordinates": [
                  15.8864066,
                  46.9516988
                ]
              }
            },
            {
              "type": "Feature",
              "properties": {
                "id": "4704005164",
                "osm_type": "node",
                "lat": 46.9512292,
                "lon": 15.8865697,
                "addr:city": "Feldbach",
                "addr:housenumber": "2",
                "addr:postcode": "8330",
                "addr:street": "Mozartweg",
                "amenity": "school",
                "name": "Polytechnische Schule Feldbach",
                "phone": "+43 3152 2093",
                "website": "https://www.poly-feldbach.at/"
              },
              "geometry": {
                "type": "Point",
                "coordinates": [
                  15.8865697,
                  46.9512292
                ]
              }
            },
            {
              "type": "Feature",
              "properties": {
                "id": "4704005165",
                "osm_type": "node",
                "lat": 46.9515531,
                "lon": 15.8866252,
                "addr:city": "Feldbach",
                "addr:country": "AT",
                "addr:housenumber": "23",
                "addr:postcode": "8330",
                "addr:street": "Ringstraße",
                "amenity": "school",
                "contact:phone": "+43 3152 2287",
                "isced:level": "1",
                "name": "Volksschule Feldbach 1",
                "website": "https://www.vs1-feldbach.at/"
              },
              "geometry": {
                "type": "Point",
                "coordinates": [
                  15.8866252,
                  46.9515531
                ]
              }
            },
            {
              "type": "Feature",
              "properties": {
                "id": "7466441846",
                "osm_type": "node",
                "lat": 46.9296961,
                "lon": 15.9984849,
                "amenity": "school",
                "name": "FS Schloss Stein"
              },
              "geometry": {
                "type": "Point",
                "coordinates": [
                  15.9984849,
                  46.9296961
                ]
              }
            },
            {
              "type": "Feature",
              "properties": {
                "id": "4544535111",
                "osm_type": "node",
                "lat": 46.9425794,
                "lon": 16.1486559,
                "addr:city": "Jennersdorf",
                "addr:housenumber": "4",
                "addr:postcode": "8380",
                "addr:street": "Schulstraße",
                "amenity": "school",
                "name": "BORG Jennersdorf"
              },
              "geometry": {
                "type": "Point",
                "coordinates": [
                  16.1486559,
                  46.9425794
                ]
              }
            },
            {
              "type": "Feature",
              "properties": {
                "id": "4544535112",
                "osm_type": "node",
                "lat": 46.9425475,
                "lon": 16.148872,
                "amenity": "school",
                "name": "BHAS Jennersdorf"
              },
              "geometry": {
                "type": "Point",
                "coordinates": [
                  16.148872,
                  46.9425475
                ]
              }
            }
          ],
          "children": []
        }
      ]
    },
    {
      "bbox": {
        "south": 46.70320525,
        "west": 16.2068765,
        "north": 47.033758500000005,
        "east": 17.16058
      },
      "poiCount": 13,
      "leafCount": 13,
      "averagePosition": [
        16.790277346153847,
        46.86343946923077
      ],
      "data": [
        {
          "type": "Feature",
          "properties": {
            "id": "7815160798",
            "osm_type": "node",
            "lat": 46.8581575,
            "lon": 16.5011331,
            "amenity": "school",
            "name": "Egykori általános iskola"
          },
          "geometry": {
            "type": "Point",
            "coordinates": [
              16.5011331,
              46.8581575
            ]
          }
        },
        {
          "type": "Feature",
          "properties": {
            "id": "2929721793",
            "osm_type": "node",
            "lat": 46.720494,
            "lon": 17.0141097,
            "addr:city": "Pacsa",
            "addr:housenumber": "13",
            "addr:postcode": "8761",
            "addr:street": "József Attila utca",
            "amenity": "school",
            "contact:fax": "+36 92 568 015",
            "email": "pacsaisk@altisk-pacsa.edu.hu",
            "name": "Általános iskola",
            "phone": "+36 92 568 014",
            "website": "https://www.pacsaiskola.hu/"
          },
          "geometry": {
            "type": "Point",
            "coordinates": [
              17.0141097,
              46.720494
            ]
          }
        },
        {
          "type": "Feature",
          "properties": {
            "id": "3446767724",
            "osm_type": "node",
            "lat": 46.780696,
            "lon": 16.839927,
            "addr:city": "Bocfölde",
            "addr:postcode": "8943",
            "amenity": "school",
            "source": "turistautak.hu",
            "source:date": "2011-09-19",
            "url": "http://turistautak.hu/poi.php?id=99361"
          },
          "geometry": {
            "type": "Point",
            "coordinates": [
              16.839927,
              46.780696
            ]
          }
        },
        {
          "type": "Feature",
          "properties": {
            "id": "3446767996",
            "osm_type": "node",
            "lat": 46.730601,
            "lon": 16.949042,
            "addr:city": "Zalaszentmihály",
            "addr:postcode": "8936",
            "amenity": "school",
            "name": "Általános iskola",
            "source": "turistautak.hu",
            "source:date": "2011-09-19",
            "url": "http://turistautak.hu/poi.php?id=98618"
          },
          "geometry": {
            "type": "Point",
            "coordinates": [
              16.949042,
              46.730601
            ]
          }
        },
        {
          "type": "Feature",
          "properties": {
            "id": "3459863239",
            "osm_type": "node",
            "lat": 46.867277,
            "lon": 16.547147,
            "addr:city": "Hegyhátszentjakab",
            "addr:postcode": "9934",
            "amenity": "school",
            "fixme": "resurvey (source was old)",
            "name": "Óvoda és általános iskola",
            "source": "turistautak.hu",
            "source:date": "2008-12-11",
            "url": "http://turistautak.hu/poi.php?id=28377"
          },
          "geometry": {
            "type": "Point",
            "coordinates": [
              16.547147,
              46.867277
            ]
          }
        },
        {
          "type": "Feature",
          "properties": {
            "id": "3479932384",
            "osm_type": "node",
            "lat": 46.835313,
            "lon": 16.853433,
            "amenity": "school",
            "name": "Báthory Szakközépiskola",
            "source": "turistautak.hu",
            "source:date": "2012-01-20",
            "url": "http://turistautak.hu/poi.php?id=49529"
          },
          "geometry": {
            "type": "Point",
            "coordinates": [
              16.853433,
              46.835313
            ]
          }
        },
        {
          "type": "Feature",
          "properties": {
            "id": "8694607906",
            "osm_type": "node",
            "lat": 46.7881047,
            "lon": 16.9311641,
            "addr:city": "Búcsúszentlászló",
            "addr:postcode": "8925",
            "amenity": "school",
            "name": "Széchenyi István Általános Iskola"
          },
          "geometry": {
            "type": "Point",
            "coordinates": [
              16.9311641,
              46.7881047
            ]
          }
        },
        {
          "type": "Feature",
          "properties": {
            "id": "2859679018",
            "osm_type": "node",
            "lat": 46.7377976,
            "lon": 17.107625,
            "addr:city": "Zalaapáti",
            "addr:postcode": "8741",
            "amenity": "school",
            "name": "Gábor Áron Általános Iskola"
          },
          "geometry": {
            "type": "Point",
            "coordinates": [
              17.107625,
              46.7377976
            ]
          }
        },
        {
          "type": "Feature",
          "properties": {
            "id": "11295219412",
            "osm_type": "node",
            "lat": 46.9896203,
            "lon": 16.2526197,
            "addr:city": "Heiligenkreuz im Lafnitztal",
            "addr:housenumber": "1",
            "addr:postcode": "7561",
            "addr:street": "Schulgasse",
            "amenity": "school",
            "name": "Volksschule Heiligenkreuz i/L"
          },
          "geometry": {
            "type": "Point",
            "coordinates": [
              16.2526197,
              46.9896203
            ]
          }
        },
        {
          "type": "Feature",
          "properties": {
            "id": "4565975962",
            "osm_type": "node",
            "lat": 47.0077237,
            "lon": 16.6088337,
            "addr:city": "Körmend",
            "addr:housenumber": "3",
            "addr:postcode": "9900",
            "addr:street": "Bajcsy-Zsilinszky utca",
            "amenity": "school",
            "name": "Kölcsey Ferenc Gimnázium"
          },
          "geometry": {
            "type": "Point",
            "coordinates": [
              16.6088337,
              47.0077237
            ]
          }
        },
        {
          "type": "Feature",
          "properties": {
            "id": "5898866337",
            "osm_type": "node",
            "lat": 47.0083604,
            "lon": 16.6019531,
            "addr:city": "Körmend",
            "addr:housenumber": "18",
            "addr:postcode": "9900",
            "addr:street": "Kölcsey Ferenc utca",
            "amenity": "school",
            "name": "Körmendi Alapfokú Zene- és Táncművészeti Iskola",
            "operator": "Szombathelyi Tankerületi Központ",
            "operator:type": "tankerületi_központ",
            "school": "music_school",
            "website": "https://muveszetikormend.hu/"
          },
          "geometry": {
            "type": "Point",
            "coordinates": [
              16.6019531,
              47.0083604
            ]
          }
        },
        {
          "type": "Feature",
          "properties": {
            "id": "8308340878",
            "osm_type": "node",
            "lat": 46.9571567,
            "lon": 16.9942118,
            "addr:city": "Pakod",
            "addr:postcode": "8799",
            "amenity": "school",
            "name": "Pókaszepetki Festetics Kristóf Általános Iskola Pakodi Tagintézménye"
          },
          "geometry": {
            "type": "Point",
            "coordinates": [
              16.9942118,
              46.9571567
            ]
          }
        },
        {
          "type": "Feature",
          "properties": {
            "id": "11158770200",
            "osm_type": "node",
            "lat": 46.9434112,
            "lon": 17.0724063,
            "addr:city": "Zalaszentgrót",
            "addr:housenumber": "1",
            "addr:postcode": "8790",
            "addr:street": "Zala utca",
            "amenity": "school",
            "name": "Koncz Dezső Óvoda, Általános Iskola és EGYMI",
            "official_name": "Koncz Dezső Óvoda, Általános Iskola, Kollégium, Készségfejlesztő Iskola és Egységes Gyógypedagógiai Módszertani Intézmény"
          },
          "geometry": {
            "type": "Point",
            "coordinates": [
              17.0724063,
              46.9434112
            ]
          }
        }
      ],
      "children": []
    }
  ]
}