{
  "bbox": {
    "south": 48.355971499999995,
    "west": 11.438358999999998,
    "north": 49.017078,
    "east": 13.345766
  },
  "poiCount": 136,
  "leafCount": 0,
  "averagePosition": [
    12.26071715,
    48.66455464705882
  ],
  "data": [],
  "children": [
    {
      "bbox": {
        "south": 48.355971499999995,
        "west": 11.438358999999998,
        "north": 48.68652475,
        "east": 12.392062499999998
      },
      "poiCount": 51,
      "leafCount": 0,
      "averagePosition": [
        11.948655509803922,
        48.49700937058823
      ],
      "data": [],
      "children": [
        {
          "bbox": {
            "south": 48.355971499999995,
            "west": 11.438358999999998,
            "north": 48.521248125,
            "east": 11.915210749999998
          },
          "poiCount": 14,
          "leafCount": 14,
          "averagePosition": [
            11.6651528,
            48.41989495714285
          ],
          "data": [
            {
              "type": "Feature",
              "properties": {
                "id": "559144300",
                "osm_type": "node",
                "lat": 48.3607642,
                "lon": 11.4497168,
                "addr:city": "Vierkirchen",
                "addr:country": "DE",
                "addr:housenumber": "35",
                "addr:postcode": "85256",
                "addr:street": "Indersdorfer Straße",
                "amenity": "school",
                "email": "2442.sekretariat@schule.bayern.de",
                "fax": "+49 8139 99391",
                "fee": "no",
                "grades": "1-4",
                "internet_access": "no",
                "level": "0,_1,_-1",
                "name": "Grundschule Vierkirchen",
                "operator": "Gemeinde Vierkirchen",
                "operator:type": "public",
                "phone": "+49 8139 1217",
                "polling_station": "yes",
                "website": "https://www.gs-vierkirchen.de",
                "wheelchair": "limited"
              },
              "geometry": {
                "type": "Point",
                "coordinates": [
                  11.4497168,
                  48.3607642
                ]
              }
            },
            {
              "type": "Feature",
              "properties": {
                "id": "11385237910",
                "osm_type": "node",
                "lat": 48.3677335,
                "lon": 11.7021499,
                "addr:city": "Freising",
                "addr:country": "DE",
                "addr:housenumber": "12",
                "addr:postcode": "85354",
                "addr:street": "Am Schulweg",
                "amenity": "school",
                "name": "Grundschule Pulling",
                "phone": "+49 8161 13513"
              },
              "geometry": {
                "type": "Point",
                "coordinates": [
                  11.7021499,
                  48.3677335
                ]
              }
            },
            {
              "type": "Feature",
              "properties": {
                "id": "1111686049",
                "osm_type": "node",
                "lat": 48.4098666,
                "lon": 11.467784,
                "addr:housenumber": "6",
                "addr:postcode": "85238",
                "addr:street": "Jetzendorfer Straße",
                "amenity": "school",
                "email": "info@freilernen.de",
                "name": "Aktive Schule Petershausen, Frei Lernen e.V.",
                "phone": "+49 8137 6059860",
                "website": "https://aktive-schule-petershausen.de/"
              },
              "geometry": {
                "type": "Point",
                "coordinates": [
                  11.467784,
                  48.4098666
                ]
              }
            },
            {
              "type": "Feature",
              "properties": {
                "id": "1348086883",
                "osm_type": "node",
                "lat": 48.4357366,
                "lon": 11.4599957,
                "amenity": "school",
                "name": "Grundschule"
              },
              "geometry": {
                "type": "Point",
                "coordinates": [
                  11.4599957,
                  48.4357366
                ]
              }
            },
            {
              "type": "Feature",
              "properties": {
                "id": "3094093351",
                "osm_type": "node",
                "lat": 48.5015076,
                "lon": 11.4536485,
                "amenity": "school",
                "name": "Staatliche Berufsoberschule und Fachoberschule Scheyern",
                "website": "https://bos-scheyern.de/bo/"
              },
              "geometry": {
                "type": "Point",
                "coordinates": [
                  11.4536485,
                  48.5015076
                ]
              }
            },
            {
              "type": "Feature",
              "properties": {
                "id": "27508740",
                "osm_type": "node",
                "lat": 48.4093598,
                "lon": 11.7961872,
                "amenity": "school",
                "check_date": "2024-12-17",
                "name": "Grundschule Marzling",
                "wheelchair": "limited"
              },
              "geometry": {
                "type": "Point",
                "coordinates": [
                  11.7961872,
                  48.4093598
                ]
              }
            },
            {
              "type": "Feature",
              "properties": {
                "id": "778259102",
                "osm_type": "node",
                "lat": 48.3870072,
                "lon": 11.7570111,
                "amenity": "school",
                "check_date": "2025-06-04",
                "name": "Montessori-Mittelstufe",
                "opening_hours": "24/7 off \"COVID-19 precautions\"",
                "phone": "+49 8161 9846-10"
              },
              "geometry": {
                "type": "Point",
                "coordinates": [
                  11.7570111,
                  48.3870072
                ]
              }
            },
            {
              "type": "Feature",
              "properties": {
                "id": "2708542898",
                "osm_type": "node",
                "lat": 48.406151,
                "lon": 11.742175,
                "addr:city": "Freising",
                "addr:country": "DE",
                "addr:postcode": "85354",
                "addr:street": "Pallottinerstraße",
                "amenity": "school",
                "name": "Montessori Grundschule"
              },
              "geometry": {
                "type": "Point",
                "coordinates": [
                  11.742175,
                  48.406151
                ]
              }
            },
            {
              "type": "Feature",
              "properties": {
                "id": "4262172389",
                "osm_type": "node",
                "lat": 48.4029671,
                "lon": 11.7444277,
                "addr:city": "Freising",
                "addr:housenumber": "12",
                "addr:postcode": "85354",
                "addr:street": "Kammergasse",
                "amenity": "school",
                "check_date": "2023-11-09",
                "name": "vhs Freising",
                "phone": "+49 8161 49070",
                "toilets:wheelchair": "yes",
                "website": "https://www.vhs-freising.org/",
                "wheelchair": "yes",
                "wheelchair:description": "Rollstuhlgerechter Haupteingang (von rechts am Parkplatz ist der Anfahrweg) mit automatischen Türen. Fahrstuhl zu allen Etagen.  Rollstuhlgerechtes WC im 1. OG."
              },
              "geometry": {
                "type": "Point",
                "coordinates": [
                  11.7444277,
                  48.4029671
                ]
              }
            },
            {
              "type": "Feature",
              "properties": {
                "id": "5831763888",
                "osm_type": "node",
                "lat": 48.4805258,
                "lon": 11.7106998,
                "addr:city": "Wolfersdorf",
                "addr:country": "DE",
                "addr:housenumber": "12",
                "addr:postcode": "85395",
                "addr:street": "Ringstraße",
                "amenity": "school",
                "name": "Grundschule Wolfersdorf"
              },
              "geometry": {
                "type": "Point",
                "coordinates": [
                  11.7106998,
                  48.4805258
                ]
              }
            },
            {
              "type": "Feature",
              "properties": {
                "id": "6404723399",
                "osm_type": "node",
                "lat": 48.3984957,
                "lon": 11.7635009,
                "amenity": "school",
                "name": "Grundschule St. Lantbert"
              },
              "geometry": {
                "type": "Point",
                "coordinates": [
                  11.7635009,
                  48.3984957
                ]
              }
            },
            {
              "type": "Feature",
              "properties": {
                "id": "6678154439",
                "osm_type": "node",
                "lat": 48.5057945,
                "lon": 11.7561321,
                "addr:city": "Attenkirchen",
                "addr:country": "DE",
                "addr:housenumber": "6",
                "addr:postcode": "85395",
                "addr:street": "Schulstraße",
                "amenity": "school",
                "name": "Grundschule Attenkirchen"
              },
              "geometry": {
                "type": "Point",
                "coordinates": [
                  11.7561321,
                  48.5057945
                ]
              }
            },
            {
              "type": "Feature",
              "properties": {
                "id": "7706894517",
                "osm_type": "node",
                "lat": 48.4063734,
                "lon": 11.754427,
                "addr:city": "Freising",
                "addr:housenumber": "24",
                "addr:postcode": "85356",
                "addr:street": "Eckerstraße",
                "amenity": "school",
                "name": "Grundschule Neustift"
              },
              "geometry": {
                "type": "Point",
                "coordinates": [
                  11.754427,
                  48.4063734
                ]
              }
            },
            {
              "type": "Feature",
              "properties": {
                "id": "7706894518",
                "osm_type": "node",
                "lat": 48.4062464,
                "lon": 11.7542835,
                "amenity": "school",
                "name": "Mittelschule Neustift"
              },
              "geometry": {
                "type": "Point",
                "coordinates": [
                  11.7542835,
                  48.4062464
                ]
              }
            }
          ],
          "children": []
        },
        {
          "bbox": {
            "south": 48.355971499999995,
            "west": 11.915210749999998,
            "north": 48.521248125,
            "east": 12.392062499999998
          },
          "poiCount": 13,
          "leafCount": 13,
          "averagePosition": [
            12.091410053846154,
            48.44477566923077
          ],
          "data": [
            {
              "type": "Feature",
              "properties": {
                "id": "255583243",
                "osm_type": "node",
                "lat": 48.404003,
                "lon": 11.982897,
                "addr:city": "Wartenberg",
                "addr:country": "DE",
                "addr:housenumber": "1",
                "addr:postcode": "85456",
                "addr:street": "Zustorfer Straße",
                "amenity": "school",
                "check_date": "2024-09-28",
                "designation": "Grund- und Mittelschule",
                "name": "Marie-Pettenbeck-Schule",
                "toilets:wheelchair": "yes",
                "wheelchair": "no"
              },
              "geometry": {
                "type": "Point",
                "coordinates": [
                  11.982897,
                  48.404003
                ]
              }
            },
            {
              "type": "Feature",
              "properties": {
                "id": "319533025",
                "osm_type": "node",
                "lat": 48.4239369,
                "lon": 11.9708907,
                "addr:city": "Langenpreising",
                "addr:country": "DE",
                "addr:housenumber": "2",
                "addr:postcode": "85465",
                "addr:street": "Prisostraße",
                "amenity": "school",
                "check_date": "2025-01-05",
                "name": "Grundschule Langenpreising",
                "toilets:wheelchair": "yes",
                "wheelchair": "yes"
              },
              "geometry": {
                "type": "Point",
                "coordinates": [
                  11.9708907,
                  48.4239369
                ]
              }
            },
            {
              "type": "Feature",
              "properties": {
                "id": "320500411",
                "osm_type": "node",
                "lat": 48.4233921,
                "lon": 11.970644,
                "amenity": "school",
                "check_date": "2025-01-05",
                "name": "Turnhalle",
                "wheelchair": "yes"
              },
              "geometry": {
                "type": "Point",
                "coordinates": [
                  11.970644,
                  48.4233921
                ]
              }
            },
            {
              "type": "Feature",
              "properties": {
                "id": "619270098",
                "osm_type": "node",
                "lat": 48.475666,
                "lon": 11.936927,
                "addr:city": "Moosburg a.d. Isar",
                "addr:country": "DE",
                "addr:housenumber": "2",
                "addr:postcode": "85368",
                "addr:street": "Schlesierstraße",
                "amenity": "school",
                "check_date": "2025-01-14",
                "name": "Georg-Hummel-Mittelschule",
                "website": "https://mittelschule-moosburg.jimdoweb.com/",
                "wheelchair": "limited"
              },
              "geometry": {
                "type": "Point",
                "coordinates": [
                  11.936927,
                  48.475666
                ]
              }
            },
            {
              "type": "Feature",
              "properties": {
                "id": "2306053659",
                "osm_type": "node",
                "lat": 48.4627615,
                "lon": 11.9308382,
                "addr:city": "Moosburg a.d. Isar",
                "addr:country": "DE",
                "addr:housenumber": "29",
                "addr:postcode": "85368",
                "addr:street": "Münchener Straße",
                "amenity": "school",
                "check_date": "2024-12-06",
                "name": "Anton-Vitzthum-Grundschule",
                "old_name": "Grundschule Süd",
                "phone": "+49 8761 4284",
                "website": "https://www.anton-vitzthum-grundschule.de/"
              },
              "geometry": {
                "type": "Point",
                "coordinates": [
                  11.9308382,
                  48.4627615
                ]
              }
            },
            {
              "type": "Feature",
              "properties": {
                "id": "8676769618",
                "osm_type": "node",
                "lat": 48.4751963,
                "lon": 11.9368815,
                "addr:city": "Moosburg a.d. Isar",
                "addr:country": "DE",
                "addr:housenumber": "14",
                "addr:postcode": "85368",
                "addr:street": "Albinstraße",
                "amenity": "school",
                "check_date": "2024-12-06",
                "name": "Theresia-Gerhardinger-Grundschule",
                "phone": "+49 8761 4466",
                "website": "https://tg-moosburg.de/",
                "wheelchair": "limited"
              },
              "geometry": {
                "type": "Point",
                "coordinates": [
                  11.9368815,
                  48.4751963
                ]
              }
            },
            {
              "type": "Feature",
              "properties": {
                "id": "1183507565",
                "osm_type": "node",
                "lat": 48.4025333,
                "lon": 12.0845813,
                "amenity": "school",
                "check_date": "2024-08-24",
                "name": "Grundschule Schröding"
              },
              "geometry": {
                "type": "Point",
                "coordinates": [
                  12.0845813,
                  48.4025333
                ]
              }
            },
            {
              "type": "Feature",
              "properties": {
                "id": "2241424555",
                "osm_type": "node",
                "lat": 48.4762232,
                "lon": 12.2589398,
                "addr:city": "Geisenhausen",
                "addr:housenumber": "3",
                "addr:postcode": "84144",
                "addr:street": "Martinstraße",
                "amenity": "school",
                "name": "Montessori Grundschule Geisenhausen"
              },
              "geometry": {
                "type": "Point",
                "coordinates": [
                  12.2589398,
                  48.4762232
                ]
              }
            },
            {
              "type": "Feature",
              "properties": {
                "id": "4077884142",
                "osm_type": "node",
                "lat": 48.3847752,
                "lon": 12.132954,
                "addr:city": "Hohenpolding",
                "addr:country": "DE",
                "addr:housenumber": "13",
                "addr:postcode": "84432",
                "addr:street": "Schulstraße",
                "amenity": "school",
                "name": "Grundschule"
              },
              "geometry": {
                "type": "Point",
                "coordinates": [
                  12.132954,
                  48.3847752
                ]
              }
            },
            {
              "type": "Feature",
              "properties": {
                "id": "8318843817",
                "osm_type": "node",
                "lat": 48.4497911,
                "lon": 12.1095039,
                "amenity": "school",
                "check_date": "2023-11-04",
                "name": "Grundschule Vilsheim"
              },
              "geometry": {
                "type": "Point",
                "coordinates": [
                  12.1095039,
                  48.4497911
                ]
              }
            },
            {
              "type": "Feature",
              "properties": {
                "id": "12288348691",
                "osm_type": "node",
                "lat": 48.4757322,
                "lon": 12.2578522,
                "addr:city": "Geisenhausen",
                "addr:housenumber": "12",
                "addr:postcode": "84144",
                "addr:street": "Lorenzerstraße",
                "amenity": "school",
                "grades": "10-12",
                "name": "Fachoberschule Geisenhausen",
                "operator": "Montesori Landshut",
                "short_name": "FOS",
                "website": "https://fos.montessori-landshut.de/"
              },
              "geometry": {
                "type": "Point",
                "coordinates": [
                  12.2578522,
                  48.4757322
                ]
              }
            },
            {
              "type": "Feature",
              "properties": {
                "id": "12288348692",
                "osm_type": "node",
                "lat": 48.476291,
                "lon": 12.258411,
                "addr:city": "Geisenhausen",
                "addr:housenumber": "3",
                "addr:postcode": "84144",
                "addr:street": "Martinstraße",
                "amenity": "school",
                "name": "Mittelschule",
                "operator": "Montesori Landshut",
                "website": "https://schule.montessori-landshut.de/"
              },
              "geometry": {
                "type": "Point",
                "coordinates": [
                  12.258411,
                  48.476291
                ]
              }
            },
            {
              "type": "Feature",
              "properties": {
                "id": "12718706955",
                "osm_type": "node",
                "lat": 48.4517819,
                "lon": 12.3570101,
                "addr:city": "Vilsbiburg",
                "addr:housenumber": "6",
                "addr:postcode": "84137",
                "addr:street": "Kirchstraße",
                "amenity": "school",
                "email": "sekretariat@grundschule-vilsbiburg.de",
                "fax": "+49 8741 3201",
                "name": "Grundschule Vilsbiburg",
                "operator": "Stadt Vilsbiburg",
                "phone": "+49 8741 6555",
                "website": "https://www.grundschule-vilsbiburg.de/"
              },
              "geometry": {
                "type": "Point",
                "coordinates": [
                  12.3570101,
                  48.4517819
                ]
              }
            }
          ],
          "children": []
        },
        {
          "bbox": {
            "south": 48.521248125,
            "west": 11.438358999999998,
            "north": 48.68652475,
            "east": 11.915210749999998
          },
          "poiCount": 7,
          "leafCount": 7,
          "averagePosition": [
            11.716923542857144,
            48.60116287142857
          ],
          "data": [
            {
              "type": "Feature",
              "properties": {
                "id": "3725975348",
                "osm_type": "node",
                "lat": 48.5338413,
                "lon": 11.5008314,
                "amenity": "school",
                "name": "Dr. Eisenmann Landwirtschaftsschule"
              },
              "geometry": {
                "type": "Point",
                "coordinates": [
                  11.5008314,
                  48.5338413
                ]
              }
            },
            {
              "type": "Feature",
              "properties": {
                "id": "60358690",
                "osm_type": "node",
                "lat": 48.5533091,
                "lon": 11.7402241,
                "addr:city": "Au i.d. Hallertau",
                "addr:country": "DE",
                "addr:housenumber": "32",
                "addr:postcode": "84072",
                "addr:street": "Hochfeldstraße",
                "amenity": "school",
                "name": "Staatliche Realschule Au in der Hallertau",
                "website": "https://www.rs-hallertau.de",
                "wheelchair": "no"
              },
              "geometry": {
                "type": "Point",
                "coordinates": [
                  11.7402241,
                  48.5533091
                ]
              }
            },
            {
              "type": "Feature",
              "properties": {
                "id": "60358697",
                "osm_type": "node",
                "lat": 48.5552222,
                "lon": 11.7431185,
                "amenity": "school",
                "check_date": "2024-12-05",
                "name": "Grundschule Au",
                "wheelchair": "no"
              },
              "geometry": {
                "type": "Point",
                "coordinates": [
                  11.7431185,
                  48.5552222
                ]
              }
            },
            {
              "type": "Feature",
              "properties": {
                "id": "1840609802",
                "osm_type": "node",
                "lat": 48.6010959,
                "lon": 11.8732107,
                "addr:city": "Volkenschwand",
                "addr:housename": "Grundschule Volkenschwand",
                "addr:housenumber": "9",
                "addr:postcode": "84106",
                "addr:street": "Neuhausener Straße",
                "amenity": "school",
                "name": "Grundschule Volkenschwand"
              },
              "geometry": {
                "type": "Point",
                "coordinates": [
                  11.8732107,
                  48.6010959
                ]
              }
            },
            {
              "type": "Feature",
              "properties": {
                "id": "2093520153",
                "osm_type": "node",
                "lat": 48.6813508,
                "lon": 11.6068521,
                "amenity": "school",
                "check_date": "2024-08-20",
                "name": "Grund- und Mittelschule"
              },
              "geometry": {
                "type": "Point",
                "coordinates": [
                  11.6068521,
                  48.6813508
                ]
              }
            },
            {
              "type": "Feature",
              "properties": {
                "id": "2246871962",
                "osm_type": "node",
                "lat": 48.6417289,
                "lon": 11.7769065,
                "amenity": "school",
                "name": "VHS Mainburg"
              },
              "geometry": {
                "type": "Point",
                "coordinates": [
                  11.7769065,
                  48.6417289
                ]
              }
            },
            {
              "type": "Feature",
              "properties": {
                "id": "5366123121",
                "osm_type": "node",
                "lat": 48.6415919,
                "lon": 11.7773215,
                "addr:city": "Mainburg",
                "addr:country": "DE",
                "addr:postcode": "84048",
                "addr:street": "Andreas-Lochner-Straße",
                "amenity": "school",
                "name": "Hallertauer Imker Schulungszentrum",
                "operator": "Bienenzucht- und Obstbauverein Enzelhausen 1899"
              },
              "geometry": {
                "type": "Point",
                "coordinates": [
                  11.7773215,
                  48.6415919
                ]
              }
            }
          ],
          "children": []
        },
        {
          "bbox": {
            "south": 48.521248125,
            "west": 11.915210749999998,
            "north": 48.68652475,
            "east": 12.392062499999998
          },
          "poiCount": 17,
          "leafCount": 17,
          "averagePosition": [
            12.168382135294118,
            48.55757204117647
          ],
          "data": [
            {
              "type": "Feature",
              "properties": {
                "id": "391552413",
                "osm_type": "node",
                "lat": 48.6570023,
                "lon": 12.0904858,
                "addr:city": "Hohenthann",
                "addr:country": "DE",
                "addr:housenumber": "12",
                "addr:postcode": "84098",
                "addr:street": "Schulstraße",
                "amenity": "school",
                "email": "sekretariat@gs-hohenthann.de",
                "name": "Grundschule Hohenthann",
                "phone": "+49 8784 231",
                "website": "https://www.gs-hohenthann.de"
              },
              "geometry": {
                "type": "Point",
                "coordinates": [
                  12.0904858,
                  48.6570023
                ]
              }
            },
            {
              "type": "Feature",
              "properties": {
                "id": "1064344478",
                "osm_type": "node",
                "lat": 48.5539931,
                "lon": 12.2700412,
                "addr:city": "Adlkofen",
                "addr:housenumber": "1",
                "addr:postcode": "84166",
                "addr:street": "Blumberger Straße",
                "amenity": "school",
                "name": "Lehr- und Beispielsbetrieb für Obstbau",
                "website": "https://www.obstbau-deutenkofen.de/",
                "wheelchair": "yes"
              },
              "geometry": {
                "type": "Point",
                "coordinates": [
                  12.2700412,
                  48.5539931
                ]
              }
            },
            {
              "type": "Feature",
              "properties": {
                "id": "1888844300",
                "osm_type": "node",
                "lat": 48.5640625,
                "lon": 12.1730972,
                "amenity": "school",
                "check_date": "2024-08-05",
                "name": "Sonderpädagogisches Förderzentrum"
              },
              "geometry": {
                "type": "Point",
                "coordinates": [
                  12.1730972,
                  48.5640625
                ]
              }
            },
            {
              "type": "Feature",
              "properties": {
                "id": "1888844302",
                "osm_type": "node",
                "lat": 48.5632934,
                "lon": 12.1401654,
                "addr:city": "Landshut",
                "addr:country": "DE",
                "addr:housenumber": "18",
                "addr:postcode": "84030",
                "addr:street": "Straubinger Straße",
                "amenity": "school",
                "check_date": "2024-12-25",
                "name": "1. Bayerische Fleischerschule"
              },
              "geometry": {
                "type": "Point",
                "coordinates": [
                  12.1401654,
                  48.5632934
                ]
              }
            },
            {
              "type": "Feature",
              "properties": {
                "id": "2503800934",
                "osm_type": "node",
                "lat": 48.5406765,
                "lon": 12.1456991,
                "addr:city": "Landshut",
                "addr:country": "DE",
                "addr:housenumber": "2",
                "addr:postcode": "84034",
                "addr:street": "Nikolastraße",
                "amenity": "school",
                "check_date": "2024-07-07",
                "email": "sekretariat@gs-nikola.de",
                "isced:level": "1",
                "name": "Grundschule St. Nikola",
                "operator": "Stadt Landshut",
                "operator:type": "public",
                "phone": "+49 871 4303814",
                "website": "https://www.gs-nikola.de"
              },
              "geometry": {
                "type": "Point",
                "coordinates": [
                  12.1456991,
                  48.5406765
                ]
              }
            },
            {
              "type": "Feature",
              "properties": {
                "id": "2503800935",
                "osm_type": "node",
                "lat": 48.5410178,
                "lon": 12.1451815,
                "addr:city": "Landshut",
                "addr:country": "DE",
                "addr:housenumber": "2",
                "addr:postcode": "84034",
                "addr:street": "Nikolastraße",
                "amenity": "school",
                "check_date": "2024-07-12",
                "name": "Mittelschule St. Nikola"
              },
              "geometry": {
                "type": "Point",
                "coordinates": [
                  12.1451815,
                  48.5410178
                ]
              }
            },
            {
              "type": "Feature",
              "properties": {
                "id": "4207213495",
                "osm_type": "node",
                "lat": 48.5383647,
                "lon": 12.1550984,
                "addr:city": "Landshut",
                "addr:country": "DE",
                "addr:housenumber": "537",
                "addr:postcode": "84028",
                "addr:street": "Bischof-Sailer-Platz",
                "amenity": "school",
                "check_date": "2023-10-27",
                "email": "sekretariat@ursulinen-realschule-landshut.de",
                "name": "Ursulinen-Realschule-Landshut",
                "opening_hours": "Mo-Fr 07:30-14:45",
                "phone": "+49 871 24220",
                "website": "http://www.ursulinen-realschule-landshut.de",
                "wikidata": "Q98697940"
              },
              "geometry": {
                "type": "Point",
                "coordinates": [
                  12.1550984,
                  48.5383647
                ]
              }
            },
            {
              "type": "Feature",
              "properties": {
                "id": "4581225680",
                "osm_type": "node",
                "lat": 48.5347855,
                "lon": 12.1539952,
                "addr:city": "Landshut",
                "addr:country": "DE",
                "addr:housenumber": "498",
                "addr:postcode": "84028",
                "addr:street": "Neustadt",
                "amenity": "school",
                "check_date": "2024-05-07",
                "contact:website": "http://www.los.de/los-landshut/",
                "email": "info@los-landshut.de",
                "name": "LOS Lesen und Schreiben",
                "operator": "Dienst!AG",
                "phone": "+49 871 9657101",
                "website": "https://www.los.de/landshut"
              },
              "geometry": {
                "type": "Point",
                "coordinates": [
                  12.1539952,
                  48.5347855
                ]
              }
            },
            {
              "type": "Feature",
              "properties": {
                "id": "6676183520",
                "osm_type": "node",
                "lat": 48.6159596,
                "lon": 12.3808994,
                "amenity": "school",
                "name": "Realschule St. Maria",
                "website": "https://www.realschule-stmaria.de"
              },
              "geometry": {
                "type": "Point",
                "coordinates": [
                  12.3808994,
                  48.6159596
                ]
              }
            },
            {
              "type": "Feature",
              "properties": {
                "id": "6685204263",
                "osm_type": "node",
                "lat": 48.5424804,
                "lon": 12.148536,
                "addr:city": "Landshut",
                "addr:country": "DE",
                "addr:housenumber": "14",
                "addr:postcode": "84034",
                "addr:street": "Bismarckplatz",
                "amenity": "school",
                "check_date": "2024-07-12",
                "name": "Grundschule Seligenthal",
                "phone": "+49 871 821-400",
                "website": "https://grundschule.seligenthal.de/"
              },
              "geometry": {
                "type": "Point",
                "coordinates": [
                  12.148536,
                  48.5424804
                ]
              }
            },
            {
              "type": "Feature",
              "properties": {
                "id": "6685204264",
                "osm_type": "node",
                "lat": 48.5419334,
                "lon": 12.1476226,
                "addr:city": "Landshut",
                "addr:housenumber": "14",
                "addr:postcode": "84034",
                "addr:street": "Bismarckplatz",
                "amenity": "school",
                "charge": "40 EUR/Month",
                "check_date": "2024-07-12",
                "denomination": "roman_catholic",
                "email": "gymnasium@seligenthal.de",
                "fax": "+49 871 821205",
                "fee": "yes",
                "grades": "5-12",
                "image": "File:Kloster Seligenthal (Landshut).jpg",
                "internet_access": "wlan",
                "internet_access:ssid": "Hotspot Seligenthal",
                "name": "Gymnasium Seligenthal",
                "opening_hours": "Mo-Th 07:30-15:30; Fr 07:30-13:30; SH off \"Sekretariat\"",
                "operator": "SchulstiftungSeligenthal",
                "operator:type": "private",
                "phone": "+49 871 821203",
                "religion": "christian",
                "source": "Website;Local knowlege",
                "website": "https://gymnasium.seligenthal.de/",
                "wheelchair": "yes",
                "wikidata": "Q1558228",
                "wikipedia": "de:Gymnasium Seligenthal"
              },
              "geometry": {
                "type": "Point",
                "coordinates": [
                  12.1476226,
                  48.5419334
                ]
              }
            },
            {
              "type": "Feature",
              "properties": {
                "id": "6685204265",
                "osm_type": "node",
                "lat": 48.5422034,
                "lon": 12.1476109,
                "addr:city": "Landshut",
                "addr:housenumber": "14",
                "addr:postcode": "84034",
                "addr:street": "Bismarckplatz",
                "amenity": "school",
                "check_date": "2024-12-24",
                "name": "Wirtschaftsschule Seligenthal"
              },
              "geometry": {
                "type": "Point",
                "coordinates": [
                  12.1476109,
                  48.5422034
                ]
              }
            },
            {
              "type": "Feature",
              "properties": {
                "id": "6685204266",
                "osm_type": "node",
                "lat": 48.5416337,
                "lon": 12.1481268,
                "addr:city": "Landshut",
                "addr:country": "DE",
                "addr:housenumber": "14",
                "addr:postcode": "84034",
                "addr:street": "Bismarckplatz",
                "amenity": "school",
                "check_date": "2024-12-24",
                "name": "Fachakademie für Sozialpädagogik",
                "phone": "+49 871 821-0",
                "website": "https://fachakademie.seligenthal.de/"
              },
              "geometry": {
                "type": "Point",
                "coordinates": [
                  12.1481268,
                  48.5416337
                ]
              }
            },
            {
              "type": "Feature",
              "properties": {
                "id": "6778227492",
                "osm_type": "node",
                "lat": 48.5637285,
                "lon": 12.1612618,
                "addr:housenumber": "16",
                "addr:street": "Industriestraße",
                "amenity": "school",
                "check_date": "2024-03-30",
                "name": "Fachschule für das Bauhandwerk",
                "website": "http://www.baufachschule-landshut.de/"
              },
              "geometry": {
                "type": "Point",
                "coordinates": [
                  12.1612618,
                  48.5637285
                ]
              }
            },
            {
              "type": "Feature",
              "properties": {
                "id": "9966705405",
                "osm_type": "node",
                "lat": 48.5374848,
                "lon": 12.1610314,
                "addr:city": "Landshut",
                "addr:country": "DE",
                "addr:housenumber": "11",
                "addr:postcode": "84028",
                "addr:street": "Marienplatz",
                "amenity": "school",
                "check_date": "2024-12-10",
                "email": "staatl.fachoberschule@landshut.org",
                "fax": "+49 871 96676 20",
                "name": "Staatliche Fachoberschule Landshut",
                "phone": "+49 871 96676 0",
                "source": "Bing",
                "website": "https://fos-landshut.de/",
                "wheelchair": "no"
              },
              "geometry": {
                "type": "Point",
                "coordinates": [
                  12.1610314,
                  48.5374848
                ]
              }
            },
            {
              "type": "Feature",
              "properties": {
                "id": "9966705406",
                "osm_type": "node",
                "lat": 48.5367097,
                "lon": 12.1610426,
                "addr:city": "Landshut",
                "addr:country": "DE",
                "addr:housenumber": "8",
                "addr:postcode": "84028",
                "addr:street": "Marienplatz",
                "amenity": "school",
                "check_date": "2023-12-01",
                "name": "Keramikerschule",
                "wheelchair": "no",
                "wikidata": "Q134385464"
              },
              "geometry": {
                "type": "Point",
                "coordinates": [
                  12.1610426,
                  48.5367097
                ]
              }
            },
            {
              "type": "Feature",
              "properties": {
                "id": "10136227309",
                "osm_type": "node",
                "lat": 48.5633954,
                "lon": 12.132601,
                "addr:city": "Landshut",
                "addr:country": "DE",
                "addr:housenumber": "2",
                "addr:postcode": "84032",
                "addr:street": "Im Spitalfeld",
                "amenity": "school",
                "name": "Waldorfschule",
                "website": "https://waldorfschule-landshut.de"
              },
              "geometry": {
                "type": "Point",
                "coordinates": [
                  12.132601,
                  48.5633954
                ]
              }
            }
          ],
          "children": []
        }
      ]
    },
    {
      "bbox": {
        "south": 48.355971499999995,
        "west": 12.392062499999998,
        "north": 48.68652475,
        "east": 13.345766
      },
      "poiCount": 24,
      "leafCount": 24,
      "averagePosition": [
        12.8877114375,
        48.529670466666666
      ],
      "data": [
        {
          "type": "Feature",
          "properties": {
            "id": "330909933",
            "osm_type": "node",
            "lat": 48.6312133,
            "lon": 12.5092248,
            "amenity": "school",
            "name": "VHS Dingolfing",
            "website": "https://www.vhs-dingolfing.de/ueber-uns/geschaeftsstelle/"
          },
          "geometry": {
            "type": "Point",
            "coordinates": [
              12.5092248,
              48.6312133
            ]
          }
        },
        {
          "type": "Feature",
          "properties": {
            "id": "937496709",
            "osm_type": "node",
            "lat": 48.5060503,
            "lon": 12.4203608,
            "amenity": "school",
            "name": "Volksschule Gerzen"
          },
          "geometry": {
            "type": "Point",
            "coordinates": [
              12.4203608,
              48.5060503
            ]
          }
        },
        {
          "type": "Feature",
          "properties": {
            "id": "4909051423",
            "osm_type": "node",
            "lat": 48.3931813,
            "lon": 12.4510464,
            "amenity": "school"
          },
          "geometry": {
            "type": "Point",
            "coordinates": [
              12.4510464,
              48.3931813
            ]
          }
        },
        {
          "type": "Feature",
          "properties": {
            "id": "277443045",
            "osm_type": "node",
            "lat": 48.4370246,
            "lon": 12.9317034,
            "amenity": "school",
            "name": "Betty-Greif-Schule"
          },
          "geometry": {
            "type": "Point",
            "coordinates": [
              12.9317034,
              48.4370246
            ]
          }
        },
        {
          "type": "Feature",
          "properties": {
            "id": "277443356",
            "osm_type": "node",
            "lat": 48.4363278,
            "lon": 12.9317631,
            "amenity": "school",
            "name": "Staatliche Realschule Pfarrkirchen",
            "wheelchair": "no"
          },
          "geometry": {
            "type": "Point",
            "coordinates": [
              12.9317631,
              48.4363278
            ]
          }
        },
        {
          "type": "Feature",
          "properties": {
            "id": "277443416",
            "osm_type": "node",
            "lat": 48.4360829,
            "lon": 12.9308876,
            "addr:city": "Pfarrkirchen",
            "addr:country": "DE",
            "addr:housenumber": "2",
            "addr:postcode": "84347",
            "addr:street": "Von-Fraunhofer-Straße",
            "amenity": "school",
            "name": "Berufliche Oberschule Pfarrkirchen (FOS/BOS PAN)",
            "phone": "+49 8561 8900",
            "toilets:wheelchair": "yes",
            "website": "http://www.fosbospfarrkirchen.de",
            "wheelchair": "yes",
            "wheelchair:description": "Rollstuhlrampe, Aufzug in alle Etagen, rollstuhlgerechte Toileten"
          },
          "geometry": {
            "type": "Point",
            "coordinates": [
              12.9308876,
              48.4360829
            ]
          }
        },
        {
          "type": "Feature",
          "properties": {
            "id": "277444096",
            "osm_type": "node",
            "lat": 48.4365235,
            "lon": 12.9301327,
            "amenity": "school",
            "name": "Johannes-Hirspeck-Volksschule"
          },
          "geometry": {
            "type": "Point",
            "coordinates": [
              12.9301327,
              48.4365235
            ]
          }
        },
        {
          "type": "Feature",
          "properties": {
            "id": "278132900",
            "osm_type": "node",
            "lat": 48.4358153,
            "lon": 12.9365782,
            "addr:city": "Pfarrkirchen",
            "addr:country": "DE",
            "addr:housenumber": "9",
            "addr:postcode": "84347",
            "addr:street": "Arnstorfer Straße",
            "amenity": "school",
            "name": "Gymnasium Pfarrkirchen",
            "wheelchair": "yes",
            "wikidata": "Q22996831"
          },
          "geometry": {
            "type": "Point",
            "coordinates": [
              12.9365782,
              48.4358153
            ]
          }
        },
        {
          "type": "Feature",
          "properties": {
            "id": "290043901",
            "osm_type": "node",
            "lat": 48.6715056,
            "lon": 12.6931376,
            "addr:city": "Landau an der Isar",
            "addr:country": "DE",
            "addr:housenumber": "60",
            "addr:postcode": "94405",
            "addr:street": "Fleischgasse",
            "amenity": "school",
            "name": "Montessori-Schule",
            "website": "https://montessori-landau-isar.de/"
          },
          "geometry": {
            "type": "Point",
            "coordinates": [
              12.6931376,
              48.6715056
            ]
          }
        },
        {
          "type": "Feature",
          "properties": {
            "id": "290043961",
            "osm_type": "node",
            "lat": 48.6675635,
            "lon": 12.6932718,
            "addr:city": "Landau an der Isar",
            "addr:country": "DE",
            "addr:housenumber": "2",
            "addr:postcode": "94405",
            "addr:street": "Maria-Ward-Platz",
            "amenity": "school",
            "name": "Mittelschule Landau an der Isar",
            "website": "https://ms-landau.de",
            "wheelchair": "yes"
          },
          "geometry": {
            "type": "Point",
            "coordinates": [
              12.6932718,
              48.6675635
            ]
          }
        },
        {
          "type": "Feature",
          "properties": {
            "id": "1386396513",
            "osm_type": "node",
            "lat": 48.6833521,
            "lon": 12.8776781,
            "amenity": "school",
            "name": "Mittelschule Wallerfing"
          },
          "geometry": {
            "type": "Point",
            "coordinates": [
              12.8776781,
              48.6833521
            ]
          }
        },
        {
          "type": "Feature",
          "properties": {
            "id": "1661550172",
            "osm_type": "node",
            "lat": 48.3931964,
            "lon": 13.0049112,
            "addr:city": "Triftern",
            "addr:country": "DE",
            "addr:housenumber": "4",
            "addr:postcode": "84371",
            "addr:street": "Schulstraße",
            "amenity": "school",
            "name": "Lenberger Grund- und Mittelschule Triftern",
            "phone": "+49 8562 440",
            "website": "http://www.vstriftern.de/",
            "wheelchair": "limited"
          },
          "geometry": {
            "type": "Point",
            "coordinates": [
              13.0049112,
              48.3931964
            ]
          }
        },
        {
          "type": "Feature",
          "properties": {
            "id": "2153225418",
            "osm_type": "node",
            "lat": 48.6318736,
            "lon": 12.8592118,
            "amenity": "school",
            "name": "Joseph-von-Eichendorff-Mittelschule"
          },
          "geometry": {
            "type": "Point",
            "coordinates": [
              12.8592118,
              48.6318736
            ]
          }
        },
        {
          "type": "Feature",
          "properties": {
            "id": "2245304785",
            "osm_type": "node",
            "lat": 48.6512758,
            "lon": 12.6058141,
            "addr:city": "Mamming",
            "addr:country": "DE",
            "addr:housenumber": "8",
            "addr:postcode": "94437",
            "addr:street": "Schulgasse",
            "amenity": "school",
            "contact:email": "schule@ms-mamming.de",
            "contact:fax": "+49 9955 931225",
            "contact:phone": "+49 9955 93120",
            "contact:website": "https://www.vs-mamming.de/",
            "name": "Grund- und Mittelschule Mamming-Gottfrieding",
            "operator": "Verwaltungsgemeinschaft Mamming-Gottfrieding"
          },
          "geometry": {
            "type": "Point",
            "coordinates": [
              12.6058141,
              48.6512758
            ]
          }
        },
        {
          "type": "Feature",
          "properties": {
            "id": "3217896227",
            "osm_type": "node",
            "lat": 48.5560471,
            "lon": 12.8173158,
            "amenity": "school",
            "name": "Grundschule Arnstorf"
          },
          "geometry": {
            "type": "Point",
            "coordinates": [
              12.8173158,
              48.5560471
            ]
          }
        },
        {
          "type": "Feature",
          "properties": {
            "id": "4771523146",
            "osm_type": "node",
            "lat": 48.6709108,
            "lon": 12.691838,
            "addr:city": "Landau an der Isar",
            "addr:country": "DE",
            "addr:housenumber": "25",
            "addr:postcode": "94405",
            "addr:street": "Ludwigstraße",
            "amenity": "school",
            "name": "vhs",
            "website": "https://www.vhs-landau.de/"
          },
          "geometry": {
            "type": "Point",
            "coordinates": [
              12.691838,
              48.6709108
            ]
          }
        },
        {
          "type": "Feature",
          "properties": {
            "id": "6874106184",
            "osm_type": "node",
            "lat": 48.6679358,
            "lon": 12.6930284,
            "addr:city": "Landau an der Isar",
            "addr:country": "DE",
            "addr:housenumber": "2",
            "addr:postcode": "94405",
            "addr:street": "Maria-Ward-Platz",
            "amenity": "school",
            "name": "Grundschule Landau an der Isar",
            "website": "https://gslandau.de/"
          },
          "geometry": {
            "type": "Point",
            "coordinates": [
              12.6930284,
              48.6679358
            ]
          }
        },
        {
          "type": "Feature",
          "properties": {
            "id": "10702277643",
            "osm_type": "node",
            "lat": 48.6308533,
            "lon": 12.6242666,
            "addr:city": "Mamming",
            "addr:country": "DE",
            "addr:housenumber": "1",
            "addr:postcode": "94437",
            "addr:street": "Schulweg",
            "addr:suburb": "Bubach",
            "amenity": "school",
            "contact:phone": "+49 9955 249",
            "contact:website": "https://www.vs-mamming.de/schule.html",
            "name": "Grundschule Bubach"
          },
          "geometry": {
            "type": "Point",
            "coordinates": [
              12.6242666,
              48.6308533
            ]
          }
        },
        {
          "type": "Feature",
          "properties": {
            "id": "447864470",
            "osm_type": "node",
            "lat": 48.5450946,
            "lon": 13.2270522,
            "amenity": "school",
            "denomination": "lutheran",
            "name": "Evangelische Realschule Ortenburg",
            "religion": "christian"
          },
          "geometry": {
            "type": "Point",
            "coordinates": [
              13.2270522,
              48.5450946
            ]
          }
        },
        {
          "type": "Feature",
          "properties": {
            "id": "565634896",
            "osm_type": "node",
            "lat": 48.4013648,
            "lon": 13.3159136,
            "addr:city": "Pocking",
            "addr:country": "DE",
            "addr:housenumber": "16",
            "addr:postcode": "94060",
            "addr:street": "Indlinger Straße",
            "amenity": "school",
            "name": "Mittelschule Pocking"
          },
          "geometry": {
            "type": "Point",
            "coordinates": [
              13.3159136,
              48.4013648
            ]
          }
        },
        {
          "type": "Feature",
          "properties": {
            "id": "567044723",
            "osm_type": "node",
            "lat": 48.400963,
            "lon": 13.3087099,
            "amenity": "school",
            "name": "Alte Schule"
          },
          "geometry": {
            "type": "Point",
            "coordinates": [
              13.3087099,
              48.400963
            ]
          }
        },
        {
          "type": "Feature",
          "properties": {
            "id": "572657071",
            "osm_type": "node",
            "lat": 48.4084559,
            "lon": 13.3186392,
            "amenity": "school",
            "name": "Anne-Frank-Schule (Sonderpädagogisches Förderzentrum)"
          },
          "geometry": {
            "type": "Point",
            "coordinates": [
              13.3186392,
              48.4084559
            ]
          }
        },
        {
          "type": "Feature",
          "properties": {
            "id": "1582332075",
            "osm_type": "node",
            "lat": 48.4371206,
            "lon": 13.3395664,
            "addr:city": "Ruhstorf a.d.Rott",
            "addr:country": "DE",
            "addr:housenumber": "12",
            "addr:postcode": "94099",
            "addr:street": "Am Schulplatz",
            "amenity": "school",
            "name": "Musik- Grund- und Mittelschule"
          },
          "geometry": {
            "type": "Point",
            "coordinates": [
              13.3395664,
              48.4371206
            ]
          }
        },
        {
          "type": "Feature",
          "properties": {
            "id": "2803586828",
            "osm_type": "node",
            "lat": 48.5823593,
            "lon": 13.1930228,
            "amenity": "school",
            "name": "Columba-Neef-Realschule"
          },
          "geometry": {
            "type": "Point",
            "coordinates": [
              13.1930228,
              48.5823593
            ]
          }
        }
      ],
      "children": []
    },
    {
      "bbox": {
        "south": 48.68652475,
        "west": 11.438358999999998,
        "north": 49.017078,
        "east": 12.392062499999998
      },
      "poiCount": 36,
      "leafCount": 36,
      "averagePosition": [
        11.924006316666667,
        48.85789229444444
      ],
      "data": [
        {
          "type": "Feature",
          "properties": {
            "id": "289465103",
            "osm_type": "node",
            "lat": 48.858375,
            "lon": 11.4550068,
            "amenity": "school",
            "name": "Grundschule Stammham"
          },
          "geometry": {
            "type": "Point",
            "coordinates": [
              11.4550068,
              48.858375
            ]
          }
        },
        {
          "type": "Feature",
          "properties": {
            "id": "521990099",
            "osm_type": "node",
            "lat": 48.8154691,
            "lon": 11.5011898,
            "addr:city": "Kösching",
            "addr:country": "DE",
            "addr:housenumber": "12",
            "addr:postcode": "85092",
            "addr:street": "Am Stegbach",
            "amenity": "school",
            "name": "Montessori-Schule Kösching"
          },
          "geometry": {
            "type": "Point",
            "coordinates": [
              11.5011898,
              48.8154691
            ]
          }
        },
        {
          "type": "Feature",
          "properties": {
            "id": "645374560",
            "osm_type": "node",
            "lat": 48.7541849,
            "lon": 11.4441799,
            "addr:housenumber": "42",
            "addr:postcode": "85053",
            "addr:street": "Feselenstraße",
            "amenity": "school",
            "name": "Wilhelm-Ernst-Grundschule",
            "website": "https://www.wilhelm-ernst-gs.de/"
          },
          "geometry": {
            "type": "Point",
            "coordinates": [
              11.4441799,
              48.7541849
            ]
          }
        },
        {
          "type": "Feature",
          "properties": {
            "id": "663674597",
            "osm_type": "node",
            "lat": 48.7206186,
            "lon": 11.4841661,
            "addr:city": "Manching",
            "addr:housenumber": "20",
            "addr:postcode": "85077",
            "addr:street": "Lindenstraße",
            "amenity": "school",
            "name": "Hauptschule Manching",
            "website": "http://www.mittelschule-manching.de/"
          },
          "geometry": {
            "type": "Point",
            "coordinates": [
              11.4841661,
              48.7206186
            ]
          }
        },
        {
          "type": "Feature",
          "properties": {
            "id": "5566669916",
            "osm_type": "node",
            "lat": 48.7067033,
            "lon": 11.5079147,
            "amenity": "school",
            "name": "Berufsbildung",
            "operator": "Airbus Defence and Space"
          },
          "geometry": {
            "type": "Point",
            "coordinates": [
              11.5079147,
              48.7067033
            ]
          }
        },
        {
          "type": "Feature",
          "properties": {
            "id": "358073060",
            "osm_type": "node",
            "lat": 48.7087787,
            "lon": 11.8126585,
            "amenity": "school",
            "check_date": "2025-05-27",
            "name": "Grundschule Elsendorf"
          },
          "geometry": {
            "type": "Point",
            "coordinates": [
              11.8126585,
              48.7087787
            ]
          }
        },
        {
          "type": "Feature",
          "properties": {
            "id": "364777782",
            "osm_type": "node",
            "lat": 48.8178263,
            "lon": 11.8423463,
            "addr:city": "Abensberg",
            "addr:country": "DE",
            "addr:housenumber": "12",
            "addr:postcode": "93326",
            "addr:street": "Römerstraße",
            "amenity": "school",
            "name": "Hauptschule",
            "phone": "+49 9443 6439"
          },
          "geometry": {
            "type": "Point",
            "coordinates": [
              11.8423463,
              48.8178263
            ]
          }
        },
        {
          "type": "Feature",
          "properties": {
            "id": "364777784",
            "osm_type": "node",
            "lat": 48.8171607,
            "lon": 11.8431821,
            "addr:city": "Abensberg",
            "addr:country": "DE",
            "addr:housenumber": "1",
            "addr:postcode": "93326",
            "addr:street": "Schulhausplatz",
            "amenity": "school",
            "check_date": "2024-11-18",
            "name": "Aventius Grundschule",
            "phone": "+49 9443 491"
          },
          "geometry": {
            "type": "Point",
            "coordinates": [
              11.8431821,
              48.8171607
            ]
          }
        },
        {
          "type": "Feature",
          "properties": {
            "id": "393456136",
            "osm_type": "node",
            "lat": 48.7041334,
            "lon": 12.0190882,
            "addr:city": "Rottenburg a. d. Laaber",
            "addr:country": "DE",
            "addr:housenumber": "20",
            "addr:postcode": "84056",
            "addr:street": "Pater-Wilhelm-Fink-Straße",
            "amenity": "school",
            "name": "Realschule",
            "operator": "Stadt Rottenburg"
          },
          "geometry": {
            "type": "Point",
            "coordinates": [
              12.0190882,
              48.7041334
            ]
          }
        },
        {
          "type": "Feature",
          "properties": {
            "id": "469331751",
            "osm_type": "node",
            "lat": 48.806128,
            "lon": 11.7658988,
            "addr:city": "Neustadt a.d.Donau",
            "addr:country": "DE",
            "addr:postcode": "93333",
            "amenity": "school",
            "name": "Grundschule Neustadt"
          },
          "geometry": {
            "type": "Point",
            "coordinates": [
              11.7658988,
              48.806128
            ]
          }
        },
        {
          "type": "Feature",
          "properties": {
            "id": "469351358",
            "osm_type": "node",
            "lat": 48.807081,
            "lon": 11.7668692,
            "addr:city": "Neustadt a.d.Donau",
            "addr:country": "DE",
            "addr:postcode": "93333",
            "amenity": "school",
            "name": "Hauptschule Neustadt"
          },
          "geometry": {
            "type": "Point",
            "coordinates": [
              11.7668692,
              48.807081
            ]
          }
        },
        {
          "type": "Feature",
          "properties": {
            "id": "481975275",
            "osm_type": "node",
            "lat": 48.8024334,
            "lon": 11.9091908,
            "addr:city": "Abensberg",
            "addr:country": "DE",
            "addr:housename": "Grundschule",
            "addr:housenumber": "7",
            "addr:postcode": "93326",
            "addr:street": "Schulstraße",
            "amenity": "school",
            "name": "Grundschule"
          },
          "geometry": {
            "type": "Point",
            "coordinates": [
              11.9091908,
              48.8024334
            ]
          }
        },
        {
          "type": "Feature",
          "properties": {
            "id": "487071568",
            "osm_type": "node",
            "lat": 48.7611876,
            "lon": 12.0203779,
            "amenity": "school"
          },
          "geometry": {
            "type": "Point",
            "coordinates": [
              12.0203779,
              48.7611876
            ]
          }
        },
        {
          "type": "Feature",
          "properties": {
            "id": "605235453",
            "osm_type": "node",
            "lat": 48.8133748,
            "lon": 11.8430382,
            "addr:city": "Abensberg",
            "addr:country": "DE",
            "addr:housenumber": "4",
            "addr:postcode": "93326",
            "addr:street": "Münchener Straße",
            "amenity": "school",
            "check_date": "2025-03-29",
            "name": "Landwirtschafts Schule",
            "phone": "+49 9443 704-0",
            "website": "https://www.lfl.bayern.de/",
            "wheelchair": "no"
          },
          "geometry": {
            "type": "Point",
            "coordinates": [
              11.8430382,
              48.8133748
            ]
          }
        },
        {
          "type": "Feature",
          "properties": {
            "id": "1579387828",
            "osm_type": "node",
            "lat": 48.8055755,
            "lon": 11.907502,
            "addr:city": "Abensberg",
            "addr:country": "DE",
            "addr:housenumber": "8",
            "addr:postcode": "93326",
            "addr:street": "Am Schmiedweiher",
            "amenity": "school",
            "name": "Cabrinischule Offenstetten",
            "wheelchair": "yes"
          },
          "geometry": {
            "type": "Point",
            "coordinates": [
              11.907502,
              48.8055755
            ]
          }
        },
        {
          "type": "Feature",
          "properties": {
            "id": "2707797905",
            "osm_type": "node",
            "lat": 48.791298,
            "lon": 11.8557111,
            "amenity": "school",
            "description": "Aussenstelle Biburg",
            "name": "Berufsbildungswerk St. Franziskus",
            "website": "https://www.bbw-abensberg.de/",
            "wheelchair": "no"
          },
          "geometry": {
            "type": "Point",
            "coordinates": [
              11.8557111,
              48.791298
            ]
          }
        },
        {
          "type": "Feature",
          "properties": {
            "id": "3196788217",
            "osm_type": "node",
            "lat": 48.7297966,
            "lon": 11.8321556,
            "amenity": "school",
            "name": "Grundschule"
          },
          "geometry": {
            "type": "Point",
            "coordinates": [
              11.8321556,
              48.7297966
            ]
          }
        },
        {
          "type": "Feature",
          "properties": {
            "id": "6711020712",
            "osm_type": "node",
            "lat": 48.7686841,
            "lon": 11.9664951,
            "addr:city": "Rohr",
            "addr:housenumber": "1",
            "addr:postcode": "93352",
            "addr:street": "Abt-Dominik-Prokop-Platz",
            "amenity": "school",
            "check_date": "2024-05-23",
            "name": "Johannes-Nepomuk-Gymnasium"
          },
          "geometry": {
            "type": "Point",
            "coordinates": [
              11.9664951,
              48.7686841
            ]
          }
        },
        {
          "type": "Feature",
          "properties": {
            "id": "2482086146",
            "osm_type": "node",
            "lat": 48.7773064,
            "lon": 12.2531961,
            "amenity": "school",
            "name": "Realschule Mallersdorf"
          },
          "geometry": {
            "type": "Point",
            "coordinates": [
              12.2531961,
              48.7773064
            ]
          }
        },
        {
          "type": "Feature",
          "properties": {
            "id": "3194660803",
            "osm_type": "node",
            "lat": 48.7363378,
            "lon": 12.1898544,
            "addr:city": "Neufahrn in Niederbayern",
            "addr:country": "DE",
            "addr:housenumber": "2",
            "addr:postcode": "84088",
            "addr:street": "Schulweg",
            "amenity": "school",
            "name": "Grundschule",
            "website": "https://www.gs-neufahrn.de/",
            "wikidata": "Q56045676"
          },
          "geometry": {
            "type": "Point",
            "coordinates": [
              12.1898544,
              48.7363378
            ]
          }
        },
        {
          "type": "Feature",
          "properties": {
            "id": "4825434059",
            "osm_type": "node",
            "lat": 48.7400784,
            "lon": 12.0883042,
            "addr:city": "Rottenburg a.d. Laaber",
            "addr:country": "DE",
            "addr:housenumber": "2",
            "addr:postcode": "84056",
            "addr:street": "Klosterweg",
            "addr:suburb": "Oberroning",
            "amenity": "school",
            "email": "sekretariat@ms-oberroning.de",
            "fax": "+49 8785 968 59 28",
            "name": "Mittelschule Oberroning",
            "operator": "Schulstiftung der Diözese Regensburg",
            "phone": "+49 8785 968 59 20",
            "website": "https://www.ms-oberroning.de/"
          },
          "geometry": {
            "type": "Point",
            "coordinates": [
              12.0883042,
              48.7400784
            ]
          }
        },
        {
          "type": "Feature",
          "properties": {
            "id": "4825434060",
            "osm_type": "node",
            "lat": 48.7404759,
            "lon": 12.088441,
            "addr:city": "Rottenburg a.d. Laaber",
            "addr:country": "DE",
            "addr:housenumber": "2",
            "addr:postcode": "84056",
            "addr:street": "Klosterweg",
            "addr:suburb": "Oberroning",
            "amenity": "school",
            "email": "rs.oberroning@t-online.de",
            "fax": "+49 8785/96859 11",
            "name": "Realschule Oberroning",
            "operator": "Schulstiftung der Diözese Regesnburg",
            "phone": "+49 8785/968 59 10",
            "website": "https://www.rs-oberroning.de/"
          },
          "geometry": {
            "type": "Point",
            "coordinates": [
              12.088441,
              48.7404759
            ]
          }
        },
        {
          "type": "Feature",
          "properties": {
            "id": "2503028707",
            "osm_type": "node",
            "lat": 48.9634241,
            "lon": 11.6871058,
            "addr:city": "Riedenburg",
            "addr:country": "DE",
            "addr:housenumber": "4",
            "addr:postcode": "93339",
            "addr:street": "St.-Anna-Platz",
            "amenity": "school",
            "name": "Mädchenrealschule St. Anna",
            "operator": "Diözese Regensburg",
            "website": "https://www.mrsstanna.de/"
          },
          "geometry": {
            "type": "Point",
            "coordinates": [
              11.6871058,
              48.9634241
            ]
          }
        },
        {
          "type": "Feature",
          "properties": {
            "id": "12167594973",
            "osm_type": "node",
            "lat": 48.8780206,
            "lon": 11.8996884,
            "addr:city": "Kelheim",
            "addr:country": "DE",
            "addr:housenumber": "11",
            "addr:postcode": "93309",
            "addr:street": "Schulstraße",
            "amenity": "school",
            "name": "Eduard-Staudt-Schule SFZ Kelheim",
            "website": "https://www.sfz-kelheim.de/"
          },
          "geometry": {
            "type": "Point",
            "coordinates": [
              11.8996884,
              48.8780206
            ]
          }
        },
        {
          "type": "Feature",
          "properties": {
            "id": "278436843",
            "osm_type": "node",
            "lat": 49.0053864,
            "lon": 12.1093301,
            "addr:city": "Regensburg",
            "addr:country": "DE",
            "addr:housenumber": "18",
            "addr:postcode": "93053",
            "addr:street": "Alfons-Auer-Straße",
            "amenity": "school",
            "check_date": "2024-05-16",
            "name": "Städtische Berufsschule I für Metall- und Elektrotechnik",
            "wheelchair": "limited",
            "wikidata": "Q134393765"
          },
          "geometry": {
            "type": "Point",
            "coordinates": [
              12.1093301,
              49.0053864
            ]
          }
        },
        {
          "type": "Feature",
          "properties": {
            "id": "695652733",
            "osm_type": "node",
            "lat": 49.0048918,
            "lon": 12.1094026,
            "amenity": "school",
            "name": "Städtische Berufsschule II / Städtische Fachakademie für Hauswirtschaft",
            "wheelchair": "no"
          },
          "geometry": {
            "type": "Point",
            "coordinates": [
              12.1094026,
              49.0048918
            ]
          }
        },
        {
          "type": "Feature",
          "properties": {
            "id": "1764450565",
            "osm_type": "node",
            "lat": 49.0097305,
            "lon": 12.1004411,
            "addr:city": "Regensburg",
            "addr:country": "DE",
            "addr:housenumber": "2b",
            "addr:postcode": "93053",
            "addr:street": "Galgenbergstraße",
            "amenity": "school",
            "description": "Private Berufsfachschule",
            "email": "regensburg@doepfer-schulen.de",
            "fax": "+49 941 6989862 9",
            "name": "Döpfer-Schulen Regensburg GmbH",
            "phone": "+49 941 6989862 0",
            "website": "https://www.doepfer-schulen.de/",
            "wheelchair": "yes"
          },
          "geometry": {
            "type": "Point",
            "coordinates": [
              12.1004411,
              49.0097305
            ]
          }
        },
        {
          "type": "Feature",
          "properties": {
            "id": "1764450587",
            "osm_type": "node",
            "lat": 49.0095741,
            "lon": 12.1004469,
            "addr:city": "Regensburg",
            "addr:country": "DE",
            "addr:housenumber": "2b",
            "addr:postcode": "93053",
            "addr:street": "Galgenbergstraße",
            "amenity": "school",
            "email": "info@kosmetikschule-regensburg.de",
            "fax": "+49 941 378012 19",
            "name": "Kosmetikschule Lippert-Mücke",
            "phone": "+49 941 378012 20",
            "website": "https://www.kosmetikschule-regensburg.de/"
          },
          "geometry": {
            "type": "Point",
            "coordinates": [
              12.1004469,
              49.0095741
            ]
          }
        },
        {
          "type": "Feature",
          "properties": {
            "id": "3713341335",
            "osm_type": "node",
            "lat": 49.0070229,
            "lon": 12.1165235,
            "addr:city": "Regensburg",
            "addr:country": "DE",
            "addr:housenumber": "72 b",
            "addr:postcode": "93053",
            "addr:street": "Landshuter Straße",
            "amenity": "school",
            "check_date": "2024-11-25",
            "email": "sbf@bootsschule-regensburg.de",
            "name": "Bootsschule Regensburg",
            "opening_hours": "Mo 16:00-19:00; Tu,Fr 09:00-13:00",
            "phone": "+49 941 892194",
            "website": "https://bootsschule-regensburg.de/"
          },
          "geometry": {
            "type": "Point",
            "coordinates": [
              12.1165235,
              49.0070229
            ]
          }
        },
        {
          "type": "Feature",
          "properties": {
            "id": "3969291969",
            "osm_type": "node",
            "lat": 49.0164067,
            "lon": 12.1059957,
            "addr:city": "Regensburg",
            "addr:country": "DE",
            "addr:housenumber": "30",
            "addr:postcode": "93047",
            "addr:street": "Von-der-Tann-Straße",
            "amenity": "school",
            "email": "regensburg@bfw.de",
            "fax": "+49 941 52069",
            "name": "Berufsfachschule für Altenpflege des Berufsfortbildungswerks",
            "operator": "Berufsfortbildungswerk",
            "phone": "+49 941 52068"
          },
          "geometry": {
            "type": "Point",
            "coordinates": [
              12.1059957,
              49.0164067
            ]
          }
        },
        {
          "type": "Feature",
          "properties": {
            "id": "4876471550",
            "osm_type": "node",
            "lat": 49.01659,
            "lon": 12.0568541,
            "addr:city": "Regensburg",
            "addr:country": "DE",
            "addr:housenumber": "1",
            "addr:postcode": "93049",
            "addr:street": "Heinkelstraße",
            "amenity": "school",
            "check_date": "2025-03-16",
            "email": "regensburg@paracelsus.de",
            "fax": "+49 941 59992 12",
            "name": "Paracelsus Heilpraktikerschule Regensburg",
            "phone": "+49 941 59992 11",
            "website": "http://www.paracelsus.de/map/ort84/ort84.asp"
          },
          "geometry": {
            "type": "Point",
            "coordinates": [
              12.0568541,
              49.01659
            ]
          }
        },
        {
          "type": "Feature",
          "properties": {
            "id": "4908903110",
            "osm_type": "node",
            "lat": 49.0122396,
            "lon": 12.0960706,
            "addr:city": "Regensburg",
            "addr:country": "DE",
            "addr:housenumber": "16",
            "addr:postcode": "93047",
            "addr:street": "Bahnhofstraße",
            "amenity": "school",
            "email": "info@sit-point.de",
            "fax": "+49 941 8700 205",
            "name": "Dallmeier SIT-Point",
            "operator": "Dallmeier electronic GmbH & Co. KG",
            "phone": "+49 941 8700 200",
            "website": "https://www.sit-point.de/"
          },
          "geometry": {
            "type": "Point",
            "coordinates": [
              12.0960706,
              49.0122396
            ]
          }
        },
        {
          "type": "Feature",
          "properties": {
            "id": "5214912922",
            "osm_type": "node",
            "lat": 49.0074661,
            "lon": 12.1012504,
            "addr:city": "Regensburg",
            "addr:housenumber": "17",
            "addr:postcode": "93053",
            "addr:street": "Galgenbergstraße",
            "amenity": "school",
            "check_date:opening_hours": "2021-08-16",
            "email": "tonart-gitarreninstitut@gmx.de",
            "name": "Ton Art",
            "opening_hours": "Mo-Fr 09:00-21:00",
            "operator": "Buchmann - Loher - Schindlbeck GbR",
            "phone": "+49 941 381 983 89",
            "source": "http://www.tonart-gitarreninstitut.de"
          },
          "geometry": {
            "type": "Point",
            "coordinates": [
              12.1012504,
              49.0074661
            ]
          }
        },
        {
          "type": "Feature",
          "properties": {
            "id": "5353276764",
            "osm_type": "node",
            "lat": 49.0165663,
            "lon": 12.082327,
            "addr:city": "Regensburg",
            "addr:country": "DE",
            "addr:housenumber": "13",
            "addr:postcode": "93049",
            "addr:street": "Dechbettener Straße",
            "amenity": "school",
            "email": "internat@schulen-pindl.de",
            "fax": "+49 941 29758 10",
            "name": "Privat Internat PINDL",
            "operator": "Private Schulen PINDL GmbH",
            "phone": "+49 941 29758 0",
            "website": "https://www.internat-pindl.de/"
          },
          "geometry": {
            "type": "Point",
            "coordinates": [
              12.082327,
              49.0165663
            ]
          }
        },
        {
          "type": "Feature",
          "properties": {
            "id": "11076834970",
            "osm_type": "node",
            "lat": 48.9388233,
            "lon": 12.1957865,
            "amenity": "school",
            "name": "Grundschule"
          },
          "geometry": {
            "type": "Point",
            "coordinates": [
              12.1957865,
              48.9388233
            ]
          }
        },
        {
          "type": "Feature",
          "properties": {
            "id": "11383631647",
            "osm_type": "node",
            "lat": 49.0149727,
            "lon": 12.1062379,
            "addr:city": "Regensburg",
            "addr:housenumber": "17",
            "addr:postcode": "93047",
            "addr:street": "Landshuter Straße",
            "amenity": "school",
            "name": "Von-der-Tann-Grundschule Haus II"
          },
          "geometry": {
            "type": "Point",
            "coordinates": [
              12.1062379,
              49.0149727
            ]
          }
        }
      ],
      "children": []
    },
    {
      "bbox": {
        "south": 48.68652475,
        "west": 12.392062499999998,
        "north": 49.017078,
        "east": 13.345766
      },
      "poiCount": 25,
      "leafCount": 25,
      "averagePosition": [
        12.78027198,
        48.857429612
      ],
      "data": [
        {
          "type": "Feature",
          "properties": {
            "id": "277472976",
            "osm_type": "node",
            "lat": 48.7179725,
            "lon": 12.4418455,
            "addr:city": "Mengkofen",
            "addr:country": "DE",
            "addr:housenumber": "13",
            "addr:postcode": "84152",
            "addr:street": "Klausenweg",
            "amenity": "school",
            "name": "Volksschule Aitrachtal"
          },
          "geometry": {
            "type": "Point",
            "coordinates": [
              12.4418455,
              48.7179725
            ]
          }
        },
        {
          "type": "Feature",
          "properties": {
            "id": "333067953",
            "osm_type": "node",
            "lat": 48.8257232,
            "lon": 12.3969956,
            "addr:city": "Geiselhöring",
            "addr:country": "DE",
            "addr:housenumber": "1",
            "addr:postcode": "94333",
            "addr:street": "Wittelsbacherstraße",
            "amenity": "school",
            "email": "info@vs-geiselhoering.de",
            "name": "Volksschule Geiselhöring",
            "phone": "+49 9423 942000",
            "website": "http://www.vs-geiselhoering.de",
            "wheelchair": "yes"
          },
          "geometry": {
            "type": "Point",
            "coordinates": [
              12.3969956,
              48.8257232
            ]
          }
        },
        {
          "type": "Feature",
          "properties": {
            "id": "459791480",
            "osm_type": "node",
            "lat": 48.8380722,
            "lon": 12.5288124,
            "amenity": "school",
            "name": "Grundschule",
            "wheelchair": "no"
          },
          "geometry": {
            "type": "Point",
            "coordinates": [
              12.5288124,
              48.8380722
            ]
          }
        },
        {
          "type": "Feature",
          "properties": {
            "id": "565692383",
            "osm_type": "node",
            "lat": 48.8715413,
            "lon": 12.5670903,
            "addr:city": "Straubing",
            "addr:postcode": "94315",
            "amenity": "school",
            "name": "WG des BTZ Straubing",
            "note": "FIXME: Genaue Lage",
            "wheelchair": "no"
          },
          "geometry": {
            "type": "Point",
            "coordinates": [
              12.5670903,
              48.8715413
            ]
          }
        },
        {
          "type": "Feature",
          "properties": {
            "id": "1569202915",
            "osm_type": "node",
            "lat": 48.847357,
            "lon": 12.953414,
            "alt_name": "Kaufmännische Berufsschule Deggendorf",
            "amenity": "school",
            "email": "wsbs2@sz-deg.de",
            "fax": "+49 991 284916",
            "name": "Staatliche Berufsschule II Deggendorf",
            "phone": "+49 991 27121",
            "website": "https://bs2.wsbs2-deg.de/",
            "wikidata": "Q134393877"
          },
          "geometry": {
            "type": "Point",
            "coordinates": [
              12.953414,
              48.847357
            ]
          }
        },
        {
          "type": "Feature",
          "properties": {
            "id": "1569202923",
            "osm_type": "node",
            "lat": 48.8467211,
            "lon": 12.953652,
            "amenity": "school",
            "email": "wsbs2@sz-deg.de",
            "fax": "+49 991 284916",
            "name": "Staatliche Wirtschaftsschule Deggendorf",
            "phone": "+49 991 24810",
            "website": "https://ws.wsbs2-deg.de/"
          },
          "geometry": {
            "type": "Point",
            "coordinates": [
              12.953652,
              48.8467211
            ]
          }
        },
        {
          "type": "Feature",
          "properties": {
            "id": "2452652163",
            "osm_type": "node",
            "lat": 48.7663498,
            "lon": 13.0263658,
            "addr:city": "Niederalteich",
            "addr:housenumber": "10",
            "addr:postcode": "94557",
            "addr:street": "Hengersberger Straße",
            "amenity": "school",
            "contact:email": "info@lvhs-niederalteich.de",
            "contact:phone": "+499901 9352 0",
            "contact:website": "https://www.lvhs-niederalteich.de/",
            "name": "Landvolkshochschule St. Gunther"
          },
          "geometry": {
            "type": "Point",
            "coordinates": [
              13.0263658,
              48.7663498
            ]
          }
        },
        {
          "type": "Feature",
          "properties": {
            "id": "2460388560",
            "osm_type": "node",
            "lat": 48.8560207,
            "lon": 12.9189148,
            "addr:city": "Metten",
            "addr:country": "DE",
            "addr:housenumber": "3",
            "addr:postcode": "94526",
            "addr:street": "Abteistraße",
            "amenity": "school",
            "name": "St.-Michaels-Gymnasium",
            "website": "http://www.kloster-metten.de",
            "wikidata": "Q107630065"
          },
          "geometry": {
            "type": "Point",
            "coordinates": [
              12.9189148,
              48.8560207
            ]
          }
        },
        {
          "type": "Feature",
          "properties": {
            "id": "3768919203",
            "osm_type": "node",
            "lat": 48.7011352,
            "lon": 13.0177701,
            "amenity": "school",
            "toilets:wheelchair": "no",
            "wheelchair": "limited"
          },
          "geometry": {
            "type": "Point",
            "coordinates": [
              13.0177701,
              48.7011352
            ]
          }
        },
        {
          "type": "Feature",
          "properties": {
            "id": "9580780256",
            "osm_type": "node",
            "lat": 48.8457892,
            "lon": 12.6172978,
            "amenity": "school",
            "name": "Realschule"
          },
          "geometry": {
            "type": "Point",
            "coordinates": [
              12.6172978,
              48.8457892
            ]
          }
        },
        {
          "type": "Feature",
          "properties": {
            "id": "12861886667",
            "osm_type": "node",
            "lat": 48.7151991,
            "lon": 12.9454163,
            "addr:city": "Friedberg",
            "addr:country": "DE",
            "addr:housenumber": "13",
            "addr:postcode": "86316",
            "addr:street": "Wanderweg",
            "amenity": "school",
            "contact:email": "verwaltung@gs-ottmaring.de",
            "contact:phone": "+49 821 602 260",
            "contact:website": "https://www.gs-ottmaring.de/",
            "name": "Johann-Peter-Ring-Grundschule"
          },
          "geometry": {
            "type": "Point",
            "coordinates": [
              12.9454163,
              48.7151991
            ]
          }
        },
        {
          "type": "Feature",
          "properties": {
            "id": "1731607071",
            "osm_type": "node",
            "lat": 48.8397928,
            "lon": 13.230047,
            "amenity": "school",
            "name": "Grundschule Innernzell-Schöfweg"
          },
          "geometry": {
            "type": "Point",
            "coordinates": [
              13.230047,
              48.8397928
            ]
          }
        },
        {
          "type": "Feature",
          "properties": {
            "id": "4268127578",
            "osm_type": "node",
            "lat": 48.7248456,
            "lon": 13.0749005,
            "addr:city": "Winzer",
            "addr:country": "DE",
            "addr:housenumber": "1",
            "addr:postcode": "94577",
            "addr:street": "Jahnstraße",
            "amenity": "school",
            "name": "Grund- und Mittelschule Winzer"
          },
          "geometry": {
            "type": "Point",
            "coordinates": [
              13.0749005,
              48.7248456
            ]
          }
        },
        {
          "type": "Feature",
          "properties": {
            "id": "318537900",
            "osm_type": "node",
            "lat": 48.8839663,
            "lon": 12.5734971,
            "addr:city": "Straubing",
            "addr:postcode": "94315",
            "amenity": "school",
            "name": "Gymnasium der Ursulinen-Schulstiftung",
            "wheelchair": "no"
          },
          "geometry": {
            "type": "Point",
            "coordinates": [
              12.5734971,
              48.8839663
            ]
          }
        },
        {
          "type": "Feature",
          "properties": {
            "id": "318604980",
            "osm_type": "node",
            "lat": 48.8839,
            "lon": 12.5746265,
            "addr:city": "Straubing",
            "addr:postcode": "94315",
            "amenity": "school",
            "name": "Realschule der Ursulinen-Schulstiftung",
            "wheelchair": "yes"
          },
          "geometry": {
            "type": "Point",
            "coordinates": [
              12.5746265,
              48.8839
            ]
          }
        },
        {
          "type": "Feature",
          "properties": {
            "id": "1310528127",
            "osm_type": "node",
            "lat": 48.95343,
            "lon": 12.6139397,
            "amenity": "school",
            "name": "Grundschule Steinach",
            "wheelchair": "yes"
          },
          "geometry": {
            "type": "Point",
            "coordinates": [
              12.6139397,
              48.95343
            ]
          }
        },
        {
          "type": "Feature",
          "properties": {
            "id": "1321744601",
            "osm_type": "node",
            "lat": 48.8813119,
            "lon": 12.564047,
            "addr:city": "Straubing",
            "addr:housenumber": "5",
            "addr:postcode": "94315",
            "addr:street": "Am Essigberg",
            "amenity": "school",
            "name": "Wikawi",
            "website": "http://www.wikawi.de/"
          },
          "geometry": {
            "type": "Point",
            "coordinates": [
              12.564047,
              48.8813119
            ]
          }
        },
        {
          "type": "Feature",
          "properties": {
            "id": "1389431371",
            "osm_type": "node",
            "lat": 48.87891,
            "lon": 12.5761298,
            "addr:city": "Straubing",
            "addr:country": "DE",
            "addr:housenumber": "45a",
            "addr:postcode": "94315",
            "addr:street": "Mittlere Bachstraße",
            "amenity": "school",
            "email": "kontakt@wikawi.de",
            "fax": "+49 9421 81157",
            "name": "Wikawi - Wirtschaftsschule für Mädchen Kasberger - Wildmann e. V.",
            "phone": "+49 9421 88282",
            "website": "http://www.wikawi.de"
          },
          "geometry": {
            "type": "Point",
            "coordinates": [
              12.5761298,
              48.87891
            ]
          }
        },
        {
          "type": "Feature",
          "properties": {
            "id": "1747968046",
            "osm_type": "node",
            "lat": 48.8795125,
            "lon": 12.5732518,
            "addr:city": "Straubing",
            "addr:country": "DE",
            "addr:housenumber": "5",
            "addr:postcode": "94315",
            "addr:street": "Kolbstraße",
            "amenity": "school",
            "email": "poststelle@lwa-sr.bayern.de",
            "fax": "+49 9421 8006 555",
            "name": "Landwirtschaftsschule Straubing",
            "phone": "+49 9421 8006 0",
            "website": "https://www.aelf-sr.bayern.de/bildung/landwirtschaft/036321/"
          },
          "geometry": {
            "type": "Point",
            "coordinates": [
              12.5732518,
              48.8795125
            ]
          }
        },
        {
          "type": "Feature",
          "properties": {
            "id": "3273201954",
            "osm_type": "node",
            "lat": 48.879305,
            "lon": 12.5722456,
            "addr:city": "Straubing",
            "addr:country": "DE",
            "addr:housenumber": "4",
            "addr:postcode": "94315",
            "addr:street": "Pestalozzistraße",
            "alt_name": "Fraunhofer-Berufsschule",
            "amenity": "school",
            "email": "sekretariat.bs1@berufsschule-straubing.de",
            "fax": "+49 9421 9464 5",
            "name": "Staatliche Fraunhofer-Berufsschule I Straubing-Bogen",
            "phone": "+49 9421 9464 0",
            "source": "Bing",
            "website": "https://bs1.berufsschule-straubing.de/"
          },
          "geometry": {
            "type": "Point",
            "coordinates": [
              12.5722456,
              48.879305
            ]
          }
        },
        {
          "type": "Feature",
          "properties": {
            "id": "5173584001",
            "osm_type": "node",
            "lat": 48.9969794,
            "lon": 12.6347301,
            "addr:city": "Ascha",
            "addr:housenumber": "4",
            "addr:postcode": "94347",
            "addr:street": "Falkenfelser Straße",
            "amenity": "school",
            "denomination": "catholic",
            "grades": "6-9",
            "name": "Grundschule Ascha",
            "religion": "christian"
          },
          "geometry": {
            "type": "Point",
            "coordinates": [
              12.6347301,
              48.9969794
            ]
          }
        },
        {
          "type": "Feature",
          "properties": {
            "id": "5321083134",
            "osm_type": "node",
            "lat": 48.9068214,
            "lon": 12.6925639,
            "amenity": "school",
            "name": "Lernoase",
            "survey:date": "2018-01-04"
          },
          "geometry": {
            "type": "Point",
            "coordinates": [
              12.6925639,
              48.9068214
            ]
          }
        },
        {
          "type": "Feature",
          "properties": {
            "id": "1695355175",
            "osm_type": "node",
            "lat": 48.9722509,
            "lon": 13.1276532,
            "addr:city": "Regen",
            "addr:country": "DE",
            "addr:housenumber": "6-8",
            "addr:postcode": "94209",
            "addr:street": "Amtsgerichtstraße",
            "amenity": "school",
            "name": "VHS Arberland",
            "website": "https://www.vhs-arberland.de"
          },
          "geometry": {
            "type": "Point",
            "coordinates": [
              13.1276532,
              48.9722509
            ]
          }
        },
        {
          "type": "Feature",
          "properties": {
            "id": "1695792844",
            "osm_type": "node",
            "lat": 48.9732211,
            "lon": 13.1288265,
            "alt_name": "Staatliche Realschule Regen",
            "amenity": "school",
            "name": "Siegfried-von-Vogesack-Realschule",
            "website": "https://realschule-regen.de/"
          },
          "geometry": {
            "type": "Point",
            "coordinates": [
              13.1288265,
              48.9732211
            ]
          }
        },
        {
          "type": "Feature",
          "properties": {
            "id": "5872324872",
            "osm_type": "node",
            "lat": 48.9496121,
            "lon": 13.2027662,
            "addr:housenumber": "10",
            "addr:street": "Gehmannsberger Straße",
            "amenity": "school",
            "check_date": "2025-08-23",
            "name": "St. Gunther Grund- und Mittelschule",
            "website": "volksschule-rinchnach.de"
          },
          "geometry": {
            "type": "Point",
            "coordinates": [
              13.2027662,
              48.9496121
            ]
          }
        }
      ],
      "children": []
    }
  ]
}