{
  "bbox": {
    "south": 47.033758500000005,
    "west": 13.345766,
    "north": 47.694865,
    "east": 15.253173
  },
  "poiCount": 82,
  "leafCount": 0,
  "averagePosition": [
    14.4068100402439,
    47.3028045695122
  ],
  "data": [],
  "children": [
    {
      "bbox": {
        "south": 47.033758500000005,
        "west": 13.345766,
        "north": 47.36431175,
        "east": 14.2994695
      },
      "poiCount": 9,
      "leafCount": 9,
      "averagePosition": [
        13.966725366666667,
        47.13770455555555
      ],
      "data": [
        {
          "type": "Feature",
          "properties": {
            "id": "1488480368",
            "osm_type": "node",
            "lat": 47.1493633,
            "lon": 13.7428696,
            "addr:housenumber": "250",
            "addr:postcode": "5571",
            "addr:street": "Prof.-August-Schreilechner-Weg",
            "amenity": "school",
            "name": "MS Mariapfarr"
          },
          "geometry": {
            "type": "Point",
            "coordinates": [
              13.7428696,
              47.1493633
            ]
          }
        },
        {
          "type": "Feature",
          "properties": {
            "id": "2101386369",
            "osm_type": "node",
            "lat": 47.0586183,
            "lon": 13.6141485,
            "amenity": "school",
            "name": "Otto's Schi- und Snowboardschule"
          },
          "geometry": {
            "type": "Point",
            "coordinates": [
              13.6141485,
              47.0586183
            ]
          }
        },
        {
          "type": "Feature",
          "properties": {
            "id": "2101784928",
            "osm_type": "node",
            "lat": 47.0578632,
            "lon": 13.6130805,
            "amenity": "school",
            "name": "FRESCH:UP"
          },
          "geometry": {
            "type": "Point",
            "coordinates": [
              13.6130805,
              47.0578632
            ]
          }
        },
        {
          "type": "Feature",
          "properties": {
            "id": "5837649545",
            "osm_type": "node",
            "lat": 47.0793008,
            "lon": 13.697845,
            "addr:city": "Sankt Margarethen im Lungau",
            "addr:country": "AT",
            "addr:housenumber": "153",
            "addr:postcode": "5581",
            "addr:street": "Schulgasse",
            "amenity": "school",
            "at_bev:addr_date": "2018-04-02",
            "grades": "1-4",
            "name": "Volksschule"
          },
          "geometry": {
            "type": "Point",
            "coordinates": [
              13.697845,
              47.0793008
            ]
          }
        },
        {
          "type": "Feature",
          "properties": {
            "id": "2922004724",
            "osm_type": "node",
            "lat": 47.2019528,
            "lon": 14.2861724,
            "amenity": "school",
            "name": "Musikmittelschule Oberwölz",
            "website": "https://mhsoberwoelz.edupage.org/"
          },
          "geometry": {
            "type": "Point",
            "coordinates": [
              14.2861724,
              47.2019528
            ]
          }
        },
        {
          "type": "Feature",
          "properties": {
            "id": "2922005592",
            "osm_type": "node",
            "lat": 47.202408,
            "lon": 14.2812753,
            "amenity": "school",
            "name": "Volksschule Oberwölz"
          },
          "geometry": {
            "type": "Point",
            "coordinates": [
              14.2812753,
              47.202408
            ]
          }
        },
        {
          "type": "Feature",
          "properties": {
            "id": "3995596156",
            "osm_type": "node",
            "lat": 47.118871,
            "lon": 14.1877215,
            "addr:housenumber": "33",
            "addr:postcode": "8852",
            "addr:street": "Stolzalpe",
            "amenity": "school",
            "name": "Heilstättenschule Stolzalpe",
            "phone": "+433532 24242239"
          },
          "geometry": {
            "type": "Point",
            "coordinates": [
              14.1877215,
              47.118871
            ]
          }
        },
        {
          "type": "Feature",
          "properties": {
            "id": "4165786429",
            "osm_type": "node",
            "lat": 47.1896138,
            "lon": 14.1623944,
            "addr:city": "St. Peter am Kammersberg",
            "addr:country": "AT",
            "addr:housenumber": "1",
            "addr:place": "Feistritz a. Kbg.",
            "addr:postcode": "8843",
            "amenity": "school",
            "at_bev:addr_date": "2019-10-01",
            "contact:email": "fsfeistritz@stmk.gv.at",
            "contact:phone": "+433536 8238-0",
            "name": "Fachschule für Land- und Ernährungswirtschaft",
            "website": "https://www.fachschulen.steiermark.at/cms/ziel/103353036/DE"
          },
          "geometry": {
            "type": "Point",
            "coordinates": [
              14.1623944,
              47.1896138
            ]
          }
        },
        {
          "type": "Feature",
          "properties": {
            "id": "10982646988",
            "osm_type": "node",
            "lat": 47.1813498,
            "lon": 14.1150211,
            "amenity": "school",
            "name": "Volksschule Schöder"
          },
          "geometry": {
            "type": "Point",
            "coordinates": [
              14.1150211,
              47.1813498
            ]
          }
        }
      ],
      "children": []
    },
    {
      "bbox": {
        "south": 47.033758500000005,
        "west": 14.2994695,
        "north": 47.36431175,
        "east": 15.253173
      },
      "poiCount": 32,
      "leafCount": 32,
      "averagePosition": [
        14.869733503125,
        47.133129684375
      ],
      "data": [
        {
          "type": "Feature",
          "properties": {
            "id": "681301318",
            "osm_type": "node",
            "lat": 47.0683299,
            "lon": 14.3024073,
            "amenity": "school",
            "name": "Schulzentrum"
          },
          "geometry": {
            "type": "Point",
            "coordinates": [
              14.3024073,
              47.0683299
            ]
          }
        },
        {
          "type": "Feature",
          "properties": {
            "id": "1075462657",
            "osm_type": "node",
            "lat": 47.0950076,
            "lon": 14.4023902,
            "amenity": "school",
            "name": "Volksschule Mariahof"
          },
          "geometry": {
            "type": "Point",
            "coordinates": [
              14.4023902,
              47.0950076
            ]
          }
        },
        {
          "type": "Feature",
          "properties": {
            "id": "2322110290",
            "osm_type": "node",
            "lat": 47.1289195,
            "lon": 14.3583876,
            "addr:city": "Teufenbach-Katsch",
            "addr:country": "AT",
            "addr:housenumber": "11",
            "addr:postcode": "8833",
            "addr:street": "Schulweg",
            "amenity": "school",
            "name": "Grundschule Teufenbach"
          },
          "geometry": {
            "type": "Point",
            "coordinates": [
              14.3583876,
              47.1289195
            ]
          }
        },
        {
          "type": "Feature",
          "properties": {
            "id": "4178698860",
            "osm_type": "node",
            "lat": 47.1522524,
            "lon": 14.3766975,
            "addr:city": "Niederwölz",
            "addr:country": "AT",
            "addr:district": "Murau",
            "addr:housenumber": "81",
            "addr:postcode": "8831",
            "addr:street": "Schulweg",
            "amenity": "school",
            "at_bev:addr_date": "2020-10-01",
            "name": "Volksschule Niederwölz",
            "phone": "+43 3582 2295",
            "was:addr:place": "Niederwölz"
          },
          "geometry": {
            "type": "Point",
            "coordinates": [
              14.3766975,
              47.1522524
            ]
          }
        },
        {
          "type": "Feature",
          "properties": {
            "id": "4722258917",
            "osm_type": "node",
            "lat": 47.2039644,
            "lon": 14.4456466,
            "addr:housenumber": "10",
            "addr:postcode": "8800",
            "addr:street": "Schulstraße",
            "amenity": "school",
            "contact:email": "vs-unzmarkt-@ainet.at",
            "contact:phone": "+43 3583 2359",
            "name": "Volksschule Unzmarkt-Frauenburg"
          },
          "geometry": {
            "type": "Point",
            "coordinates": [
              14.4456466,
              47.2039644
            ]
          }
        },
        {
          "type": "Feature",
          "properties": {
            "id": "7168965719",
            "osm_type": "node",
            "lat": 47.307572,
            "lon": 14.3759644,
            "addr:city": "Pusterwald",
            "addr:country": "AT",
            "addr:housenumber": "10",
            "addr:postcode": "8764",
            "addr:street": "Wiesenweg",
            "amenity": "school",
            "at_bev:addr_date": "2017-10-01",
            "name": "Volksschule",
            "source": "geoimage.at"
          },
          "geometry": {
            "type": "Point",
            "coordinates": [
              14.3759644,
              47.307572
            ]
          }
        },
        {
          "type": "Feature",
          "properties": {
            "id": "995085834",
            "osm_type": "node",
            "lat": 47.218243,
            "lon": 14.8363312,
            "amenity": "school",
            "email": "nms.knittelfeld.rosegger@aon.at",
            "name": "Rosegger Mittelschule",
            "phone": "+43 3512 84 58 7",
            "website": "https://www.nmsrosegger.at/"
          },
          "geometry": {
            "type": "Point",
            "coordinates": [
              14.8363312,
              47.218243
            ]
          }
        },
        {
          "type": "Feature",
          "properties": {
            "id": "1075870697",
            "osm_type": "node",
            "lat": 47.0665044,
            "lon": 14.6911366,
            "addr:city": "Obdach",
            "addr:country": "AT",
            "addr:housenumber": "7a",
            "addr:postcode": "8742",
            "addr:street": "St.-Wolfganger-Straße",
            "amenity": "school",
            "contact:mobile": "+43 664 88507050",
            "contact:phone": "+43 3578 40042",
            "isced:level": "1",
            "name": "Volksschule Obdach",
            "website": "https://vs-obdach.at/"
          },
          "geometry": {
            "type": "Point",
            "coordinates": [
              14.6911366,
              47.0665044
            ]
          }
        },
        {
          "type": "Feature",
          "properties": {
            "id": "1075871605",
            "osm_type": "node",
            "lat": 47.0668863,
            "lon": 14.6907864,
            "addr:city": "Obdach",
            "addr:country": "AT",
            "addr:housenumber": "7",
            "addr:postcode": "8742",
            "addr:street": "St.-Wolfganger-Straße",
            "amenity": "school",
            "contact:email": "office-ms@bildungszentrum-obdach.at",
            "contact:phone": "+43 3578 2269",
            "isced:level": "2",
            "name": "Mittelschule Obdach",
            "old_name": "Hauptsschule Obdach",
            "website": "https://www.nms-obdach.at/"
          },
          "geometry": {
            "type": "Point",
            "coordinates": [
              14.6907864,
              47.0668863
            ]
          }
        },
        {
          "type": "Feature",
          "properties": {
            "id": "1363888579",
            "osm_type": "node",
            "lat": 47.2084316,
            "lon": 14.8339943,
            "amenity": "school",
            "name": "Landschacher Volksschule"
          },
          "geometry": {
            "type": "Point",
            "coordinates": [
              14.8339943,
              47.2084316
            ]
          }
        },
        {
          "type": "Feature",
          "properties": {
            "id": "2040984797",
            "osm_type": "node",
            "lat": 47.2139568,
            "lon": 14.8256891,
            "amenity": "school",
            "contact:email": "administration@gym-knittelfeld.at",
            "contact:phone": "+43 50 248 050",
            "isced:level": "2-3",
            "name": "BG/BRG Knittlfeld",
            "website": "https://www.gym-knittelfeld.at/index.php/service/kontakt"
          },
          "geometry": {
            "type": "Point",
            "coordinates": [
              14.8256891,
              47.2139568
            ]
          }
        },
        {
          "type": "Feature",
          "properties": {
            "id": "2368400309",
            "osm_type": "node",
            "lat": 47.1776811,
            "lon": 14.678457,
            "addr:city": "Judenburg",
            "addr:country": "AT",
            "addr:housenumber": "8-10",
            "addr:postcode": "8750",
            "addr:street": "Stadion-Straße",
            "amenity": "school",
            "at_bev:addr_date": "2017-04-07",
            "name": "BAfEP Judenburg",
            "source:address": "Edit history, basemap.at"
          },
          "geometry": {
            "type": "Point",
            "coordinates": [
              14.678457,
              47.1776811
            ]
          }
        },
        {
          "type": "Feature",
          "properties": {
            "id": "5229868526",
            "osm_type": "node",
            "lat": 47.1776144,
            "lon": 14.6775196,
            "addr:city": "Judenburg",
            "addr:country": "AT",
            "addr:housenumber": "8-10",
            "addr:postcode": "8750",
            "addr:street": "Stadion-Straße",
            "amenity": "school",
            "at_bev:addr_date": "2017-04-07",
            "name": "Bundeshandelsakademie und Bundeshandelsschule Judenburg",
            "source:address": "Edit history, basemap.at",
            "website": "https://www.hakju.at/"
          },
          "geometry": {
            "type": "Point",
            "coordinates": [
              14.6775196,
              47.1776144
            ]
          }
        },
        {
          "type": "Feature",
          "properties": {
            "id": "7292694381",
            "osm_type": "node",
            "lat": 47.2178712,
            "lon": 14.8303063,
            "addr:city": "Knittelfeld",
            "addr:country": "AT",
            "addr:housenumber": "21",
            "addr:postcode": "8720",
            "addr:street": "Franz-Leitner-Straße",
            "amenity": "school",
            "at_bev:addr_date": "2019-10-01",
            "grades": "5-8",
            "name": "Schulzentrum Knittelfeld (BSOG)"
          },
          "geometry": {
            "type": "Point",
            "coordinates": [
              14.8303063,
              47.2178712
            ]
          }
        },
        {
          "type": "Feature",
          "properties": {
            "id": "11081680183",
            "osm_type": "node",
            "lat": 47.2748753,
            "lon": 14.7867486,
            "amenity": "school",
            "name": "Stifsgymnasium",
            "operator": "Stift Seckau"
          },
          "geometry": {
            "type": "Point",
            "coordinates": [
              14.7867486,
              47.2748753
            ]
          }
        },
        {
          "type": "Feature",
          "properties": {
            "id": "12227880442",
            "osm_type": "node",
            "lat": 47.16869,
            "lon": 14.6696644,
            "amenity": "school",
            "name": "Polytechnische Schule Judenburg",
            "short_name": "PTS Judenburg",
            "website": "https://pflichtschulcluster-judenburg.at/polytechnische-schule/"
          },
          "geometry": {
            "type": "Point",
            "coordinates": [
              14.6696644,
              47.16869
            ]
          }
        },
        {
          "type": "Feature",
          "properties": {
            "id": "901543349",
            "osm_type": "node",
            "lat": 47.0458115,
            "lon": 15.2170639,
            "amenity": "school",
            "fixme": "Volksschule Stallhofen",
            "name": "Volksschule Stallhofen"
          },
          "geometry": {
            "type": "Point",
            "coordinates": [
              15.2170639,
              47.0458115
            ]
          }
        },
        {
          "type": "Feature",
          "properties": {
            "id": "1051846434",
            "osm_type": "node",
            "lat": 47.0527125,
            "lon": 15.1214368,
            "addr:city": "Rosental an der Kainach",
            "addr:country": "AT",
            "addr:housenumber": "31",
            "addr:postcode": "8582",
            "addr:street": "Hauptstraße",
            "amenity": "school",
            "name": "Volksschule Rosental",
            "phone": "+43664 8471376",
            "website": "https://www.rosental-kainach.at/"
          },
          "geometry": {
            "type": "Point",
            "coordinates": [
              15.1214368,
              47.0527125
            ]
          }
        },
        {
          "type": "Feature",
          "properties": {
            "id": "2967456220",
            "osm_type": "node",
            "lat": 47.0606441,
            "lon": 15.0678083,
            "addr:city": "Maria Lankowitz",
            "addr:country": "AT",
            "addr:housenumber": "218",
            "addr:postcode": "8591",
            "addr:street": "Bergmannstraße",
            "amenity": "school",
            "contact:phone": "+433144 2644",
            "isced:level": "3",
            "name": "Fachschule für Land- und Ernährungswirtschaft",
            "website": "https://www.fachschulen.steiermark.at/cms/ziel/103353059/DE/"
          },
          "geometry": {
            "type": "Point",
            "coordinates": [
              15.0678083,
              47.0606441
            ]
          }
        },
        {
          "type": "Feature",
          "properties": {
            "id": "3612571872",
            "osm_type": "node",
            "lat": 47.2253826,
            "lon": 15.2377605,
            "addr:city": "Übelbach",
            "addr:country": "AT",
            "addr:housenumber": "120",
            "addr:postcode": "8124",
            "addr:street": "Gleinalmstraße",
            "amenity": "school",
            "at_bev:addr_date": "2020-04-01",
            "contact:email": "vs.uebelbach@ktu.cc",
            "contact:mobile": "+43664 85 70 294",
            "name": "Volksschule"
          },
          "geometry": {
            "type": "Point",
            "coordinates": [
              15.2377605,
              47.2253826
            ]
          }
        },
        {
          "type": "Feature",
          "properties": {
            "id": "4490334397",
            "osm_type": "node",
            "lat": 47.0629743,
            "lon": 15.0866912,
            "addr:housenumber": "3",
            "addr:postcode": "8580",
            "addr:street": "Alter Rathausplatz",
            "amenity": "school",
            "contact:email": "direktion@musikschule-koeflach.at",
            "contact:phone": "+43 3144 3391",
            "name": "Musikschule Köflach",
            "website": "https://musikschule-koeflach.at/"
          },
          "geometry": {
            "type": "Point",
            "coordinates": [
              15.0866912,
              47.0629743
            ]
          }
        },
        {
          "type": "Feature",
          "properties": {
            "id": "5875707916",
            "osm_type": "node",
            "lat": 47.0709887,
            "lon": 15.1265752,
            "addr:city": "Bärnbach",
            "addr:country": "AT",
            "addr:housenumber": "2",
            "addr:postcode": "8572",
            "addr:street": "Schulgasse",
            "amenity": "school",
            "contact:phone": "+43 3142 6155026",
            "name": "Musikschule Bärnbach",
            "website": "https://www.musikschule-baernbach.at/"
          },
          "geometry": {
            "type": "Point",
            "coordinates": [
              15.1265752,
              47.0709887
            ]
          }
        },
        {
          "type": "Feature",
          "properties": {
            "id": "6039073683",
            "osm_type": "node",
            "lat": 47.0455878,
            "lon": 15.1544568,
            "addr:city": "Voitsberg",
            "addr:country": "AT",
            "addr:housenumber": "15",
            "addr:postcode": "8570",
            "addr:street": "Franz-Jonas-Straße",
            "alt_name": "Bundeshandelsakademie und Bundeshandelsschule",
            "amenity": "school",
            "name": "HAK",
            "source": "plan.at 2009"
          },
          "geometry": {
            "type": "Point",
            "coordinates": [
              15.1544568,
              47.0455878
            ]
          }
        },
        {
          "type": "Feature",
          "properties": {
            "id": "6875217755",
            "osm_type": "node",
            "lat": 47.3608287,
            "lon": 15.071362,
            "addr:city": "Leoben",
            "addr:country": "AT",
            "addr:housenumber": "23",
            "addr:postcode": "8700",
            "addr:street": "Hinterbergstraße",
            "addr:suburb": "Leitendorf",
            "amenity": "school",
            "name": "Kinderschule Taptana",
            "website": "https://taptana.at/"
          },
          "geometry": {
            "type": "Point",
            "coordinates": [
              15.071362,
              47.3608287
            ]
          }
        },
        {
          "type": "Feature",
          "properties": {
            "id": "8908213024",
            "osm_type": "node",
            "lat": 47.1028035,
            "lon": 15.2164292,
            "amenity": "school",
            "name": "Volksschule Stiwoll"
          },
          "geometry": {
            "type": "Point",
            "coordinates": [
              15.2164292,
              47.1028035
            ]
          }
        },
        {
          "type": "Feature",
          "properties": {
            "id": "9040528822",
            "osm_type": "node",
            "lat": 47.0442515,
            "lon": 15.1544232,
            "amenity": "school",
            "name": "Prof. Aduatz Sport-Mittelschule",
            "website": "https://www.sport-mittelschule-voitsberg.at/"
          },
          "geometry": {
            "type": "Point",
            "coordinates": [
              15.1544232,
              47.0442515
            ]
          }
        },
        {
          "type": "Feature",
          "properties": {
            "id": "9040528823",
            "osm_type": "node",
            "lat": 47.0440296,
            "lon": 15.1548312,
            "amenity": "school",
            "name": "BULME HTL Voitsberg",
            "website": "https://www.htl-voitsberg.at/"
          },
          "geometry": {
            "type": "Point",
            "coordinates": [
              15.1548312,
              47.0440296
            ]
          }
        },
        {
          "type": "Feature",
          "properties": {
            "id": "11169492732",
            "osm_type": "node",
            "lat": 47.0634174,
            "lon": 15.0640702,
            "addr:city": "Maria Lankowitz",
            "addr:housenumber": "41",
            "addr:postcode": "8591",
            "addr:street": "Hauptstraße",
            "amenity": "school",
            "name": "Volksschule Maria Lanokwitz",
            "website": "https://www.vslankowitz.at/"
          },
          "geometry": {
            "type": "Point",
            "coordinates": [
              15.0640702,
              47.0634174
            ]
          }
        },
        {
          "type": "Feature",
          "properties": {
            "id": "12921315606",
            "osm_type": "node",
            "lat": 47.0623042,
            "lon": 15.0782284,
            "addr:city": "Köflach",
            "addr:housenumber": "7",
            "addr:postcode": "8580",
            "addr:street": "Schulstraße",
            "amenity": "school",
            "name": "PTS Köflach",
            "phone": "03144 4700",
            "website": "https://pts-koeflach.at/"
          },
          "geometry": {
            "type": "Point",
            "coordinates": [
              15.0782284,
              47.0623042
            ]
          }
        },
        {
          "type": "Feature",
          "properties": {
            "id": "12921315607",
            "osm_type": "node",
            "lat": 47.0617419,
            "lon": 15.0776808,
            "addr:city": "Köflach",
            "addr:housenumber": "7",
            "addr:postcode": "8580",
            "addr:street": "Schulstraße",
            "amenity": "school",
            "name": "MS Köfalch",
            "phone": "03144 3343",
            "website": "https://ms-koeflach.at/"
          },
          "geometry": {
            "type": "Point",
            "coordinates": [
              15.0776808,
              47.0617419
            ]
          }
        },
        {
          "type": "Feature",
          "properties": {
            "id": "12980356442",
            "osm_type": "node",
            "lat": 47.1387494,
            "lon": 15.0937931,
            "addr:city": "Kainach bei Voitsberg",
            "addr:housenumber": "100",
            "addr:place": "Kainach bei Voitsberg",
            "addr:postcode": "8573",
            "amenity": "school",
            "name": "Volksschule Kainach"
          },
          "geometry": {
            "type": "Point",
            "coordinates": [
              15.0937931,
              47.1387494
            ]
          }
        },
        {
          "type": "Feature",
          "properties": {
            "id": "13059965285",
            "osm_type": "node",
            "lat": 47.0711223,
            "lon": 15.1267342,
            "amenity": "school",
            "contact:phone": "+43 3142 6155014",
            "isced:level": "1",
            "name": "Volksschule Bärnbach",
            "website": "https://vs-baernbach-afling.at/baernbach/"
          },
          "geometry": {
            "type": "Point",
            "coordinates": [
              15.1267342,
              47.0711223
            ]
          }
        }
      ],
      "children": []
    },
    {
      "bbox": {
        "south": 47.36431175,
        "west": 13.345766,
        "north": 47.694865,
        "east": 14.2994695
      },
      "poiCount": 27,
      "leafCount": 27,
      "averagePosition": [
        13.710994185185186,
        47.47246406296296
      ],
      "data": [
        {
          "type": "Feature",
          "properties": {
            "id": "655122681",
            "osm_type": "node",
            "lat": 47.5656402,
            "lon": 13.3458823,
            "amenity": "school",
            "name": "Neue Mittelschule Abtenau"
          },
          "geometry": {
            "type": "Point",
            "coordinates": [
              13.3458823,
              47.5656402
            ]
          }
        },
        {
          "type": "Feature",
          "properties": {
            "id": "879788668",
            "osm_type": "node",
            "lat": 47.4340133,
            "lon": 13.5195279,
            "amenity": "school",
            "name": "Volksschule Filzmoos"
          },
          "geometry": {
            "type": "Point",
            "coordinates": [
              13.5195279,
              47.4340133
            ]
          }
        },
        {
          "type": "Feature",
          "properties": {
            "id": "1184554238",
            "osm_type": "node",
            "lat": 47.3838872,
            "lon": 13.4604026,
            "amenity": "school",
            "name": "Volksschule Radstadt",
            "short_name": "VS Radstadt",
            "website": "https://www.vs-radstadt.at/",
            "wheelchair": "yes"
          },
          "geometry": {
            "type": "Point",
            "coordinates": [
              13.4604026,
              47.3838872
            ]
          }
        },
        {
          "type": "Feature",
          "properties": {
            "id": "1259536000",
            "osm_type": "node",
            "lat": 47.5931606,
            "lon": 13.4657578,
            "addr:city": "Rußbach am Paß Gschütt",
            "addr:housenumber": "105",
            "addr:place": "Rußbachsaag",
            "addr:postcode": "5442",
            "amenity": "school",
            "name": "Volksschule Rußbach"
          },
          "geometry": {
            "type": "Point",
            "coordinates": [
              13.4657578,
              47.5931606
            ]
          }
        },
        {
          "type": "Feature",
          "properties": {
            "id": "3940707878",
            "osm_type": "node",
            "lat": 47.4069907,
            "lon": 13.3949262,
            "amenity": "school",
            "name": "Volksschule Eben im Pongau",
            "wheelchair": "yes"
          },
          "geometry": {
            "type": "Point",
            "coordinates": [
              13.3949262,
              47.4069907
            ]
          }
        },
        {
          "type": "Feature",
          "properties": {
            "id": "12250533391",
            "osm_type": "node",
            "lat": 47.3838969,
            "lon": 13.4600598,
            "amenity": "school",
            "name": "Musik-Mittelschule Radstadt Paul Hofheymer",
            "short_name": "MMS Radstadt",
            "website": "https://nms-radstadt.salzburg.at/"
          },
          "geometry": {
            "type": "Point",
            "coordinates": [
              13.4600598,
              47.3838969
            ]
          }
        },
        {
          "type": "Feature",
          "properties": {
            "id": "12287718295",
            "osm_type": "node",
            "lat": 47.584047,
            "lon": 13.5291132,
            "amenity": "school",
            "name": "Musikmittelschule Gosau",
            "short_name": "Musik-MS Gosau",
            "website": "https://www.schule-gosau.at/"
          },
          "geometry": {
            "type": "Point",
            "coordinates": [
              13.5291132,
              47.584047
            ]
          }
        },
        {
          "type": "Feature",
          "properties": {
            "id": "12287718296",
            "osm_type": "node",
            "lat": 47.584179,
            "lon": 13.5292205,
            "amenity": "school",
            "name": "Volksschule Gosau",
            "website": "https://www.schule-gosau.at/index.php/volksschule"
          },
          "geometry": {
            "type": "Point",
            "coordinates": [
              13.5292205,
              47.584179
            ]
          }
        },
        {
          "type": "Feature",
          "properties": {
            "id": "280533512",
            "osm_type": "node",
            "lat": 47.6217093,
            "lon": 13.6448021,
            "addr:city": "Bad Goisern am Hallstättersee",
            "addr:country": "AT",
            "addr:postcode": "4822",
            "amenity": "school",
            "contact:phone": "+43 6135 8522",
            "name": "Volksschule St. Agatha",
            "website": "http://www.vs-agatha.at/"
          },
          "geometry": {
            "type": "Point",
            "coordinates": [
              13.6448021,
              47.6217093
            ]
          }
        },
        {
          "type": "Feature",
          "properties": {
            "id": "1044735817",
            "osm_type": "node",
            "lat": 47.3997452,
            "lon": 13.6986386,
            "amenity": "school",
            "name": "Schihandelsschule, Schi-HAK Schladming"
          },
          "geometry": {
            "type": "Point",
            "coordinates": [
              13.6986386,
              47.3997452
            ]
          }
        },
        {
          "type": "Feature",
          "properties": {
            "id": "1044747129",
            "osm_type": "node",
            "lat": 47.4087973,
            "lon": 13.7690973,
            "amenity": "school",
            "grades": "1-4",
            "name": "Volksschule Haus",
            "phone": "+43 3686 2404",
            "website": "https://www.vs-haus.at",
            "wheelchair": "limited"
          },
          "geometry": {
            "type": "Point",
            "coordinates": [
              13.7690973,
              47.4087973
            ]
          }
        },
        {
          "type": "Feature",
          "properties": {
            "id": "1044801446",
            "osm_type": "node",
            "lat": 47.3935409,
            "lon": 13.6888519,
            "addr:city": "Schladming",
            "addr:housenumber": "411",
            "addr:postcode": "8970",
            "addr:street": "Tutterstraße",
            "amenity": "school",
            "name": "Mittelschule 1 Schladming",
            "short_name": "MS1 Schladming",
            "website": "https://ms1.schladming.at/"
          },
          "geometry": {
            "type": "Point",
            "coordinates": [
              13.6888519,
              47.3935409
            ]
          }
        },
        {
          "type": "Feature",
          "properties": {
            "id": "1044801655",
            "osm_type": "node",
            "lat": 47.3933557,
            "lon": 13.6895437,
            "addr:city": "Schladming",
            "addr:country": "AT",
            "addr:housenumber": "159",
            "addr:postcode": "8970",
            "addr:street": "Schulgasse",
            "amenity": "school",
            "at_bev:addr_date": "2018-04-02",
            "name": "Hermann Kröll Volksschule",
            "short_name": "VS Schladming"
          },
          "geometry": {
            "type": "Point",
            "coordinates": [
              13.6895437,
              47.3933557
            ]
          }
        },
        {
          "type": "Feature",
          "properties": {
            "id": "1044802368",
            "osm_type": "node",
            "lat": 47.3933594,
            "lon": 13.6888839,
            "addr:city": "Schladming",
            "addr:housenumber": "411",
            "addr:postcode": "8970",
            "addr:street": "Tutterstraße",
            "amenity": "school",
            "name": "Polytechnische Schule Schladming",
            "short_name": "PTS Schladming",
            "website": "https://ms1.schladming.at/"
          },
          "geometry": {
            "type": "Point",
            "coordinates": [
              13.6888839,
              47.3933594
            ]
          }
        },
        {
          "type": "Feature",
          "properties": {
            "id": "1044802543",
            "osm_type": "node",
            "lat": 47.3933666,
            "lon": 13.6892004,
            "addr:city": "Schladming",
            "addr:housenumber": "411",
            "addr:postcode": "8970",
            "addr:street": "Tutterstraße",
            "amenity": "school",
            "name": "Musikschule Schladming",
            "wheelchair": "no"
          },
          "geometry": {
            "type": "Point",
            "coordinates": [
              13.6892004,
              47.3933666
            ]
          }
        },
        {
          "type": "Feature",
          "properties": {
            "id": "1363430104",
            "osm_type": "node",
            "lat": 47.3940892,
            "lon": 13.6893505,
            "addr:city": "Schladming",
            "addr:country": "AT",
            "addr:housenumber": "400",
            "addr:postcode": "8970",
            "addr:street": "Erzherzog-Johann-Straße",
            "amenity": "school",
            "at_bev:addr_date": "2018-04-02",
            "name": "Ski-Mittelschule Schladming",
            "short_name": "SKI-MS Schladming",
            "website": "https://skinms.schladming.at/"
          },
          "geometry": {
            "type": "Point",
            "coordinates": [
              13.6893505,
              47.3940892
            ]
          }
        },
        {
          "type": "Feature",
          "properties": {
            "id": "3263164229",
            "osm_type": "node",
            "lat": 47.6263559,
            "lon": 13.83725,
            "amenity": "school",
            "name": "Volksschule Grundlsee"
          },
          "geometry": {
            "type": "Point",
            "coordinates": [
              13.83725,
              47.6263559
            ]
          }
        },
        {
          "type": "Feature",
          "properties": {
            "id": "4820325782",
            "osm_type": "node",
            "lat": 47.3934982,
            "lon": 13.9363211,
            "addr:city": "Sölk",
            "addr:country": "AT",
            "addr:housenumber": "234",
            "addr:place": "Kleinsölk",
            "addr:postcode": "8961",
            "addr:street": "Kleinsölk",
            "amenity": "school",
            "at_bev:addr_date": "2018-04-02",
            "name": "Volksschule Kleinsölk"
          },
          "geometry": {
            "type": "Point",
            "coordinates": [
              13.9363211,
              47.3934982
            ]
          }
        },
        {
          "type": "Feature",
          "properties": {
            "id": "5033006223",
            "osm_type": "node",
            "lat": 47.3890626,
            "lon": 13.6055052,
            "amenity": "school",
            "name": "Volksschule"
          },
          "geometry": {
            "type": "Point",
            "coordinates": [
              13.6055052,
              47.3890626
            ]
          }
        },
        {
          "type": "Feature",
          "properties": {
            "id": "5037688049",
            "osm_type": "node",
            "lat": 47.642732,
            "lon": 13.6140099,
            "addr:housenumber": "4",
            "addr:street": "Kurparkstraße",
            "amenity": "school",
            "name": "NMS & PTS Goisern",
            "phone": "06135 / 8349",
            "website": "https://www.welterbe-mittelschule.at/"
          },
          "geometry": {
            "type": "Point",
            "coordinates": [
              13.6140099,
              47.642732
            ]
          }
        },
        {
          "type": "Feature",
          "properties": {
            "id": "5649200717",
            "osm_type": "node",
            "lat": 47.422862,
            "lon": 13.8753448,
            "addr:city": "Michaelerberg-Pruggern",
            "addr:country": "AT",
            "addr:housenumber": "34",
            "addr:place": "Pruggern",
            "addr:postcode": "8965",
            "amenity": "school",
            "at_bev:addr_date": "2017-10-01",
            "contact:phone": "+43 3685 22540",
            "name": "Volksschule Pruggern",
            "website": "https://www.vspruggern.at/"
          },
          "geometry": {
            "type": "Point",
            "coordinates": [
              13.8753448,
              47.422862
            ]
          }
        },
        {
          "type": "Feature",
          "properties": {
            "id": "7300373895",
            "osm_type": "node",
            "lat": 47.5666815,
            "lon": 13.8672633,
            "addr:city": "Bad Mitterndorf",
            "addr:country": "AT",
            "addr:housenumber": "27",
            "addr:place": "Knoppen",
            "addr:postcode": "8984",
            "amenity": "school",
            "name": "Volksschule"
          },
          "geometry": {
            "type": "Point",
            "coordinates": [
              13.8672633,
              47.5666815
            ]
          }
        },
        {
          "type": "Feature",
          "properties": {
            "id": "9153257782",
            "osm_type": "node",
            "lat": 47.4091258,
            "lon": 13.7690134,
            "addr:city": "Haus",
            "addr:country": "AT",
            "addr:housenumber": "150",
            "addr:postcode": "8967",
            "addr:street": "Schulgasse",
            "amenity": "school",
            "at_bev:addr_date": "2018-04-02",
            "grades": "5-8",
            "name": "Mittelschule Haus",
            "old_name": "Hauptschule Haus",
            "phone": "+43 3686 2574",
            "website": "https://www.ms-haus.at",
            "wheelchair": "limited"
          },
          "geometry": {
            "type": "Point",
            "coordinates": [
              13.7690134,
              47.4091258
            ]
          }
        },
        {
          "type": "Feature",
          "properties": {
            "id": "441581674",
            "osm_type": "node",
            "lat": 47.5063776,
            "lon": 14.1030799,
            "amenity": "school",
            "check_date": "2024-03-27",
            "name": "Volksschule Irdning",
            "website": "https://www.vsirdning.at"
          },
          "geometry": {
            "type": "Point",
            "coordinates": [
              14.1030799,
              47.5063776
            ]
          }
        },
        {
          "type": "Feature",
          "properties": {
            "id": "441581675",
            "osm_type": "node",
            "lat": 47.5024227,
            "lon": 14.0996492,
            "addr:city": "Irdning-Donnersbachtal",
            "addr:country": "AT",
            "addr:housenumber": "38",
            "addr:postcode": "8952",
            "addr:street": "Lindenallee",
            "amenity": "school",
            "check_date": "2024-03-27",
            "contact:email": "office@msirdning.at",
            "contact:phone": "+43 3682 22443",
            "isced:level": "2",
            "name": "Mittelschule Irdning",
            "website": "https://www.msirdning.at/kontakt"
          },
          "geometry": {
            "type": "Point",
            "coordinates": [
              14.0996492,
              47.5024227
            ]
          }
        },
        {
          "type": "Feature",
          "properties": {
            "id": "7151260846",
            "osm_type": "node",
            "lat": 47.4679706,
            "lon": 14.1276616,
            "addr:housenumber": "24",
            "addr:place": "Donnersbach",
            "addr:postcode": "8953",
            "amenity": "school",
            "check_date": "2024-03-27",
            "name": "Josef Krainer-Volksschule"
          },
          "geometry": {
            "type": "Point",
            "coordinates": [
              14.1276616,
              47.4679706
            ]
          }
        },
        {
          "type": "Feature",
          "properties": {
            "id": "11601826909",
            "osm_type": "node",
            "lat": 47.4956623,
            "lon": 14.0984859,
            "amenity": "school",
            "name": "HBLFA Raumberg-Gumpenstein"
          },
          "geometry": {
            "type": "Point",
            "coordinates": [
              14.0984859,
              47.4956623
            ]
          }
        }
      ],
      "children": []
    },
    {
      "bbox": {
        "south": 47.36431175,
        "west": 14.2994695,
        "north": 47.694865,
        "east": 15.253173
      },
      "poiCount": 14,
      "leafCount": 14,
      "averagePosition": [
        14.973541421428573,
        47.46956815
      ],
      "data": [
        {
          "type": "Feature",
          "properties": {
            "id": "9079361561",
            "osm_type": "node",
            "lat": 47.4858848,
            "lon": 14.4879586,
            "addr:city": "Trieben",
            "addr:housenumber": "7",
            "addr:postcode": "8784",
            "addr:street": "Dr.-Adolf-Schärf-Platz",
            "amenity": "school",
            "name": "HTL Trieben",
            "phone": "+43 3615 280 20-30",
            "website": "https://www.htl-trieben.at/"
          },
          "geometry": {
            "type": "Point",
            "coordinates": [
              14.4879586,
              47.4858848
            ]
          }
        },
        {
          "type": "Feature",
          "properties": {
            "id": "1344333029",
            "osm_type": "node",
            "lat": 47.5602781,
            "lon": 14.8648302,
            "amenity": "school",
            "contact:phone": "+43 50 248 029",
            "isced:level": "3",
            "name": "BORG Eisenerz",
            "website": "https://www.borg-eisenerz.at/"
          },
          "geometry": {
            "type": "Point",
            "coordinates": [
              14.8648302,
              47.5602781
            ]
          }
        },
        {
          "type": "Feature",
          "properties": {
            "id": "1344333076",
            "osm_type": "node",
            "lat": 47.560505,
            "lon": 14.865074,
            "amenity": "school",
            "contact:phone": "+43 50 248 030",
            "full_name": "Bundeshandelsakademie - Young business school",
            "name": "Handelsschule Handelsakademie Eisenerz",
            "website": "https://www.bhak-eisenerz.at/home/"
          },
          "geometry": {
            "type": "Point",
            "coordinates": [
              14.865074,
              47.560505
            ]
          }
        },
        {
          "type": "Feature",
          "properties": {
            "id": "3015834096",
            "osm_type": "node",
            "lat": 47.6667048,
            "lon": 14.7880908,
            "addr:city": "Landl",
            "addr:country": "AT",
            "addr:housenumber": "164",
            "addr:place": "Gams bei Hieflau",
            "addr:postcode": "8922",
            "amenity": "school",
            "at_bev:addr_date": "2022-10-01",
            "name": "Volksschule Gams"
          },
          "geometry": {
            "type": "Point",
            "coordinates": [
              14.7880908,
              47.6667048
            ]
          }
        },
        {
          "type": "Feature",
          "properties": {
            "id": "4680601827",
            "osm_type": "node",
            "lat": 47.4903311,
            "lon": 14.5507399,
            "addr:city": "Gaishorn am See",
            "addr:country": "AT",
            "addr:housenumber": "10",
            "addr:place": "Gaishorn am See",
            "addr:postcode": "8783",
            "amenity": "school",
            "at_bev:addr_date": "2016-10-02",
            "contact:email": "vs.gaishorn@aon.at",
            "contact:phone": "+43 3617 2203",
            "name": "Volksschule Gaishorn",
            "source": "geoimage.at"
          },
          "geometry": {
            "type": "Point",
            "coordinates": [
              14.5507399,
              47.4903311
            ]
          }
        },
        {
          "type": "Feature",
          "properties": {
            "id": "8026234259",
            "osm_type": "node",
            "lat": 47.4270073,
            "lon": 15.0066248,
            "addr:city": "Trofaiach",
            "addr:country": "AT",
            "addr:housenumber": "20",
            "addr:postcode": "8793",
            "addr:street": "Roseggergasse",
            "amenity": "school",
            "at_bev:addr_date": "2020-10-01",
            "name": "Mittelschule Trofaiach Schulzweig Informatik",
            "short_name": "SMST IKT",
            "website": "https://www.mittelschule-trofaiach.at/"
          },
          "geometry": {
            "type": "Point",
            "coordinates": [
              15.0066248,
              47.4270073
            ]
          }
        },
        {
          "type": "Feature",
          "properties": {
            "id": "12181975348",
            "osm_type": "node",
            "lat": 47.4265827,
            "lon": 15.0069768,
            "addr:city": "Trofaiach",
            "addr:country": "AT",
            "addr:housenumber": "18",
            "addr:postcode": "8793",
            "addr:street": "Roseggergasse",
            "amenity": "school",
            "entrance": "main",
            "name": "Peter Rosegger Volksschule Trofaiach",
            "short_name": "PRVS",
            "website": "https://www.prvs-trofaiach.at/"
          },
          "geometry": {
            "type": "Point",
            "coordinates": [
              15.0069768,
              47.4265827
            ]
          }
        },
        {
          "type": "Feature",
          "properties": {
            "id": "722710115",
            "osm_type": "node",
            "lat": 47.3983568,
            "lon": 15.1345128,
            "amenity": "school",
            "name": "Kindergarten Proleb"
          },
          "geometry": {
            "type": "Point",
            "coordinates": [
              15.1345128,
              47.3983568
            ]
          }
        },
        {
          "type": "Feature",
          "properties": {
            "id": "722710120",
            "osm_type": "node",
            "lat": 47.3985101,
            "lon": 15.1347209,
            "amenity": "school",
            "name": "Volksschule Proleb"
          },
          "geometry": {
            "type": "Point",
            "coordinates": [
              15.1347209,
              47.3985101
            ]
          }
        },
        {
          "type": "Feature",
          "properties": {
            "id": "1281151376",
            "osm_type": "node",
            "lat": 47.4703005,
            "lon": 15.1281711,
            "addr:city": "Tragöß-Sankt Katharein",
            "addr:country": "AT",
            "addr:housenumber": "85",
            "addr:place": "Niederdorf",
            "addr:postcode": "8611",
            "amenity": "school",
            "contact:phone": "+43 3869 5107",
            "isced:level": "1-2",
            "name": "Volksschule und Mittelschule Tragöß - St. Kathrein",
            "old_name": "Hauptschule St. Katharein",
            "website": "https://www.sz-katharein.at/"
          },
          "geometry": {
            "type": "Point",
            "coordinates": [
              15.1281711,
              47.4703005
            ]
          }
        },
        {
          "type": "Feature",
          "properties": {
            "id": "1488577944",
            "osm_type": "node",
            "lat": 47.5236927,
            "lon": 15.2317929,
            "amenity": "school",
            "name": "Volksschule Thörl"
          },
          "geometry": {
            "type": "Point",
            "coordinates": [
              15.2317929,
              47.5236927
            ]
          }
        },
        {
          "type": "Feature",
          "properties": {
            "id": "1746007448",
            "osm_type": "node",
            "lat": 47.401941,
            "lon": 15.2100616,
            "addr:city": "Bruck an der Mur",
            "addr:country": "AT",
            "addr:housenumber": "52",
            "addr:place": "Utschtal",
            "addr:postcode": "8600",
            "amenity": "school",
            "at_bev:addr_date": "2016-10-02",
            "name": "Volksschule"
          },
          "geometry": {
            "type": "Point",
            "coordinates": [
              15.2100616,
              47.401941
            ]
          }
        },
        {
          "type": "Feature",
          "properties": {
            "id": "7513716321",
            "osm_type": "node",
            "lat": 47.3743265,
            "lon": 15.0830746,
            "addr:city": "Leoben",
            "addr:housenumber": "13",
            "addr:postcode": "8700",
            "addr:street": "Kerpelystraße",
            "amenity": "school",
            "name": "Polytechnische Schule Leoben",
            "phone": "+43 3842 4062-758",
            "website": "https://www.pts-leoben.at/"
          },
          "geometry": {
            "type": "Point",
            "coordinates": [
              15.0830746,
              47.3743265
            ]
          }
        },
        {
          "type": "Feature",
          "properties": {
            "id": "9079536283",
            "osm_type": "node",
            "lat": 47.3895327,
            "lon": 15.1369509,
            "addr:city": "Niklasdorf",
            "addr:country": "AT",
            "addr:postcode": "8712",
            "amenity": "school",
            "contact:email": "wifi.niklasdorf@stmk.wifi.at",
            "name": "WIFI Niklasdorf",
            "website": "https://www.stmk.wifi.at/artikel/5308-wifi-obersteiermark-anreise"
          },
          "geometry": {
            "type": "Point",
            "coordinates": [
              15.1369509,
              47.3895327
            ]
          }
        }
      ],
      "children": []
    }
  ]
}