{
  "bbox": {
    "south": 48.355971499999995,
    "west": 13.345766,
    "north": 49.017078,
    "east": 15.253173
  },
  "poiCount": 170,
  "leafCount": 0,
  "averagePosition": [
    14.349537722941175,
    48.664018111176475
  ],
  "data": [],
  "children": [
    {
      "bbox": {
        "south": 48.355971499999995,
        "west": 13.345766,
        "north": 48.68652475,
        "east": 14.2994695
      },
      "poiCount": 46,
      "leafCount": 46,
      "averagePosition": [
        13.81128169347826,
        48.49037053695652
      ],
      "data": [
        {
          "type": "Feature",
          "properties": {
            "id": "693242699",
            "osm_type": "node",
            "lat": 48.3719992,
            "lon": 13.5699778,
            "addr:city": "Andorf",
            "addr:country": "AT",
            "addr:housenumber": "17",
            "addr:postcode": "4770",
            "addr:street": "Riedfeldstraße",
            "amenity": "school",
            "name": "Mittelschule Andorf",
            "ref": "414012",
            "website": "http://www.nmsandorf.at/"
          },
          "geometry": {
            "type": "Point",
            "coordinates": [
              13.5699778,
              48.3719992
            ]
          }
        },
        {
          "type": "Feature",
          "properties": {
            "id": "1693347030",
            "osm_type": "node",
            "lat": 48.3626946,
            "lon": 14.0021899,
            "addr:housenumber": "1",
            "addr:postcode": "4081",
            "addr:street": "Schulgasse",
            "amenity": "school",
            "name": "Volksschule Hartkirchen"
          },
          "geometry": {
            "type": "Point",
            "coordinates": [
              14.0021899,
              48.3626946
            ]
          }
        },
        {
          "type": "Feature",
          "properties": {
            "id": "12166147956",
            "osm_type": "node",
            "lat": 48.3622872,
            "lon": 14.0019234,
            "amenity": "school",
            "name": "Mittelschule Hartkirchen"
          },
          "geometry": {
            "type": "Point",
            "coordinates": [
              14.0019234,
              48.3622872
            ]
          }
        },
        {
          "type": "Feature",
          "properties": {
            "id": "1088060124",
            "osm_type": "node",
            "lat": 48.3601138,
            "lon": 14.2573091,
            "amenity": "school",
            "check_date": "2025-07-17",
            "name": "Volksschule Lichtenberg"
          },
          "geometry": {
            "type": "Point",
            "coordinates": [
              14.2573091,
              48.3601138
            ]
          }
        },
        {
          "type": "Feature",
          "properties": {
            "id": "860578279",
            "osm_type": "node",
            "lat": 48.5913635,
            "lon": 13.485048,
            "amenity": "school",
            "check_date": "2024-06-23",
            "name": "St. Severin",
            "wheelchair": "yes"
          },
          "geometry": {
            "type": "Point",
            "coordinates": [
              13.485048,
              48.5913635
            ]
          }
        },
        {
          "type": "Feature",
          "properties": {
            "id": "2058579791",
            "osm_type": "node",
            "lat": 48.4005271,
            "lon": 13.3890119,
            "amenity": "school",
            "name": "Grundschule Hartkirchen"
          },
          "geometry": {
            "type": "Point",
            "coordinates": [
              13.3890119,
              48.4005271
            ]
          }
        },
        {
          "type": "Feature",
          "properties": {
            "id": "2281899075",
            "osm_type": "node",
            "lat": 48.4399292,
            "lon": 13.4407515,
            "addr:city": "St. Florian am Inn",
            "addr:country": "AT",
            "addr:housenumber": "48",
            "addr:place": "Sankt Florian am Inn",
            "addr:postcode": "4782",
            "amenity": "school",
            "at_bev:addr_date": "2018-04-02",
            "contact:email": "s414131@lsr.eduhi.at",
            "contact:phone": "+43 7712 2668",
            "name": "Volksschule St. Florian am Inn",
            "source": "survey"
          },
          "geometry": {
            "type": "Point",
            "coordinates": [
              13.4407515,
              48.4399292
            ]
          }
        },
        {
          "type": "Feature",
          "properties": {
            "id": "2347139714",
            "osm_type": "node",
            "lat": 48.506907,
            "lon": 13.4598276,
            "amenity": "school",
            "name": "Volksschule",
            "wheelchair": "limited"
          },
          "geometry": {
            "type": "Point",
            "coordinates": [
              13.4598276,
              48.506907
            ]
          }
        },
        {
          "type": "Feature",
          "properties": {
            "id": "3200899169",
            "osm_type": "node",
            "lat": 48.6451135,
            "lon": 13.3855818,
            "addr:housenumber": "11",
            "addr:street": "Schulstraße",
            "amenity": "school",
            "check_date": "2024-04-28",
            "name": "Grundschule Haselbach",
            "website": "https://gs-haselbach.de/"
          },
          "geometry": {
            "type": "Point",
            "coordinates": [
              13.3855818,
              48.6451135
            ]
          }
        },
        {
          "type": "Feature",
          "properties": {
            "id": "3442696413",
            "osm_type": "node",
            "lat": 48.4456807,
            "lon": 13.4455202,
            "amenity": "school",
            "name": "Technikum",
            "operator": "Bfi Oberösterreich"
          },
          "geometry": {
            "type": "Point",
            "coordinates": [
              13.4455202,
              48.4456807
            ]
          }
        },
        {
          "type": "Feature",
          "properties": {
            "id": "11555175783",
            "osm_type": "node",
            "lat": 48.4602844,
            "lon": 13.4266985,
            "addr:city": "Neuhaus am Inn",
            "addr:country": "DE",
            "addr:housenumber": "1",
            "addr:postcode": "94152",
            "addr:street": "Schloß",
            "amenity": "school",
            "contact:email": "sekretariat@rs-n.de",
            "contact:phone": "+49 8503 923970",
            "contact:website": "https://www.rs-n.de/",
            "isced:level": "2",
            "name": "Maria-Ward-Realschule Neuhaus am Inn",
            "note": "von 1859 bis 2011 Kloster",
            "source": "plan.at 2009"
          },
          "geometry": {
            "type": "Point",
            "coordinates": [
              13.4266985,
              48.4602844
            ]
          }
        },
        {
          "type": "Feature",
          "properties": {
            "id": "11645131383",
            "osm_type": "node",
            "lat": 48.4610068,
            "lon": 13.3900928,
            "amenity": "school",
            "name": "Grundschule",
            "operator": "Schulverband Neuhaus"
          },
          "geometry": {
            "type": "Point",
            "coordinates": [
              13.3900928,
              48.4610068
            ]
          }
        },
        {
          "type": "Feature",
          "properties": {
            "id": "294899602",
            "osm_type": "node",
            "lat": 48.6389584,
            "lon": 13.9683864,
            "addr:city": "Aigen-Schlägl",
            "addr:country": "AT",
            "addr:housenumber": "23",
            "addr:postcode": "4160",
            "addr:street": "Schulstraße",
            "amenity": "school",
            "name": "Hauptschule Aigen"
          },
          "geometry": {
            "type": "Point",
            "coordinates": [
              13.9683864,
              48.6389584
            ]
          }
        },
        {
          "type": "Feature",
          "properties": {
            "id": "294899942",
            "osm_type": "node",
            "lat": 48.6390905,
            "lon": 13.9692722,
            "addr:city": "Aigen-Schlägl",
            "addr:country": "AT",
            "addr:housenumber": "1",
            "addr:postcode": "4160",
            "addr:street": "Schulstraße",
            "amenity": "school",
            "name": "Volksschule Schlägl"
          },
          "geometry": {
            "type": "Point",
            "coordinates": [
              13.9692722,
              48.6390905
            ]
          }
        },
        {
          "type": "Feature",
          "properties": {
            "id": "309963430",
            "osm_type": "node",
            "lat": 48.6180112,
            "lon": 13.5404066,
            "amenity": "school",
            "name": "Alois Johannes Lippl Volksschule Thyrnau",
            "wheelchair": "no"
          },
          "geometry": {
            "type": "Point",
            "coordinates": [
              13.5404066,
              48.6180112
            ]
          }
        },
        {
          "type": "Feature",
          "properties": {
            "id": "417134682",
            "osm_type": "node",
            "lat": 48.6167939,
            "lon": 13.8955494,
            "amenity": "school",
            "name": "Hauptschule Peilstein"
          },
          "geometry": {
            "type": "Point",
            "coordinates": [
              13.8955494,
              48.6167939
            ]
          }
        },
        {
          "type": "Feature",
          "properties": {
            "id": "693238891",
            "osm_type": "node",
            "lat": 48.3732571,
            "lon": 13.572027,
            "addr:city": "Andorf",
            "addr:country": "AT",
            "addr:housenumber": "16",
            "addr:postcode": "4770",
            "addr:street": "Rathausstraße",
            "amenity": "school",
            "name": "Landwirtschaftliche Fachschule",
            "website": "http://fachschule.andorf.eduhi.at/"
          },
          "geometry": {
            "type": "Point",
            "coordinates": [
              13.572027,
              48.3732571
            ]
          }
        },
        {
          "type": "Feature",
          "properties": {
            "id": "693276887",
            "osm_type": "node",
            "lat": 48.3733411,
            "lon": 13.5729548,
            "addr:city": "Andorf",
            "addr:housenumber": "1",
            "addr:postcode": "4770",
            "addr:street": "Hans-Holz-Straße",
            "amenity": "school",
            "name": "Volksschule Andorf",
            "ref": "414041",
            "website": "https://www.volksschule-andorf.at/"
          },
          "geometry": {
            "type": "Point",
            "coordinates": [
              13.5729548,
              48.3733411
            ]
          }
        },
        {
          "type": "Feature",
          "properties": {
            "id": "702351904",
            "osm_type": "node",
            "lat": 48.3871295,
            "lon": 13.8784671,
            "addr:city": "St. Agatha",
            "addr:country": "AT",
            "addr:housenumber": "1",
            "addr:postcode": "4084",
            "addr:street": "Schulweg",
            "amenity": "school",
            "at_bev:addr_date": "2017-10-01",
            "name": "Neue Mittelschule St. Agatha",
            "phone": "+43 (7277) 8361",
            "website": "http://schulen.eduhi.at/hsst.agatha/"
          },
          "geometry": {
            "type": "Point",
            "coordinates": [
              13.8784671,
              48.3871295
            ]
          }
        },
        {
          "type": "Feature",
          "properties": {
            "id": "702355937",
            "osm_type": "node",
            "lat": 48.3867858,
            "lon": 13.878797,
            "addr:city": "St. Agatha",
            "addr:country": "AT",
            "addr:housenumber": "7",
            "addr:postcode": "4084",
            "addr:street": "Stauffstraße",
            "amenity": "school",
            "at_bev:addr_date": "2017-10-01",
            "name": "Volksschule",
            "phone": "+43 (7277) 8266"
          },
          "geometry": {
            "type": "Point",
            "coordinates": [
              13.878797,
              48.3867858
            ]
          }
        },
        {
          "type": "Feature",
          "properties": {
            "id": "904411889",
            "osm_type": "node",
            "lat": 48.5764484,
            "lon": 13.6173642,
            "amenity": "school",
            "name": "Grundschule Nottau",
            "wheelchair": "no"
          },
          "geometry": {
            "type": "Point",
            "coordinates": [
              13.6173642,
              48.5764484
            ]
          }
        },
        {
          "type": "Feature",
          "properties": {
            "id": "1822857605",
            "osm_type": "node",
            "lat": 48.6162354,
            "lon": 13.595997,
            "addr:city": "Hauzenberg",
            "addr:country": "DE",
            "addr:housenumber": "10",
            "addr:postcode": "94051",
            "addr:street": "Hochhausstraße",
            "amenity": "school",
            "name": "Grundschule Haag-Wolkar",
            "website": "https://www.gs-haag-wolkar.de/",
            "wheelchair": "no"
          },
          "geometry": {
            "type": "Point",
            "coordinates": [
              13.595997,
              48.6162354
            ]
          }
        },
        {
          "type": "Feature",
          "properties": {
            "id": "1992487191",
            "osm_type": "node",
            "lat": 48.6338431,
            "lon": 13.6661589,
            "amenity": "school",
            "wheelchair": "no"
          },
          "geometry": {
            "type": "Point",
            "coordinates": [
              13.6661589,
              48.6338431
            ]
          }
        },
        {
          "type": "Feature",
          "properties": {
            "id": "3031363612",
            "osm_type": "node",
            "lat": 48.6749104,
            "lon": 13.9123346,
            "amenity": "school",
            "name": "Musikschule"
          },
          "geometry": {
            "type": "Point",
            "coordinates": [
              13.9123346,
              48.6749104
            ]
          }
        },
        {
          "type": "Feature",
          "properties": {
            "id": "3245969173",
            "osm_type": "node",
            "lat": 48.4436006,
            "lon": 13.9381399,
            "amenity": "school",
            "name": "Turnsaal Volksschule"
          },
          "geometry": {
            "type": "Point",
            "coordinates": [
              13.9381399,
              48.4436006
            ]
          }
        },
        {
          "type": "Feature",
          "properties": {
            "id": "4384334142",
            "osm_type": "node",
            "lat": 48.3957254,
            "lon": 13.5998841,
            "addr:housenumber": "6",
            "addr:street": "Hofmark",
            "amenity": "school",
            "name": "Johann - EV. Volksschule"
          },
          "geometry": {
            "type": "Point",
            "coordinates": [
              13.5998841,
              48.3957254
            ]
          }
        },
        {
          "type": "Feature",
          "properties": {
            "id": "4445785325",
            "osm_type": "node",
            "lat": 48.5271583,
            "lon": 13.7557968,
            "amenity": "school",
            "name": "Volksschule Neustift"
          },
          "geometry": {
            "type": "Point",
            "coordinates": [
              13.7557968,
              48.5271583
            ]
          }
        },
        {
          "type": "Feature",
          "properties": {
            "id": "6698838986",
            "osm_type": "node",
            "lat": 48.4119481,
            "lon": 13.5731055,
            "addr:city": "Diersbach",
            "addr:country": "AT",
            "addr:housenumber": "11",
            "addr:postcode": "4776",
            "addr:street": "Am Berg",
            "amenity": "school",
            "at_bev:addr_date": "2018-10-01",
            "name": "Volksschule Diersbach"
          },
          "geometry": {
            "type": "Point",
            "coordinates": [
              13.5731055,
              48.4119481
            ]
          }
        },
        {
          "type": "Feature",
          "properties": {
            "id": "7462050122",
            "osm_type": "node",
            "lat": 48.3730161,
            "lon": 13.5730639,
            "amenity": "school",
            "name": "Landesmusikschule Andorf"
          },
          "geometry": {
            "type": "Point",
            "coordinates": [
              13.5730639,
              48.3730161
            ]
          }
        },
        {
          "type": "Feature",
          "properties": {
            "id": "8170396197",
            "osm_type": "node",
            "lat": 48.409152,
            "lon": 13.5324056,
            "amenity": "school",
            "name": "Landesmusikschule Taufkirchen an der Pram"
          },
          "geometry": {
            "type": "Point",
            "coordinates": [
              13.5324056,
              48.409152
            ]
          }
        },
        {
          "type": "Feature",
          "properties": {
            "id": "8742403418",
            "osm_type": "node",
            "lat": 48.6534824,
            "lon": 13.6314236,
            "addr:city": "Hauzenberg",
            "addr:country": "DE",
            "addr:housenumber": "24",
            "addr:postcode": "94051",
            "addr:street": "Eckmühlstraße",
            "amenity": "school",
            "contact:email": "verwaltung@realschule-hauzenberg.de",
            "contact:fax": "+49 8586 91130",
            "contact:phone": "+49 8586 15501",
            "contact:website": "https://www.realschule-hauzenberg.de/",
            "isced:level": "2",
            "name": "Johann-Riederer-Schule"
          },
          "geometry": {
            "type": "Point",
            "coordinates": [
              13.6314236,
              48.6534824
            ]
          }
        },
        {
          "type": "Feature",
          "properties": {
            "id": "9226805621",
            "osm_type": "node",
            "lat": 48.484436,
            "lon": 13.9704613,
            "addr:city": "Altenfelden",
            "addr:housenumber": "6",
            "addr:postcode": "4121",
            "addr:street": "Schulstraße",
            "amenity": "school",
            "name": "Pfarrcaritas-Kindergarten Altenfelden",
            "operator": "Caritas Österreich",
            "operator:type": "ngo",
            "operator:wikidata": "Q1036350",
            "phone": "0728265500"
          },
          "geometry": {
            "type": "Point",
            "coordinates": [
              13.9704613,
              48.484436
            ]
          }
        },
        {
          "type": "Feature",
          "properties": {
            "id": "11115309354",
            "osm_type": "node",
            "lat": 48.480219,
            "lon": 13.9945399,
            "addr:city": "Neufelden",
            "addr:housenumber": "45",
            "addr:postcode": "4120",
            "addr:street": "Höferweg",
            "amenity": "school",
            "name": "Mittelschule Neufelden"
          },
          "geometry": {
            "type": "Point",
            "coordinates": [
              13.9945399,
              48.480219
            ]
          }
        },
        {
          "type": "Feature",
          "properties": {
            "id": "11115309355",
            "osm_type": "node",
            "lat": 48.479618,
            "lon": 13.9944621,
            "addr:city": "Neufelden",
            "addr:housenumber": "47",
            "addr:postcode": "4120",
            "addr:street": "Höferweg",
            "amenity": "school",
            "name": "HTL Neufelden",
            "website": "https://htl-neufelden.at",
            "wikidata": "Q99672669"
          },
          "geometry": {
            "type": "Point",
            "coordinates": [
              13.9944621,
              48.479618
            ]
          }
        },
        {
          "type": "Feature",
          "properties": {
            "id": "361583377",
            "osm_type": "node",
            "lat": 48.5746266,
            "lon": 14.04728,
            "addr:city": "Haslach an der Mühl",
            "addr:country": "AT",
            "addr:housenumber": "24",
            "addr:postcode": "4170",
            "addr:street": "Sternwaldstraße",
            "amenity": "school",
            "name": "Hauptschule Haslach"
          },
          "geometry": {
            "type": "Point",
            "coordinates": [
              14.04728,
              48.5746266
            ]
          }
        },
        {
          "type": "Feature",
          "properties": {
            "id": "479007721",
            "osm_type": "node",
            "lat": 48.3951738,
            "lon": 14.2333282,
            "amenity": "school",
            "name": "Volksschule Eidenberg"
          },
          "geometry": {
            "type": "Point",
            "coordinates": [
              14.2333282,
              48.3951738
            ]
          }
        },
        {
          "type": "Feature",
          "properties": {
            "id": "607975263",
            "osm_type": "node",
            "lat": 48.5685356,
            "lon": 14.1016416,
            "addr:city": "St. Stefan-Afiesl",
            "addr:country": "AT",
            "addr:housenumber": "28",
            "addr:place": "St. Stefan am Walde",
            "addr:postcode": "4170",
            "amenity": "school",
            "name": "Volksschule St. Stefan"
          },
          "geometry": {
            "type": "Point",
            "coordinates": [
              14.1016416,
              48.5685356
            ]
          }
        },
        {
          "type": "Feature",
          "properties": {
            "id": "618088342",
            "osm_type": "node",
            "lat": 48.5214256,
            "lon": 14.2895544,
            "amenity": "school",
            "name": "Polytechnische Schule"
          },
          "geometry": {
            "type": "Point",
            "coordinates": [
              14.2895544,
              48.5214256
            ]
          }
        },
        {
          "type": "Feature",
          "properties": {
            "id": "2037994507",
            "osm_type": "node",
            "lat": 48.5742453,
            "lon": 14.0472038,
            "amenity": "school",
            "name": "Volksschule Haslach"
          },
          "geometry": {
            "type": "Point",
            "coordinates": [
              14.0472038,
              48.5742453
            ]
          }
        },
        {
          "type": "Feature",
          "properties": {
            "id": "2184025061",
            "osm_type": "node",
            "lat": 48.5240375,
            "lon": 14.2922351,
            "addr:city": "Bad Leonfelden",
            "addr:country": "AT",
            "addr:housenumber": "7",
            "addr:postcode": "4190",
            "addr:street": "Böhmer Straße",
            "amenity": "school",
            "name": "Lernstudio One",
            "website": "https://www.lernstudio-one.at/"
          },
          "geometry": {
            "type": "Point",
            "coordinates": [
              14.2922351,
              48.5240375
            ]
          }
        },
        {
          "type": "Feature",
          "properties": {
            "id": "2343003193",
            "osm_type": "node",
            "lat": 48.5760183,
            "lon": 14.0525129,
            "addr:city": "Haslach an der Mühl",
            "addr:country": "AT",
            "addr:housenumber": "3",
            "addr:postcode": "4170",
            "addr:street": "Grubberg",
            "amenity": "school",
            "name": "Technische Fachschule Haslach"
          },
          "geometry": {
            "type": "Point",
            "coordinates": [
              14.0525129,
              48.5760183
            ]
          }
        },
        {
          "type": "Feature",
          "properties": {
            "id": "3988212998",
            "osm_type": "node",
            "lat": 48.4905201,
            "lon": 14.1307621,
            "amenity": "school",
            "name": "Volksschule"
          },
          "geometry": {
            "type": "Point",
            "coordinates": [
              14.1307621,
              48.4905201
            ]
          }
        },
        {
          "type": "Feature",
          "properties": {
            "id": "3988213000",
            "osm_type": "node",
            "lat": 48.4901455,
            "lon": 14.1307539,
            "amenity": "school",
            "name": "Turnsaal",
            "operator": "Volksschule St. Johann"
          },
          "geometry": {
            "type": "Point",
            "coordinates": [
              14.1307539,
              48.4901455
            ]
          }
        },
        {
          "type": "Feature",
          "properties": {
            "id": "12616757705",
            "osm_type": "node",
            "lat": 48.4135914,
            "lon": 14.0359569,
            "amenity": "school",
            "isced:level": "2",
            "name": "Mittelschule Sankt Martin im Mühlkreis",
            "website": "https://nms-sankt-martin.jimdofree.com/"
          },
          "geometry": {
            "type": "Point",
            "coordinates": [
              14.0359569,
              48.4135914
            ]
          }
        },
        {
          "type": "Feature",
          "properties": {
            "id": "12616828427",
            "osm_type": "node",
            "lat": 48.4138469,
            "lon": 14.0361215,
            "amenity": "school",
            "name": "Landesmusikschule Sankt Martin im Mühlkreis",
            "website": "https://st-martin-muehlkreis.landesmusikschulen.at/"
          },
          "geometry": {
            "type": "Point",
            "coordinates": [
              14.0361215,
              48.4138469
            ]
          }
        },
        {
          "type": "Feature",
          "properties": {
            "id": "12616828428",
            "osm_type": "node",
            "lat": 48.4138104,
            "lon": 14.0366771,
            "amenity": "school",
            "isced:level": "1",
            "name": "Volksschule Sankt Martin im Mühlkreis"
          },
          "geometry": {
            "type": "Point",
            "coordinates": [
              14.0366771,
              48.4138104
            ]
          }
        }
      ],
      "children": []
    },
    {
      "bbox": {
        "south": 48.355971499999995,
        "west": 14.2994695,
        "north": 48.68652475,
        "east": 15.253173
      },
      "poiCount": 51,
      "leafCount": 0,
      "averagePosition": [
        14.857467478431372,
        48.49842628431372
      ],
      "data": [],
      "children": [
        {
          "bbox": {
            "south": 48.355971499999995,
            "west": 14.2994695,
            "north": 48.521248125,
            "east": 14.77632125
          },
          "poiCount": 15,
          "leafCount": 15,
          "averagePosition": [
            14.553769140000002,
            48.447707726666664
          ],
          "data": [
            {
              "type": "Feature",
              "properties": {
                "id": "385954620",
                "osm_type": "node",
                "lat": 48.3671696,
                "lon": 14.5175948,
                "addr:city": "Hagenberg",
                "addr:housenumber": "88",
                "addr:postcode": "4232",
                "addr:street": "Hauptstraße",
                "amenity": "school",
                "name": "Volksschule",
                "wheelchair": "yes"
              },
              "geometry": {
                "type": "Point",
                "coordinates": [
                  14.5175948,
                  48.3671696
                ]
              }
            },
            {
              "type": "Feature",
              "properties": {
                "id": "825446051",
                "osm_type": "node",
                "lat": 48.3574658,
                "lon": 14.5333588,
                "amenity": "school",
                "name": "Volksschule"
              },
              "geometry": {
                "type": "Point",
                "coordinates": [
                  14.5333588,
                  48.3574658
                ]
              }
            },
            {
              "type": "Feature",
              "properties": {
                "id": "576331172",
                "osm_type": "node",
                "lat": 48.4063641,
                "lon": 14.4193494,
                "amenity": "school",
                "name": "Volksschule Alberndorf"
              },
              "geometry": {
                "type": "Point",
                "coordinates": [
                  14.4193494,
                  48.4063641
                ]
              }
            },
            {
              "type": "Feature",
              "properties": {
                "id": "962075838",
                "osm_type": "node",
                "lat": 48.4908153,
                "lon": 14.4090017,
                "amenity": "school",
                "name": "Volksschule"
              },
              "geometry": {
                "type": "Point",
                "coordinates": [
                  14.4090017,
                  48.4908153
                ]
              }
            },
            {
              "type": "Feature",
              "properties": {
                "id": "1789011696",
                "osm_type": "node",
                "lat": 48.5194246,
                "lon": 14.301743,
                "amenity": "school",
                "name": "Sommerhaus Internat"
              },
              "geometry": {
                "type": "Point",
                "coordinates": [
                  14.301743,
                  48.5194246
                ]
              }
            },
            {
              "type": "Feature",
              "properties": {
                "id": "1789012030",
                "osm_type": "node",
                "lat": 48.5192379,
                "lon": 14.3015285,
                "amenity": "school",
                "name": "Sommerhaus Internat"
              },
              "geometry": {
                "type": "Point",
                "coordinates": [
                  14.3015285,
                  48.5192379
                ]
              }
            },
            {
              "type": "Feature",
              "properties": {
                "id": "6065674286",
                "osm_type": "node",
                "lat": 48.5101237,
                "lon": 14.4395501,
                "amenity": "school",
                "name": "Volksschule Waldburg"
              },
              "geometry": {
                "type": "Point",
                "coordinates": [
                  14.4395501,
                  48.5101237
                ]
              }
            },
            {
              "type": "Feature",
              "properties": {
                "id": "313838479",
                "osm_type": "node",
                "lat": 48.4161285,
                "lon": 14.610929,
                "amenity": "school",
                "name": "Mittelschule Gutau",
                "website": "https://www.nmsgutau.at/",
                "wheelchair": "yes"
              },
              "geometry": {
                "type": "Point",
                "coordinates": [
                  14.610929,
                  48.4161285
                ]
              }
            },
            {
              "type": "Feature",
              "properties": {
                "id": "313907624",
                "osm_type": "node",
                "lat": 48.4537249,
                "lon": 14.6168437,
                "amenity": "school",
                "name": "Volksschule Fürling"
              },
              "geometry": {
                "type": "Point",
                "coordinates": [
                  14.6168437,
                  48.4537249
                ]
              }
            },
            {
              "type": "Feature",
              "properties": {
                "id": "1604797822",
                "osm_type": "node",
                "lat": 48.4439553,
                "lon": 14.6809268,
                "amenity": "school",
                "name": "MusikSchule St.Leonhard"
              },
              "geometry": {
                "type": "Point",
                "coordinates": [
                  14.6809268,
                  48.4439553
                ]
              }
            },
            {
              "type": "Feature",
              "properties": {
                "id": "1604797825",
                "osm_type": "node",
                "lat": 48.4439846,
                "lon": 14.6803934,
                "amenity": "school",
                "name": "Hauptschule St. Leonhard"
              },
              "geometry": {
                "type": "Point",
                "coordinates": [
                  14.6803934,
                  48.4439846
                ]
              }
            },
            {
              "type": "Feature",
              "properties": {
                "id": "1604797831",
                "osm_type": "node",
                "lat": 48.4449605,
                "lon": 14.6796143,
                "amenity": "school",
                "name": "Volksschule St. Leonhard"
              },
              "geometry": {
                "type": "Point",
                "coordinates": [
                  14.6796143,
                  48.4449605
                ]
              }
            },
            {
              "type": "Feature",
              "properties": {
                "id": "4330793364",
                "osm_type": "node",
                "lat": 48.4505476,
                "lon": 14.7750848,
                "addr:city": "Kaltenberg",
                "addr:housenumber": "22",
                "addr:place": "Kaltenberg",
                "addr:postcode": "4273",
                "amenity": "school",
                "name": "Volksschule Kaltenberg"
              },
              "geometry": {
                "type": "Point",
                "coordinates": [
                  14.7750848,
                  48.4505476
                ]
              }
            },
            {
              "type": "Feature",
              "properties": {
                "id": "12156350880",
                "osm_type": "node",
                "lat": 48.4162295,
                "lon": 14.6115844,
                "amenity": "school",
                "name": "Volksschule Gutau",
                "website": "https://www.vs-gutau.at/"
              },
              "geometry": {
                "type": "Point",
                "coordinates": [
                  14.6115844,
                  48.4162295
                ]
              }
            },
            {
              "type": "Feature",
              "properties": {
                "id": "12850465090",
                "osm_type": "node",
                "lat": 48.475484,
                "lon": 14.7290344,
                "amenity": "school",
                "name": "Volksschule Weitersfelden"
              },
              "geometry": {
                "type": "Point",
                "coordinates": [
                  14.7290344,
                  48.475484
                ]
              }
            }
          ],
          "children": []
        },
        {
          "bbox": {
            "south": 48.355971499999995,
            "west": 14.77632125,
            "north": 48.521248125,
            "east": 15.253173
          },
          "poiCount": 18,
          "leafCount": 18,
          "averagePosition": [
            15.04345991111111,
            48.44123223888889
          ],
          "data": [
            {
              "type": "Feature",
              "properties": {
                "id": "3766919651",
                "osm_type": "node",
                "lat": 48.3669157,
                "lon": 15.1224388,
                "addr:city": "Gutenbrunn",
                "addr:country": "AT",
                "addr:housenumber": "120",
                "addr:place": "Gutenbrunn",
                "addr:postcode": "3665",
                "amenity": "school",
                "name": "Volksschule Gutenbrunn"
              },
              "geometry": {
                "type": "Point",
                "coordinates": [
                  15.1224388,
                  48.3669157
                ]
              }
            },
            {
              "type": "Feature",
              "properties": {
                "id": "1356987511",
                "osm_type": "node",
                "lat": 48.4607091,
                "lon": 14.965896,
                "amenity": "school",
                "name": "Volksschule Altmelon"
              },
              "geometry": {
                "type": "Point",
                "coordinates": [
                  14.965896,
                  48.4607091
                ]
              }
            },
            {
              "type": "Feature",
              "properties": {
                "id": "4330955492",
                "osm_type": "node",
                "lat": 48.4398804,
                "lon": 14.784518,
                "amenity": "school",
                "name": "Volksschule Unterweißenbach"
              },
              "geometry": {
                "type": "Point",
                "coordinates": [
                  14.784518,
                  48.4398804
                ]
              }
            },
            {
              "type": "Feature",
              "properties": {
                "id": "4330955493",
                "osm_type": "node",
                "lat": 48.4401971,
                "lon": 14.783512,
                "amenity": "school",
                "name": "Hauptschule Unterweißenbach"
              },
              "geometry": {
                "type": "Point",
                "coordinates": [
                  14.783512,
                  48.4401971
                ]
              }
            },
            {
              "type": "Feature",
              "properties": {
                "id": "4330955494",
                "osm_type": "node",
                "lat": 48.4401623,
                "lon": 14.7831351,
                "amenity": "school",
                "name": "Polytechnische Schule Unterweißenbach"
              },
              "geometry": {
                "type": "Point",
                "coordinates": [
                  14.7831351,
                  48.4401623
                ]
              }
            },
            {
              "type": "Feature",
              "properties": {
                "id": "4332194156",
                "osm_type": "node",
                "lat": 48.4400174,
                "lon": 14.7840505,
                "amenity": "school",
                "name": "Sonderschule Unterweißenbach"
              },
              "geometry": {
                "type": "Point",
                "coordinates": [
                  14.7840505,
                  48.4400174
                ]
              }
            },
            {
              "type": "Feature",
              "properties": {
                "id": "5435984969",
                "osm_type": "node",
                "lat": 48.3907885,
                "lon": 15.0063452,
                "amenity": "school",
                "name": "Volksschule Bärnkopf"
              },
              "geometry": {
                "type": "Point",
                "coordinates": [
                  15.0063452,
                  48.3907885
                ]
              }
            },
            {
              "type": "Feature",
              "properties": {
                "id": "457641703",
                "osm_type": "node",
                "lat": 48.5205869,
                "lon": 15.0789149,
                "amenity": "school",
                "name": "Neue NÖ Mittelschule Rappottenstein"
              },
              "geometry": {
                "type": "Point",
                "coordinates": [
                  15.0789149,
                  48.5205869
                ]
              }
            },
            {
              "type": "Feature",
              "properties": {
                "id": "457641988",
                "osm_type": "node",
                "lat": 48.5204828,
                "lon": 15.0781437,
                "amenity": "school",
                "name": "Volksschule"
              },
              "geometry": {
                "type": "Point",
                "coordinates": [
                  15.0781437,
                  48.5204828
                ]
              }
            },
            {
              "type": "Feature",
              "properties": {
                "id": "582449721",
                "osm_type": "node",
                "lat": 48.4363419,
                "lon": 15.115144,
                "amenity": "school",
                "name": "Volksschule"
              },
              "geometry": {
                "type": "Point",
                "coordinates": [
                  15.115144,
                  48.4363419
                ]
              }
            },
            {
              "type": "Feature",
              "properties": {
                "id": "602167949",
                "osm_type": "node",
                "lat": 48.4543651,
                "lon": 15.0375773,
                "amenity": "school",
                "name": "Volksschule"
              },
              "geometry": {
                "type": "Point",
                "coordinates": [
                  15.0375773,
                  48.4543651
                ]
              }
            },
            {
              "type": "Feature",
              "properties": {
                "id": "5516314881",
                "osm_type": "node",
                "lat": 48.4545003,
                "lon": 15.037401,
                "amenity": "school",
                "name": "Neue NÖ Mittelschule Schönbach"
              },
              "geometry": {
                "type": "Point",
                "coordinates": [
                  15.037401,
                  48.4545003
                ]
              }
            },
            {
              "type": "Feature",
              "properties": {
                "id": "6005280789",
                "osm_type": "node",
                "lat": 48.5001814,
                "lon": 15.1640621,
                "addr:city": "Grafenschlag",
                "addr:country": "AT",
                "addr:housenumber": "100",
                "addr:place": "Grafenschlag",
                "addr:postcode": "3912",
                "amenity": "school",
                "amenity_1": "kindergarten",
                "name": "Volksschule & Kindergarten"
              },
              "geometry": {
                "type": "Point",
                "coordinates": [
                  15.1640621,
                  48.5001814
                ]
              }
            },
            {
              "type": "Feature",
              "properties": {
                "id": "6005438883",
                "osm_type": "node",
                "lat": 48.4659337,
                "lon": 15.2301818,
                "addr:city": "Sallingberg",
                "addr:housenumber": "3",
                "addr:postcode": "3525",
                "addr:street": "Schulgasse",
                "amenity": "school",
                "name": "Volksschule Sallingberg"
              },
              "geometry": {
                "type": "Point",
                "coordinates": [
                  15.2301818,
                  48.4659337
                ]
              }
            },
            {
              "type": "Feature",
              "properties": {
                "id": "6180945822",
                "osm_type": "node",
                "lat": 48.3899762,
                "lon": 15.2204119,
                "addr:city": "Kirchschlag",
                "addr:country": "AT",
                "addr:housenumber": "63",
                "addr:place": "Kirchschlag",
                "addr:postcode": "3631",
                "amenity": "school",
                "name": "VS Kirchschlag-Ottenschlag",
                "website": "https://vs-ottenschlag-kirchschlag.jimdofree.com/"
              },
              "geometry": {
                "type": "Point",
                "coordinates": [
                  15.2204119,
                  48.3899762
                ]
              }
            },
            {
              "type": "Feature",
              "properties": {
                "id": "6180950890",
                "osm_type": "node",
                "lat": 48.3770317,
                "lon": 15.1486259,
                "addr:city": "Martinsberg",
                "addr:country": "AT",
                "addr:housenumber": "2",
                "addr:postcode": "3664",
                "addr:street": "Weinsbergstraße",
                "amenity": "school",
                "at_bev:addr_date": "2021-10-01",
                "name": "Neue NÖ Mittelschule Martinsberg",
                "old_addr:housenumber": "135"
              },
              "geometry": {
                "type": "Point",
                "coordinates": [
                  15.1486259,
                  48.3770317
                ]
              }
            },
            {
              "type": "Feature",
              "properties": {
                "id": "6180989310",
                "osm_type": "node",
                "lat": 48.4221634,
                "lon": 15.2211222,
                "addr:city": "Ottenschlag",
                "addr:country": "AT",
                "addr:housenumber": "4",
                "addr:postcode": "3631",
                "addr:street": "Michael-Jank-Gasse",
                "amenity": "school",
                "name": "Allgemeine Sonderschule"
              },
              "geometry": {
                "type": "Point",
                "coordinates": [
                  15.2211222,
                  48.4221634
                ]
              }
            },
            {
              "type": "Feature",
              "properties": {
                "id": "6180989311",
                "osm_type": "node",
                "lat": 48.4219464,
                "lon": 15.220798,
                "addr:city": "Ottenschlag",
                "addr:housenumber": "4",
                "addr:postcode": "3631",
                "addr:street": "Michael-Jank-Gasse",
                "amenity": "school",
                "name": "NMS Ottenschlag"
              },
              "geometry": {
                "type": "Point",
                "coordinates": [
                  15.220798,
                  48.4219464
                ]
              }
            }
          ],
          "children": []
        },
        {
          "bbox": {
            "south": 48.521248125,
            "west": 14.2994695,
            "north": 48.68652475,
            "east": 14.77632125
          },
          "poiCount": 3,
          "leafCount": 3,
          "averagePosition": [
            14.534351599999999,
            48.55788866666666
          ],
          "data": [
            {
              "type": "Feature",
              "properties": {
                "id": "773596163",
                "osm_type": "node",
                "lat": 48.5562435,
                "lon": 14.4792196,
                "addr:city": "Rainbach im Mühlkreis",
                "addr:country": "AT",
                "addr:postcode": "4261",
                "addr:street": "Schulstraße",
                "amenity": "school",
                "name": "VS Rainbach i.M",
                "school": "Volksschule"
              },
              "geometry": {
                "type": "Point",
                "coordinates": [
                  14.4792196,
                  48.5562435
                ]
              }
            },
            {
              "type": "Feature",
              "properties": {
                "id": "773596167",
                "osm_type": "node",
                "lat": 48.556411,
                "lon": 14.4793823,
                "amenity": "school",
                "name": "KHS Rainbach i.M",
                "school": "Hauptschule"
              },
              "geometry": {
                "type": "Point",
                "coordinates": [
                  14.4793823,
                  48.556411
                ]
              }
            },
            {
              "type": "Feature",
              "properties": {
                "id": "1806571466",
                "osm_type": "node",
                "lat": 48.5610115,
                "lon": 14.6444529,
                "amenity": "school"
              },
              "geometry": {
                "type": "Point",
                "coordinates": [
                  14.6444529,
                  48.5610115
                ]
              }
            }
          ],
          "children": []
        },
        {
          "bbox": {
            "south": 48.521248125,
            "west": 14.77632125,
            "north": 48.68652475,
            "east": 15.253173
          },
          "poiCount": 15,
          "leafCount": 15,
          "averagePosition": [
            15.002598073333333,
            48.60588522
          ],
          "data": [
            {
              "type": "Feature",
              "properties": {
                "id": "1629359603",
                "osm_type": "node",
                "lat": 48.6399097,
                "lon": 15.0298427,
                "amenity": "school",
                "name": "Volksschule Jagenbach"
              },
              "geometry": {
                "type": "Point",
                "coordinates": [
                  15.0298427,
                  48.6399097
                ]
              }
            },
            {
              "type": "Feature",
              "properties": {
                "id": "1819016990",
                "osm_type": "node",
                "lat": 48.5733537,
                "lon": 14.8837438,
                "addr:city": "Langschlag",
                "addr:country": "AT",
                "addr:housenumber": "115",
                "addr:place": "Langschlag",
                "addr:postcode": "3921",
                "amenity": "school",
                "name": "Volksschule",
                "website": "https://vslangschlag.at"
              },
              "geometry": {
                "type": "Point",
                "coordinates": [
                  14.8837438,
                  48.5733537
                ]
              }
            },
            {
              "type": "Feature",
              "properties": {
                "id": "1837397721",
                "osm_type": "node",
                "lat": 48.6513694,
                "lon": 14.9396185,
                "addr:city": "Großschönau",
                "addr:country": "AT",
                "addr:housenumber": "120",
                "addr:place": "Großschönau",
                "addr:postcode": "3922",
                "amenity": "school",
                "name": "Volksschule Großschönau"
              },
              "geometry": {
                "type": "Point",
                "coordinates": [
                  14.9396185,
                  48.6513694
                ]
              }
            },
            {
              "type": "Feature",
              "properties": {
                "id": "2775474550",
                "osm_type": "node",
                "lat": 48.6511768,
                "lon": 14.9392459,
                "addr:city": "Großschönau",
                "addr:country": "AT",
                "addr:housenumber": "120",
                "addr:place": "Großschönau",
                "addr:postcode": "3922",
                "alt_name": "BETZ",
                "amenity": "school",
                "email": "betz@gross.schoenau.at",
                "name": "BioEnergetischesTrainingsZentrum",
                "phone": "0043 2815 7003",
                "website": "https://www.betz.at/"
              },
              "geometry": {
                "type": "Point",
                "coordinates": [
                  14.9392459,
                  48.6511768
                ]
              }
            },
            {
              "type": "Feature",
              "properties": {
                "id": "2775548115",
                "osm_type": "node",
                "lat": 48.6513918,
                "lon": 14.9394072,
                "addr:city": "Großschönau",
                "addr:country": "AT",
                "addr:housenumber": "120",
                "addr:place": "Großschönau",
                "addr:postcode": "3922",
                "amenity": "school",
                "email": "telestube@gross.schoenau.at",
                "name": "Betz Telestube",
                "phone": "0043 2815 7009",
                "website": "http://www.telestube.at"
              },
              "geometry": {
                "type": "Point",
                "coordinates": [
                  14.9394072,
                  48.6513918
                ]
              }
            },
            {
              "type": "Feature",
              "properties": {
                "id": "4134878688",
                "osm_type": "node",
                "lat": 48.532846,
                "lon": 14.8064462,
                "addr:city": "Liebenau",
                "addr:country": "AT",
                "addr:housenumber": "78",
                "addr:place": "Liebenau",
                "addr:postcode": "4252",
                "amenity": "school",
                "ele": "975",
                "name": "Neue Mittelschule Liebenau",
                "operator": "Landesschulrat OÖ & Gemeinde Liebenau"
              },
              "geometry": {
                "type": "Point",
                "coordinates": [
                  14.8064462,
                  48.532846
                ]
              }
            },
            {
              "type": "Feature",
              "properties": {
                "id": "4134882942",
                "osm_type": "node",
                "lat": 48.5329419,
                "lon": 14.8056334,
                "addr:city": "Liebenau",
                "addr:country": "AT",
                "addr:housenumber": "100",
                "addr:place": "Liebenau",
                "addr:postcode": "4252",
                "amenity": "school",
                "name": "Volksschule Liebenau",
                "operator": "Oö. Landesschulrat & Marktgemeinde Liebenau"
              },
              "geometry": {
                "type": "Point",
                "coordinates": [
                  14.8056334,
                  48.5329419
                ]
              }
            },
            {
              "type": "Feature",
              "properties": {
                "id": "5516488856",
                "osm_type": "node",
                "lat": 48.6417165,
                "lon": 14.90906,
                "addr:city": "Großschönau",
                "addr:housenumber": "2",
                "addr:place": "Harmannstein",
                "addr:postcode": "3922",
                "amenity": "school",
                "name": "PAN Freilandschule"
              },
              "geometry": {
                "type": "Point",
                "coordinates": [
                  14.90906,
                  48.6417165
                ]
              }
            },
            {
              "type": "Feature",
              "properties": {
                "id": "11062851393",
                "osm_type": "node",
                "lat": 48.5734695,
                "lon": 14.8840083,
                "addr:city": "Langschlag",
                "addr:country": "AT",
                "addr:housenumber": "115",
                "addr:place": "Langschlag",
                "addr:postcode": "3921",
                "amenity": "school",
                "name": "Neue Mittelschule Langschlag",
                "website": "http://nms.langschlag.at"
              },
              "geometry": {
                "type": "Point",
                "coordinates": [
                  14.8840083,
                  48.5734695
                ]
              }
            },
            {
              "type": "Feature",
              "properties": {
                "id": "513404947",
                "osm_type": "node",
                "lat": 48.6066544,
                "lon": 15.2229259,
                "amenity": "school",
                "name": "Landwirtschaftliche Fachschule"
              },
              "geometry": {
                "type": "Point",
                "coordinates": [
                  15.2229259,
                  48.6066544
                ]
              }
            },
            {
              "type": "Feature",
              "properties": {
                "id": "1630158865",
                "osm_type": "node",
                "lat": 48.6684873,
                "lon": 15.0654542,
                "amenity": "school"
              },
              "geometry": {
                "type": "Point",
                "coordinates": [
                  15.0654542,
                  48.6684873
                ]
              }
            },
            {
              "type": "Feature",
              "properties": {
                "id": "5885366995",
                "osm_type": "node",
                "lat": 48.5397021,
                "lon": 15.1889661,
                "addr:city": "Großgöttfritz",
                "addr:housenumber": "60",
                "addr:place": "Großgöttfritz",
                "addr:postcode": "3913",
                "amenity": "school",
                "name": "Volksschule",
                "wheelchair": "limited"
              },
              "geometry": {
                "type": "Point",
                "coordinates": [
                  15.1889661,
                  48.5397021
                ]
              }
            },
            {
              "type": "Feature",
              "properties": {
                "id": "6316882064",
                "osm_type": "node",
                "lat": 48.6013917,
                "lon": 15.0617495,
                "amenity": "school",
                "name": "Volksschule"
              },
              "geometry": {
                "type": "Point",
                "coordinates": [
                  15.0617495,
                  48.6013917
                ]
              }
            },
            {
              "type": "Feature",
              "properties": {
                "id": "8911808562",
                "osm_type": "node",
                "lat": 48.6169882,
                "lon": 15.2016404,
                "amenity": "school",
                "name": "Bildungshaus"
              },
              "geometry": {
                "type": "Point",
                "coordinates": [
                  15.2016404,
                  48.6169882
                ]
              }
            },
            {
              "type": "Feature",
              "properties": {
                "id": "9455391711",
                "osm_type": "node",
                "lat": 48.6068793,
                "lon": 15.161229,
                "amenity": "school",
                "name": "IT-Expositur der HTL-Krems"
              },
              "geometry": {
                "type": "Point",
                "coordinates": [
                  15.161229,
                  48.6068793
                ]
              }
            }
          ],
          "children": []
        }
      ]
    },
    {
      "bbox": {
        "south": 48.68652475,
        "west": 13.345766,
        "north": 49.017078,
        "east": 14.2994695
      },
      "poiCount": 22,
      "leafCount": 22,
      "averagePosition": [
        13.644562890909093,
        48.85580129545454
      ],
      "data": [
        {
          "type": "Feature",
          "properties": {
            "id": "1601406645",
            "osm_type": "node",
            "lat": 48.8626056,
            "lon": 13.3993111,
            "amenity": "school",
            "name": "Probst-Seyberer Schule Grafenau"
          },
          "geometry": {
            "type": "Point",
            "coordinates": [
              13.3993111,
              48.8626056
            ]
          }
        },
        {
          "type": "Feature",
          "properties": {
            "id": "1601406649",
            "osm_type": "node",
            "lat": 48.862175,
            "lon": 13.4003196,
            "amenity": "school",
            "name": "Staatliche Realschule Grafenau",
            "wheelchair": "yes"
          },
          "geometry": {
            "type": "Point",
            "coordinates": [
              13.4003196,
              48.862175
            ]
          }
        },
        {
          "type": "Feature",
          "properties": {
            "id": "1601406652",
            "osm_type": "node",
            "lat": 48.8626409,
            "lon": 13.4010706,
            "access": "yes",
            "amenity": "school",
            "name": "Landgraf-Leuchtenberg-Gymnasium Grafenau",
            "operator": "Landgraf-Leuchtenberg-Gymnasium Grafenau",
            "toilets:wheelchair": "yes",
            "wheelchair": "yes",
            "wikidata": "Q1802925"
          },
          "geometry": {
            "type": "Point",
            "coordinates": [
              13.4010706,
              48.8626409
            ]
          }
        },
        {
          "type": "Feature",
          "properties": {
            "id": "1780129901",
            "osm_type": "node",
            "lat": 48.7279753,
            "lon": 13.3783518,
            "amenity": "school",
            "name": "Wilhelm-Niedermayer-Grund- und Mittelschule"
          },
          "geometry": {
            "type": "Point",
            "coordinates": [
              13.3783518,
              48.7279753
            ]
          }
        },
        {
          "type": "Feature",
          "properties": {
            "id": "1780129924",
            "osm_type": "node",
            "lat": 48.7283115,
            "lon": 13.3765655,
            "amenity": "school",
            "check_date": "2024-03-23",
            "name": "Staatliche Realschule Tittling"
          },
          "geometry": {
            "type": "Point",
            "coordinates": [
              13.3765655,
              48.7283115
            ]
          }
        },
        {
          "type": "Feature",
          "properties": {
            "id": "3143809081",
            "osm_type": "node",
            "lat": 48.8601955,
            "lon": 13.4007443,
            "addr:city": "Grafenau",
            "addr:country": "DE",
            "addr:housenumber": "4",
            "addr:postcode": "94481",
            "addr:street": "Koeppelstraße",
            "amenity": "school",
            "name": "Altenpflegeakademie Bayerischer Wald"
          },
          "geometry": {
            "type": "Point",
            "coordinates": [
              13.4007443,
              48.8601955
            ]
          }
        },
        {
          "type": "Feature",
          "properties": {
            "id": "3483820421",
            "osm_type": "node",
            "lat": 48.8023817,
            "lon": 13.3963561,
            "amenity": "school",
            "name": "Schule Haus i. Wald",
            "wheelchair": "no"
          },
          "geometry": {
            "type": "Point",
            "coordinates": [
              13.3963561,
              48.8023817
            ]
          }
        },
        {
          "type": "Feature",
          "properties": {
            "id": "10709920623",
            "osm_type": "node",
            "lat": 48.8598231,
            "lon": 13.3995587,
            "addr:city": "Grafenau",
            "addr:country": "DE",
            "addr:housenumber": "6",
            "addr:postcode": "94481",
            "addr:street": "Koeppelstraße",
            "amenity": "school",
            "name": "Reinhold-Koeppel-Grundschule",
            "website": "https://gs-gra.de"
          },
          "geometry": {
            "type": "Point",
            "coordinates": [
              13.3995587,
              48.8598231
            ]
          }
        },
        {
          "type": "Feature",
          "properties": {
            "id": "300303652",
            "osm_type": "node",
            "lat": 48.7050748,
            "lon": 13.7927342,
            "amenity": "school"
          },
          "geometry": {
            "type": "Point",
            "coordinates": [
              13.7927342,
              48.7050748
            ]
          }
        },
        {
          "type": "Feature",
          "properties": {
            "id": "3704229306",
            "osm_type": "node",
            "lat": 48.7870536,
            "lon": 13.9549202,
            "amenity": "school",
            "name": "ZŠ"
          },
          "geometry": {
            "type": "Point",
            "coordinates": [
              13.9549202,
              48.7870536
            ]
          }
        },
        {
          "type": "Feature",
          "properties": {
            "id": "5873325505",
            "osm_type": "node",
            "lat": 48.8252452,
            "lon": 13.6014704,
            "addr:city": "Hinterschmiding",
            "addr:housenumber": "10",
            "addr:postcode": "94146",
            "addr:street": "Möselstraße",
            "amenity": "school",
            "name": "Caritas-Kindergarten Hinterschmiding",
            "operator": "Deutscher Caritasverband",
            "operator:type": "ngo",
            "operator:wikidata": "Q29508174"
          },
          "geometry": {
            "type": "Point",
            "coordinates": [
              13.6014704,
              48.8252452
            ]
          }
        },
        {
          "type": "Feature",
          "properties": {
            "id": "886038807",
            "osm_type": "node",
            "lat": 48.7382005,
            "lon": 14.110356,
            "addr:city": "Černá v Pošumaví",
            "addr:conscriptionnumber": "71",
            "addr:country": "CZ",
            "addr:housenumber": "71",
            "addr:place": "Černá v Pošumaví",
            "addr:postcode": "38223",
            "amenity": "school",
            "grades": "1-5",
            "name": "Základní škola - Černá v Pošumaví",
            "operator": "obec Černá v Pošumaví",
            "phone": "+420 380 744 121",
            "ref:ruian:addr": "12945161",
            "website": "https://zs-mscernavposumavi.cz/"
          },
          "geometry": {
            "type": "Point",
            "coordinates": [
              14.110356,
              48.7382005
            ]
          }
        },
        {
          "type": "Feature",
          "properties": {
            "id": "13069760442",
            "osm_type": "node",
            "lat": 48.7674156,
            "lon": 14.0344121,
            "addr:city": "Horní Planá",
            "addr:housenumber": "179",
            "addr:postcode": "38226",
            "addr:street": "Komenského",
            "amenity": "school",
            "name": "ZŠ a MŠ Horní Planá"
          },
          "geometry": {
            "type": "Point",
            "coordinates": [
              14.0344121,
              48.7674156
            ]
          }
        },
        {
          "type": "Feature",
          "properties": {
            "id": "473728126",
            "osm_type": "node",
            "lat": 48.9073282,
            "lon": 13.3831331,
            "amenity": "school",
            "name": "Hauptschule"
          },
          "geometry": {
            "type": "Point",
            "coordinates": [
              13.3831331,
              48.9073282
            ]
          }
        },
        {
          "type": "Feature",
          "properties": {
            "id": "1667053854",
            "osm_type": "node",
            "lat": 48.9103808,
            "lon": 13.3513344,
            "addr:city": "Spiegelau",
            "addr:country": "DE",
            "addr:housenumber": "5",
            "addr:postcode": "94518",
            "addr:street": "Reithackerweg",
            "amenity": "school",
            "contact:email": "vsspiegelau@t-online.de",
            "contact:fax": "+49 8553 920390",
            "contact:phone": "+49 8553 1260",
            "isced:level": "1",
            "name": "Grundschule Spiegelau",
            "operator": "Landkreis Freyung-Grafenau",
            "operator:type": "public",
            "ref": "3645"
          },
          "geometry": {
            "type": "Point",
            "coordinates": [
              13.3513344,
              48.9103808
            ]
          }
        },
        {
          "type": "Feature",
          "properties": {
            "id": "3247910690",
            "osm_type": "node",
            "lat": 48.9261176,
            "lon": 13.4651335,
            "amenity": "school",
            "name": "Schneesportschule"
          },
          "geometry": {
            "type": "Point",
            "coordinates": [
              13.4651335,
              48.9261176
            ]
          }
        },
        {
          "type": "Feature",
          "properties": {
            "id": "996898980",
            "osm_type": "node",
            "lat": 48.987575,
            "lon": 13.6690365,
            "addr:conscriptionnumber": "37",
            "addr:housename": "ZŠ a MŠ Borová Lada",
            "addr:housenumber": "37",
            "addr:place": "Borová Lada",
            "addr:postcode": "38492",
            "amenity": "school",
            "name": "ZŠ a MŠ Borová Lada",
            "ref:ruian:addr": "17682207",
            "source": "cuzk:ruian"
          },
          "geometry": {
            "type": "Point",
            "coordinates": [
              13.6690365,
              48.987575
            ]
          }
        },
        {
          "type": "Feature",
          "properties": {
            "id": "1111681314",
            "osm_type": "node",
            "lat": 48.9549722,
            "lon": 13.7583075,
            "amenity": "school",
            "name": "ZŠ"
          },
          "geometry": {
            "type": "Point",
            "coordinates": [
              13.7583075,
              48.9549722
            ]
          }
        },
        {
          "type": "Feature",
          "properties": {
            "id": "2411639785",
            "osm_type": "node",
            "lat": 48.909836,
            "lon": 13.8823695,
            "addr:city": "Volary",
            "addr:conscriptionnumber": "512",
            "addr:country": "CZ",
            "addr:housenumber": "512",
            "addr:postcode": "38451",
            "addr:street": "U Nádraží",
            "amenity": "school",
            "name": "Základní škola Volary",
            "ref:ruian:addr": "858161",
            "source:addr": "cuzk:ruian",
            "website": "http://www.zsvolary.cz/"
          },
          "geometry": {
            "type": "Point",
            "coordinates": [
              13.8823695,
              48.909836
            ]
          }
        },
        {
          "type": "Feature",
          "properties": {
            "id": "10134743472",
            "osm_type": "node",
            "lat": 49.0116031,
            "lon": 14.0007301,
            "amenity": "school",
            "name": "Vyšší odborná škola sociální a střední pedagogická škola",
            "wikidata": "Q61478054",
            "wikipedia": "cs:Vyšší odborná škola sociální a střední pedagogická škola Prachatice"
          },
          "geometry": {
            "type": "Point",
            "coordinates": [
              14.0007301,
              49.0116031
            ]
          }
        },
        {
          "type": "Feature",
          "properties": {
            "id": "11396240260",
            "osm_type": "node",
            "lat": 48.9122523,
            "lon": 13.8930635,
            "amenity": "school",
            "name": "ZUŠ Vlolary"
          },
          "geometry": {
            "type": "Point",
            "coordinates": [
              13.8930635,
              48.9122523
            ]
          }
        },
        {
          "type": "Feature",
          "properties": {
            "id": "12900532849",
            "osm_type": "node",
            "lat": 48.918465,
            "lon": 14.1311049,
            "addr:city": "Ktiš",
            "amenity": "school",
            "name": "ZŠ Ktiš"
          },
          "geometry": {
            "type": "Point",
            "coordinates": [
              14.1311049,
              48.918465
            ]
          }
        }
      ],
      "children": []
    },
    {
      "bbox": {
        "south": 48.68652475,
        "west": 14.2994695,
        "north": 49.017078,
        "east": 15.253173
      },
      "poiCount": 51,
      "leafCount": 0,
      "averagePosition": [
        14.631200588235295,
        48.90350323921569
      ],
      "data": [],
      "children": [
        {
          "bbox": {
            "south": 48.68652475,
            "west": 14.2994695,
            "north": 48.851801374999994,
            "east": 14.77632125
          },
          "poiCount": 7,
          "leafCount": 7,
          "averagePosition": [
            14.518065671428571,
            48.80457264285714
          ],
          "data": [
            {
              "type": "Feature",
              "properties": {
                "id": "6008509570",
                "osm_type": "node",
                "lat": 48.8232012,
                "lon": 14.5092405,
                "amenity": "school",
                "isced:level": "0",
                "isced:level_1": "1",
                "name": "Základní škola a Mateřská škola Svatý Jan nad Malší"
              },
              "geometry": {
                "type": "Point",
                "coordinates": [
                  14.5092405,
                  48.8232012
                ]
              }
            },
            {
              "type": "Feature",
              "properties": {
                "id": "6997573236",
                "osm_type": "node",
                "lat": 48.8129111,
                "lon": 14.3189832,
                "addr:city": "Český Krumlov",
                "addr:postcode": "381 01",
                "addr:street": "Klášterní",
                "amenity": "school",
                "check_date": "2024-05-17",
                "name": "Ateliér SUPŠ svaté Anežky české",
                "operator": "SUPŠ svaté Anežky české"
              },
              "geometry": {
                "type": "Point",
                "coordinates": [
                  14.3189832,
                  48.8129111
                ]
              }
            },
            {
              "type": "Feature",
              "properties": {
                "id": "7006975802",
                "osm_type": "node",
                "lat": 48.8190113,
                "lon": 14.3237079,
                "addr:city": "Český Krumlov",
                "addr:housenumber": "179",
                "addr:postcode": "38101",
                "addr:street": "Pod Kamenem",
                "amenity": "school",
                "name": "Střední odborná škola zdravotnická a Střední odborné učiliště"
              },
              "geometry": {
                "type": "Point",
                "coordinates": [
                  14.3237079,
                  48.8190113
                ]
              }
            },
            {
              "type": "Feature",
              "properties": {
                "id": "11367287190",
                "osm_type": "node",
                "lat": 48.7013114,
                "lon": 14.4324593,
                "amenity": "school",
                "name": "ZŠ a MŠ Bujanov"
              },
              "geometry": {
                "type": "Point",
                "coordinates": [
                  14.4324593,
                  48.7013114
                ]
              }
            },
            {
              "type": "Feature",
              "properties": {
                "id": "4473943089",
                "osm_type": "node",
                "lat": 48.7889299,
                "lon": 14.7747869,
                "amenity": "school",
                "email": "info@zustsviny.cz",
                "fax": "+420 386 362 169",
                "name": "ZUŠ F. Pišingera",
                "phone": "+420 386 362 169",
                "website": "https://www.zustsviny.cz/nove_hrady/kontakty.html"
              },
              "geometry": {
                "type": "Point",
                "coordinates": [
                  14.7747869,
                  48.7889299
                ]
              }
            },
            {
              "type": "Feature",
              "properties": {
                "id": "7245942812",
                "osm_type": "node",
                "lat": 48.8434662,
                "lon": 14.6328741,
                "amenity": "school",
                "name": "Základní škola Trhové Sviny",
                "short_name": "ZŠ Trhové Sviny"
              },
              "geometry": {
                "type": "Point",
                "coordinates": [
                  14.6328741,
                  48.8434662
                ]
              }
            },
            {
              "type": "Feature",
              "properties": {
                "id": "7926119592",
                "osm_type": "node",
                "lat": 48.8431774,
                "lon": 14.6344078,
                "amenity": "school",
                "name": "Střední škola Trhové Sviny"
              },
              "geometry": {
                "type": "Point",
                "coordinates": [
                  14.6344078,
                  48.8431774
                ]
              }
            }
          ],
          "children": []
        },
        {
          "bbox": {
            "south": 48.68652475,
            "west": 14.77632125,
            "north": 48.851801374999994,
            "east": 15.253173
          },
          "poiCount": 10,
          "leafCount": 10,
          "averagePosition": [
            15.010364110000001,
            48.7682015
          ],
          "data": [
            {
              "type": "Feature",
              "properties": {
                "id": "881143265",
                "osm_type": "node",
                "lat": 48.7891885,
                "lon": 14.7770423,
                "amenity": "school",
                "check_date": "2023-12-28",
                "name": "základní škola"
              },
              "geometry": {
                "type": "Point",
                "coordinates": [
                  14.7770423,
                  48.7891885
                ]
              }
            },
            {
              "type": "Feature",
              "properties": {
                "id": "1531579006",
                "osm_type": "node",
                "lat": 48.7103322,
                "lon": 14.7981238,
                "amenity": "school"
              },
              "geometry": {
                "type": "Point",
                "coordinates": [
                  14.7981238,
                  48.7103322
                ]
              }
            },
            {
              "type": "Feature",
              "properties": {
                "id": "3671509751",
                "osm_type": "node",
                "lat": 48.7881623,
                "lon": 14.7795157,
                "amenity": "school",
                "name": "Základní škola"
              },
              "geometry": {
                "type": "Point",
                "coordinates": [
                  14.7795157,
                  48.7881623
                ]
              }
            },
            {
              "type": "Feature",
              "properties": {
                "id": "4348506824",
                "osm_type": "node",
                "lat": 48.7713041,
                "lon": 15.0235651,
                "amenity": "school",
                "isced:level": "1",
                "name": "Volksschule Hoheneich"
              },
              "geometry": {
                "type": "Point",
                "coordinates": [
                  15.0235651,
                  48.7713041
                ]
              }
            },
            {
              "type": "Feature",
              "properties": {
                "id": "5516560838",
                "osm_type": "node",
                "lat": 48.7663079,
                "lon": 14.9793784,
                "addr:city": "Gmünd",
                "addr:housenumber": "2",
                "addr:postcode": "3950",
                "addr:street": "Otto-Glöckel-Straße",
                "amenity": "school",
                "name": "Neue NÖ Mittelschule 1 Gmünd"
              },
              "geometry": {
                "type": "Point",
                "coordinates": [
                  14.9793784,
                  48.7663079
                ]
              }
            },
            {
              "type": "Feature",
              "properties": {
                "id": "513446652",
                "osm_type": "node",
                "lat": 48.7204977,
                "lon": 15.2181309,
                "amenity": "school",
                "name": "Volksschule"
              },
              "geometry": {
                "type": "Point",
                "coordinates": [
                  15.2181309,
                  48.7204977
                ]
              }
            },
            {
              "type": "Feature",
              "properties": {
                "id": "1751001271",
                "osm_type": "node",
                "lat": 48.8311305,
                "lon": 15.0904181,
                "addr:city": "Amaliendorf-Aalfang",
                "addr:country": "AT",
                "addr:housenumber": "159",
                "addr:postcode": "3872",
                "addr:street": "Hauptstraße",
                "amenity": "school",
                "email": "vs.amaliendorf-aalfang@noeschule.at",
                "name": "Volksschule Amaliendorf",
                "phone": "+43 2862 53498",
                "website": "https://www.vsamaliendorf-aalfang.ac.at/",
                "wheelchair": "no"
              },
              "geometry": {
                "type": "Point",
                "coordinates": [
                  15.0904181,
                  48.8311305
                ]
              }
            },
            {
              "type": "Feature",
              "properties": {
                "id": "1933418848",
                "osm_type": "node",
                "lat": 48.7568625,
                "lon": 15.1862137,
                "amenity": "school",
                "name": "Volksschule Vitis"
              },
              "geometry": {
                "type": "Point",
                "coordinates": [
                  15.1862137,
                  48.7568625
                ]
              }
            },
            {
              "type": "Feature",
              "properties": {
                "id": "5516428015",
                "osm_type": "node",
                "lat": 48.7570094,
                "lon": 15.1863144,
                "addr:city": "Vitis",
                "addr:housenumber": "5",
                "addr:postcode": "3902",
                "addr:street": "Zwettler Straße",
                "amenity": "school",
                "name": "Neue NÖ Mittelschule Vitis"
              },
              "geometry": {
                "type": "Point",
                "coordinates": [
                  15.1863144,
                  48.7570094
                ]
              }
            },
            {
              "type": "Feature",
              "properties": {
                "id": "5516514569",
                "osm_type": "node",
                "lat": 48.7912199,
                "lon": 15.0649387,
                "addr:city": "Schrems",
                "addr:housenumber": "1",
                "addr:place": "Stadtpark",
                "addr:postcode": "3943",
                "amenity": "school",
                "check_date": "2025-07-29",
                "name": "Neue NÖ Mittelschule Schrems"
              },
              "geometry": {
                "type": "Point",
                "coordinates": [
                  15.0649387,
                  48.7912199
                ]
              }
            }
          ],
          "children": []
        },
        {
          "bbox": {
            "south": 48.851801374999994,
            "west": 14.2994695,
            "north": 49.017078,
            "east": 14.77632125
          },
          "poiCount": 30,
          "leafCount": 30,
          "averagePosition": [
            14.471586,
            48.96962761333334
          ],
          "data": [
            {
              "type": "Feature",
              "properties": {
                "id": "449756063",
                "osm_type": "node",
                "lat": 48.9753736,
                "lon": 14.4816271,
                "addr:city": "České Budějovice",
                "addr:conscriptionnumber": "28",
                "addr:country": "CZ",
                "addr:housenumber": "28/22",
                "addr:postcode": "37001",
                "addr:street": "Jeronýmova",
                "addr:streetnumber": "22",
                "amenity": "school",
                "email": "svepes@skolacb.cz",
                "name": "Soukromá střední a jazyková škola",
                "phone": "+420 732 348 990",
                "school": "yes",
                "source:addr": "cuzk:ruian",
                "website": "https://www.skolacb.cz/"
              },
              "geometry": {
                "type": "Point",
                "coordinates": [
                  14.4816271,
                  48.9753736
                ]
              }
            },
            {
              "type": "Feature",
              "properties": {
                "id": "628084270",
                "osm_type": "node",
                "lat": 48.9753205,
                "lon": 14.4717505,
                "amenity": "school",
                "name": "ZUŠ"
              },
              "geometry": {
                "type": "Point",
                "coordinates": [
                  14.4717505,
                  48.9753205
                ]
              }
            },
            {
              "type": "Feature",
              "properties": {
                "id": "963243820",
                "osm_type": "node",
                "lat": 48.904097,
                "lon": 14.3099576,
                "addr:city": "Křemže",
                "addr:conscriptionnumber": "182",
                "addr:country": "CZ",
                "addr:housenumber": "182",
                "addr:postcode": "38203",
                "addr:street": "Školní",
                "amenity": "school",
                "name": "Základní škola Křemže",
                "source:addr": "cuzk:ruian"
              },
              "geometry": {
                "type": "Point",
                "coordinates": [
                  14.3099576,
                  48.904097
                ]
              }
            },
            {
              "type": "Feature",
              "properties": {
                "id": "1222110099",
                "osm_type": "node",
                "lat": 48.9851637,
                "lon": 14.4773983,
                "amenity": "school",
                "name": "Střední škola polytechnická"
              },
              "geometry": {
                "type": "Point",
                "coordinates": [
                  14.4773983,
                  48.9851637
                ]
              }
            },
            {
              "type": "Feature",
              "properties": {
                "id": "1262413043",
                "osm_type": "node",
                "lat": 48.9746715,
                "lon": 14.4721295,
                "addr:city": "České Budějovice",
                "addr:housenumber": "142/64",
                "addr:postcode": "37001",
                "addr:street": "Česká",
                "amenity": "school",
                "check_date": "2024-12-21",
                "name": "Gymnázium Česká",
                "website": "https://www.gymceska.cz"
              },
              "geometry": {
                "type": "Point",
                "coordinates": [
                  14.4721295,
                  48.9746715
                ]
              }
            },
            {
              "type": "Feature",
              "properties": {
                "id": "1843719742",
                "osm_type": "node",
                "lat": 48.9789062,
                "lon": 14.4777918,
                "addr:conscriptionnumber": "1788",
                "addr:housenumber": "1788/8",
                "addr:place": "České Budějovice 3",
                "addr:postcode": "37001",
                "addr:street": "Jírovcova",
                "addr:streetnumber": "8",
                "alt_name": "GYMJI",
                "amenity": "school",
                "check_date": "2025-04-15",
                "name": "Gymnázium Jírovcova 8",
                "ref:ruian:addr": "23374268",
                "source": "survey;cuzk:ruian"
              },
              "geometry": {
                "type": "Point",
                "coordinates": [
                  14.4777918,
                  48.9789062
                ]
              }
            },
            {
              "type": "Feature",
              "properties": {
                "id": "1897916141",
                "osm_type": "node",
                "lat": 48.9500659,
                "lon": 14.4686488,
                "amenity": "school",
                "name": "ZŠ a MŠ L. Kuby 43"
              },
              "geometry": {
                "type": "Point",
                "coordinates": [
                  14.4686488,
                  48.9500659
                ]
              }
            },
            {
              "type": "Feature",
              "properties": {
                "id": "3497739405",
                "osm_type": "node",
                "lat": 48.9777427,
                "lon": 14.4687277,
                "amenity": "school",
                "name": "Střední škola obchodní",
                "name:cs": "Střední škola obchodní",
                "website": "https://www.sso.cz/"
              },
              "geometry": {
                "type": "Point",
                "coordinates": [
                  14.4687277,
                  48.9777427
                ]
              }
            },
            {
              "type": "Feature",
              "properties": {
                "id": "3497739406",
                "osm_type": "node",
                "lat": 48.9789137,
                "lon": 14.4684301,
                "amenity": "school",
                "name": "První soukromá základní umělecká škola"
              },
              "geometry": {
                "type": "Point",
                "coordinates": [
                  14.4684301,
                  48.9789137
                ]
              }
            },
            {
              "type": "Feature",
              "properties": {
                "id": "3497739408",
                "osm_type": "node",
                "lat": 48.9780735,
                "lon": 14.4754444,
                "amenity": "school",
                "name": "Viva bambini"
              },
              "geometry": {
                "type": "Point",
                "coordinates": [
                  14.4754444,
                  48.9780735
                ]
              }
            },
            {
              "type": "Feature",
              "properties": {
                "id": "3497739411",
                "osm_type": "node",
                "lat": 48.9763094,
                "lon": 14.4825927,
                "amenity": "school",
                "name": "CZŠ Rudolfovská"
              },
              "geometry": {
                "type": "Point",
                "coordinates": [
                  14.4825927,
                  48.9763094
                ]
              }
            },
            {
              "type": "Feature",
              "properties": {
                "id": "3497739412",
                "osm_type": "node",
                "lat": 48.9750971,
                "lon": 14.4841855,
                "amenity": "school",
                "name": "ZŠ Štíného"
              },
              "geometry": {
                "type": "Point",
                "coordinates": [
                  14.4841855,
                  48.9750971
                ]
              }
            },
            {
              "type": "Feature",
              "properties": {
                "id": "3497739416",
                "osm_type": "node",
                "lat": 48.9864533,
                "lon": 14.4318982,
                "amenity": "school",
                "name": "ZŠ Máj II"
              },
              "geometry": {
                "type": "Point",
                "coordinates": [
                  14.4318982,
                  48.9864533
                ]
              }
            },
            {
              "type": "Feature",
              "properties": {
                "id": "3497739417",
                "osm_type": "node",
                "lat": 48.9865547,
                "lon": 14.4328577,
                "amenity": "school",
                "name": "ZŠ Máj I"
              },
              "geometry": {
                "type": "Point",
                "coordinates": [
                  14.4328577,
                  48.9865547
                ]
              }
            },
            {
              "type": "Feature",
              "properties": {
                "id": "3497739418",
                "osm_type": "node",
                "lat": 48.9658504,
                "lon": 14.4341926,
                "amenity": "school",
                "name": "ZŠ Homole"
              },
              "geometry": {
                "type": "Point",
                "coordinates": [
                  14.4341926,
                  48.9658504
                ]
              }
            },
            {
              "type": "Feature",
              "properties": {
                "id": "3497739419",
                "osm_type": "node",
                "lat": 48.9635605,
                "lon": 14.4350669,
                "amenity": "school",
                "name": "ZŠ Šindlovy Dvory"
              },
              "geometry": {
                "type": "Point",
                "coordinates": [
                  14.4350669,
                  48.9635605
                ]
              }
            },
            {
              "type": "Feature",
              "properties": {
                "id": "3497739420",
                "osm_type": "node",
                "lat": 48.9573473,
                "lon": 14.4684282,
                "amenity": "school",
                "name": "Viva bambini"
              },
              "geometry": {
                "type": "Point",
                "coordinates": [
                  14.4684282,
                  48.9573473
                ]
              }
            },
            {
              "type": "Feature",
              "properties": {
                "id": "3497739421",
                "osm_type": "node",
                "lat": 48.9635316,
                "lon": 14.4676961,
                "amenity": "school",
                "name": "ZŠ Grünwaldova"
              },
              "geometry": {
                "type": "Point",
                "coordinates": [
                  14.4676961,
                  48.9635316
                ]
              }
            },
            {
              "type": "Feature",
              "properties": {
                "id": "4387271567",
                "osm_type": "node",
                "lat": 48.9804376,
                "lon": 14.4473346,
                "addr:city": "České Budějovice",
                "addr:housenumber": "1138/46",
                "addr:postcode": "37005",
                "addr:street": "Emy Destinové",
                "amenity": "school",
                "name": "ZŠ Emy Destinové",
                "operator": "Město České Budějovice"
              },
              "geometry": {
                "type": "Point",
                "coordinates": [
                  14.4473346,
                  48.9804376
                ]
              }
            },
            {
              "type": "Feature",
              "properties": {
                "id": "4504188895",
                "osm_type": "node",
                "lat": 48.9746289,
                "lon": 14.4830756,
                "amenity": "school",
                "name": "EDUCAnet",
                "name:cs": "EDUCAnet České Budějovice"
              },
              "geometry": {
                "type": "Point",
                "coordinates": [
                  14.4830756,
                  48.9746289
                ]
              }
            },
            {
              "type": "Feature",
              "properties": {
                "id": "4624328479",
                "osm_type": "node",
                "lat": 48.9730176,
                "lon": 14.5043262,
                "amenity": "school",
                "name": "Česko-anglické gymnázium",
                "website": "https://www.cag.cz/",
                "wikidata": "Q8311456"
              },
              "geometry": {
                "type": "Point",
                "coordinates": [
                  14.5043262,
                  48.9730176
                ]
              }
            },
            {
              "type": "Feature",
              "properties": {
                "id": "6746681653",
                "osm_type": "node",
                "lat": 48.9743519,
                "lon": 14.3574746,
                "amenity": "school",
                "name": "Základní škola"
              },
              "geometry": {
                "type": "Point",
                "coordinates": [
                  14.3574746,
                  48.9743519
                ]
              }
            },
            {
              "type": "Feature",
              "properties": {
                "id": "8829156218",
                "osm_type": "node",
                "lat": 48.9788221,
                "lon": 14.4743029,
                "addr:city": "České Budějovice",
                "addr:housenumber": "1",
                "addr:postcode": "37001",
                "addr:street": "Riegrova",
                "addr:unit": "1812",
                "amenity": "school",
                "email": "reditelka@sluchpostcb.cz",
                "grades": "1-10",
                "name": "Škola pro sluchově postižené",
                "opening_hours": "Mo-Fr 06:00-17:00",
                "phone": "+420 387 022 921",
                "website": "https://www.sluchpostcb.cz/"
              },
              "geometry": {
                "type": "Point",
                "coordinates": [
                  14.4743029,
                  48.9788221
                ]
              }
            },
            {
              "type": "Feature",
              "properties": {
                "id": "9838197355",
                "osm_type": "node",
                "lat": 48.9752181,
                "lon": 14.455816,
                "amenity": "school",
                "check_date": "2024-08-02",
                "isced:level": "7",
                "min_age": "18",
                "name": "Centrum polární ekologie",
                "operator": "Jihočeská univerzita v Českých Budějovicích"
              },
              "geometry": {
                "type": "Point",
                "coordinates": [
                  14.455816,
                  48.9752181
                ]
              }
            },
            {
              "type": "Feature",
              "properties": {
                "id": "9838197356",
                "osm_type": "node",
                "lat": 48.9752197,
                "lon": 14.4557373,
                "amenity": "school",
                "check_date": "2024-08-02",
                "isced:level": "7",
                "min_age": "18",
                "name": "Laboratoř archeobotaniky a paleoekologie",
                "operator": "Jihočeská univerzita v Českých Budějovicích"
              },
              "geometry": {
                "type": "Point",
                "coordinates": [
                  14.4557373,
                  48.9752197
                ]
              }
            },
            {
              "type": "Feature",
              "properties": {
                "id": "9838310582",
                "osm_type": "node",
                "lat": 48.9749192,
                "lon": 14.455817,
                "amenity": "school",
                "isced:level": "7",
                "min_age": "18",
                "name": "Katedra krajinného managementu, Sekce ekonomiky a managementu rurálního prostoru",
                "operator": "Jihočeská univerzita v Českých Budějovicích"
              },
              "geometry": {
                "type": "Point",
                "coordinates": [
                  14.455817,
                  48.9749192
                ]
              }
            },
            {
              "type": "Feature",
              "properties": {
                "id": "13109216690",
                "osm_type": "node",
                "lat": 48.904997,
                "lon": 14.3040574,
                "addr:city": "Křemže",
                "addr:housenumber": "49",
                "addr:postcode": "38203",
                "addr:street": "Náměstí",
                "amenity": "school",
                "name": "ZUŠ Český Krumlov"
              },
              "geometry": {
                "type": "Point",
                "coordinates": [
                  14.3040574,
                  48.904997
                ]
              }
            },
            {
              "type": "Feature",
              "properties": {
                "id": "2397663492",
                "osm_type": "node",
                "lat": 49.0095849,
                "lon": 14.75792,
                "addr:city": "Třeboň",
                "addr:conscriptionnumber": "688",
                "addr:country": "CZ",
                "addr:housenumber": "688",
                "addr:postcode": "37901",
                "addr:street": "Táboritská",
                "amenity": "school",
                "ref:ruian:addr": "14838613",
                "source:addr": "cuzk:ruian"
              },
              "geometry": {
                "type": "Point",
                "coordinates": [
                  14.75792,
                  49.0095849
                ]
              }
            },
            {
              "type": "Feature",
              "properties": {
                "id": "2475339320",
                "osm_type": "node",
                "lat": 48.8986898,
                "lon": 14.6397904,
                "amenity": "school",
                "name": "Základní škola",
                "source": "survey"
              },
              "geometry": {
                "type": "Point",
                "coordinates": [
                  14.6397904,
                  48.8986898
                ]
              }
            },
            {
              "type": "Feature",
              "properties": {
                "id": "12872923231",
                "osm_type": "node",
                "lat": 49.015909,
                "lon": 14.6031043,
                "amenity": "school"
              },
              "geometry": {
                "type": "Point",
                "coordinates": [
                  14.6031043,
                  49.015909
                ]
              }
            }
          ],
          "children": []
        },
        {
          "bbox": {
            "south": 48.851801374999994,
            "west": 14.77632125,
            "north": 49.017078,
            "east": 15.253173
          },
          "poiCount": 4,
          "leafCount": 4,
          "averagePosition": [
            15.0783873,
            48.918953325000004
          ],
          "data": [
            {
              "type": "Feature",
              "properties": {
                "id": "1361074940",
                "osm_type": "node",
                "lat": 48.8912861,
                "lon": 14.8780443,
                "addr:housename": "Základní škola T. G. Masaryka Suchdol nad Lužnicí",
                "addr:street": "28. října",
                "amenity": "school",
                "check_date": "2025-05-29",
                "email": "skola@zs.suchdol.cz",
                "fax": "+420 384 781 127",
                "int_name": "elementary school Suchdol nad Lužnicí",
                "name": "Základní škola T. G. Masaryka Suchdol nad Lužnicí",
                "phone": "+420 384 781 127",
                "source": "http://www.zs.suchdol.cz/K_1.html",
                "website": "https://www.zs.suchdol.cz/"
              },
              "geometry": {
                "type": "Point",
                "coordinates": [
                  14.8780443,
                  48.8912861
                ]
              }
            },
            {
              "type": "Feature",
              "properties": {
                "id": "776273710",
                "osm_type": "node",
                "lat": 48.9086511,
                "lon": 15.1456838,
                "addr:city": "Eggern",
                "addr:country": "AT",
                "addr:housenumber": "8",
                "addr:postcode": "3861",
                "addr:street": "Litschauer Straße",
                "amenity": "school",
                "name": "Volksschule Eggern",
                "website": "http://www.vseggern.ac.at/"
              },
              "geometry": {
                "type": "Point",
                "coordinates": [
                  15.1456838,
                  48.9086511
                ]
              }
            },
            {
              "type": "Feature",
              "properties": {
                "id": "4240019823",
                "osm_type": "node",
                "lat": 48.9473814,
                "lon": 15.0480258,
                "amenity": "school",
                "name": "Volksschule"
              },
              "geometry": {
                "type": "Point",
                "coordinates": [
                  15.0480258,
                  48.9473814
                ]
              }
            },
            {
              "type": "Feature",
              "properties": {
                "id": "5516626814",
                "osm_type": "node",
                "lat": 48.9284947,
                "lon": 15.2417953,
                "addr:city": "Kautzen",
                "addr:country": "AT",
                "addr:housenumber": "11",
                "addr:postcode": "3851",
                "addr:street": "Waidhofnerstraße",
                "amenity": "school",
                "at_bev:addr_date": "2021-10-01",
                "name": "Neue NÖ Mittelschule Kautzen"
              },
              "geometry": {
                "type": "Point",
                "coordinates": [
                  15.2417953,
                  48.9284947
                ]
              }
            }
          ],
          "children": []
        }
      ]
    }
  ]
}