{
  "bbox": {
    "south": 46.372652,
    "west": 13.345766,
    "north": 47.033758500000005,
    "east": 15.253173
  },
  "poiCount": 134,
  "leafCount": 0,
  "averagePosition": [
    14.370006673880598,
    46.69366874402985
  ],
  "data": [],
  "children": [
    {
      "bbox": {
        "south": 46.372652,
        "west": 13.345766,
        "north": 46.70320525,
        "east": 14.2994695
      },
      "poiCount": 35,
      "leafCount": 35,
      "averagePosition": [
        14.091426548571429,
        46.60189330285714
      ],
      "data": [
        {
          "type": "Feature",
          "properties": {
            "id": "6251294207",
            "osm_type": "node",
            "lat": 46.51082,
            "lon": 13.472773,
            "amenity": "school",
            "name": "Scuola Primaria Carlo Collodi"
          },
          "geometry": {
            "type": "Point",
            "coordinates": [
              13.472773,
              46.51082
            ]
          }
        },
        {
          "type": "Feature",
          "properties": {
            "id": "291560250",
            "osm_type": "node",
            "lat": 46.6214249,
            "lon": 13.8410981,
            "addr:city": "Villach",
            "addr:country": "AT",
            "addr:housenumber": "4",
            "addr:postcode": "9500",
            "addr:street": "Rudolf-Kattnigg-Straße",
            "amenity": "school",
            "at_bev:addr_date": "2017-04-07",
            "name": "Sportmittelschule Lind",
            "website": "https://www.sportmittelschulevillach.at/"
          },
          "geometry": {
            "type": "Point",
            "coordinates": [
              13.8410981,
              46.6214249
            ]
          }
        },
        {
          "type": "Feature",
          "properties": {
            "id": "292007721",
            "osm_type": "node",
            "lat": 46.6069023,
            "lon": 13.8424787,
            "addr:city": "Villach",
            "addr:country": "AT",
            "addr:housenumber": "8",
            "addr:postcode": "9500",
            "addr:street": "Richard-Wagner-Straße",
            "amenity": "school",
            "name": "CHS",
            "wheelchair": "yes"
          },
          "geometry": {
            "type": "Point",
            "coordinates": [
              13.8424787,
              46.6069023
            ]
          }
        },
        {
          "type": "Feature",
          "properties": {
            "id": "347296906",
            "osm_type": "node",
            "lat": 46.5991449,
            "lon": 13.8822124,
            "addr:city": "Villach",
            "addr:country": "AT",
            "addr:housenumber": "128",
            "addr:postcode": "9500",
            "addr:street": "Abstimmungsstraße",
            "amenity": "school",
            "name": "VS 11"
          },
          "geometry": {
            "type": "Point",
            "coordinates": [
              13.8822124,
              46.5991449
            ]
          }
        },
        {
          "type": "Feature",
          "properties": {
            "id": "1239623351",
            "osm_type": "node",
            "lat": 46.6328094,
            "lon": 13.8086199,
            "amenity": "school",
            "name": "Eltern- und Unterstützungsverein der Musikschule Villach"
          },
          "geometry": {
            "type": "Point",
            "coordinates": [
              13.8086199,
              46.6328094
            ]
          }
        },
        {
          "type": "Feature",
          "properties": {
            "id": "1272046038",
            "osm_type": "node",
            "lat": 46.6094626,
            "lon": 13.9483851,
            "amenity": "school",
            "name": "Volksschule Goritschach"
          },
          "geometry": {
            "type": "Point",
            "coordinates": [
              13.9483851,
              46.6094626
            ]
          }
        },
        {
          "type": "Feature",
          "properties": {
            "id": "2071378261",
            "osm_type": "node",
            "lat": 46.5041908,
            "lon": 13.5765008,
            "addr:city": "Tarvisio",
            "addr:country": "IT",
            "addr:housenumber": "62",
            "addr:postcode": "33018",
            "addr:street": "Via Vittorio Veneto",
            "amenity": "school",
            "name": "Istituto Omnicomprensivo \"I.Bachmann\"",
            "ref": "UDIS00900P"
          },
          "geometry": {
            "type": "Point",
            "coordinates": [
              13.5765008,
              46.5041908
            ]
          }
        },
        {
          "type": "Feature",
          "properties": {
            "id": "2071378264",
            "osm_type": "node",
            "lat": 46.5042348,
            "lon": 13.5761856,
            "addr:city": "Tarvisio",
            "addr:country": "IT",
            "addr:housenumber": "56",
            "addr:postcode": "33018",
            "addr:street": "Via Vittorio Veneto",
            "amenity": "school",
            "isced:level": "2",
            "name": "Scuola Secondaria I grado \"Dante Alighieri\"",
            "ref": "UDMM84001G"
          },
          "geometry": {
            "type": "Point",
            "coordinates": [
              13.5761856,
              46.5042348
            ]
          }
        },
        {
          "type": "Feature",
          "properties": {
            "id": "3660221226",
            "osm_type": "node",
            "lat": 46.6852896,
            "lon": 13.972003,
            "addr:city": "Steindorf am Ossiacher See",
            "addr:country": "AT",
            "addr:housenumber": "3",
            "addr:postcode": "9551",
            "addr:street": "10.-Oktober-Straße",
            "amenity": "school",
            "at_bev:addr_date": "2016-10-02",
            "name": "Volksschule Bodensdorf"
          },
          "geometry": {
            "type": "Point",
            "coordinates": [
              13.972003,
              46.6852896
            ]
          }
        },
        {
          "type": "Feature",
          "properties": {
            "id": "6924637517",
            "osm_type": "node",
            "lat": 46.6285876,
            "lon": 13.9632985,
            "addr:country": "AT",
            "addr:housenumber": "17",
            "addr:postcode": "9241",
            "addr:street": "Schulweg",
            "amenity": "school",
            "name": "Volksschule Damtschach"
          },
          "geometry": {
            "type": "Point",
            "coordinates": [
              13.9632985,
              46.6285876
            ]
          }
        },
        {
          "type": "Feature",
          "properties": {
            "id": "12246462101",
            "osm_type": "node",
            "lat": 46.6715871,
            "lon": 13.8522792,
            "amenity": "school",
            "name": "Mittelschule Gegendtal/Treffen",
            "short_name": "MS Gegendtal",
            "website": "https://mittelschule-gegendtal.at/"
          },
          "geometry": {
            "type": "Point",
            "coordinates": [
              13.8522792,
              46.6715871
            ]
          }
        },
        {
          "type": "Feature",
          "properties": {
            "id": "529653748",
            "osm_type": "node",
            "lat": 46.6277148,
            "lon": 14.2077963,
            "amenity": "school",
            "name": "Volksschule Krumpendorf"
          },
          "geometry": {
            "type": "Point",
            "coordinates": [
              14.2077963,
              46.6277148
            ]
          }
        },
        {
          "type": "Feature",
          "properties": {
            "id": "1377878867",
            "osm_type": "node",
            "lat": 46.3729412,
            "lon": 14.1094528,
            "amenity": "school"
          },
          "geometry": {
            "type": "Point",
            "coordinates": [
              14.1094528,
              46.3729412
            ]
          }
        },
        {
          "type": "Feature",
          "properties": {
            "id": "1426861961",
            "osm_type": "node",
            "lat": 46.6242364,
            "lon": 14.2963412,
            "addr:city": "Klagenfurt am Wörthersee",
            "addr:country": "AT",
            "addr:housenumber": "21",
            "addr:postcode": "9020",
            "addr:street": "Ferdinand-Jergitsch-Straße",
            "amenity": "school",
            "check_date": "2024-07-21",
            "name": "Ingeborg-Bachmann-Gymnasium",
            "website": "http://www.ibg.ac.at/",
            "wheelchair": "no",
            "wikidata": "Q1662859",
            "wikipedia": "de:Ingeborg-Bachmann-Gymnasium"
          },
          "geometry": {
            "type": "Point",
            "coordinates": [
              14.2963412,
              46.6242364
            ]
          }
        },
        {
          "type": "Feature",
          "properties": {
            "id": "1426861962",
            "osm_type": "node",
            "lat": 46.6245721,
            "lon": 14.2962539,
            "addr:city": "Klagenfurt am Wörthersee",
            "addr:country": "AT",
            "addr:housenumber": "21",
            "addr:postcode": "9020",
            "addr:street": "Ferdinand-Jergitsch-Straße",
            "amenity": "school",
            "check_date": "2024-07-21",
            "name": "Bundesgymnasium für Berufstätige",
            "wheelchair": "no"
          },
          "geometry": {
            "type": "Point",
            "coordinates": [
              14.2962539,
              46.6245721
            ]
          }
        },
        {
          "type": "Feature",
          "properties": {
            "id": "1430309314",
            "osm_type": "node",
            "lat": 46.6270552,
            "lon": 14.2975094,
            "addr:city": "Klagenfurt am Wörthersee",
            "addr:country": "AT",
            "addr:housenumber": "35",
            "addr:postcode": "9020",
            "addr:street": "Lerchenfeldstraße",
            "amenity": "school",
            "check_date": "2024-07-23",
            "name": "Polytechnische Schule",
            "wheelchair": "no"
          },
          "geometry": {
            "type": "Point",
            "coordinates": [
              14.2975094,
              46.6270552
            ]
          }
        },
        {
          "type": "Feature",
          "properties": {
            "id": "1430310598",
            "osm_type": "node",
            "lat": 46.6265501,
            "lon": 14.2976606,
            "addr:city": "Klagenfurt am Wörthersee",
            "addr:country": "AT",
            "addr:housenumber": "35",
            "addr:postcode": "9020",
            "addr:street": "Lerchenfeldstraße",
            "amenity": "school",
            "check_date": "2024-07-20",
            "name": "Westschule VS6",
            "wheelchair": "no"
          },
          "geometry": {
            "type": "Point",
            "coordinates": [
              14.2976606,
              46.6265501
            ]
          }
        },
        {
          "type": "Feature",
          "properties": {
            "id": "1437203885",
            "osm_type": "node",
            "lat": 46.6170105,
            "lon": 14.2861569,
            "addr:city": "Klagenfurt am Wörthersee",
            "addr:country": "AT",
            "addr:housenumber": "29",
            "addr:postcode": "9020",
            "addr:street": "Schubertstraße",
            "amenity": "school",
            "name": "ASS / Allgemeine Sonderschule – Waidmannsdorf",
            "wheelchair": "yes"
          },
          "geometry": {
            "type": "Point",
            "coordinates": [
              14.2861569,
              46.6170105
            ]
          }
        },
        {
          "type": "Feature",
          "properties": {
            "id": "1437204076",
            "osm_type": "node",
            "lat": 46.6169269,
            "lon": 14.2868924,
            "addr:city": "Klagenfurt am Wörthersee",
            "addr:country": "AT",
            "addr:housenumber": "29",
            "addr:postcode": "9020",
            "addr:street": "Schubertstraße",
            "amenity": "school",
            "name": "SfS / Sonderschule für Schwerstbehinderte",
            "wheelchair": "yes"
          },
          "geometry": {
            "type": "Point",
            "coordinates": [
              14.2868924,
              46.6169269
            ]
          }
        },
        {
          "type": "Feature",
          "properties": {
            "id": "1437205199",
            "osm_type": "node",
            "lat": 46.6163766,
            "lon": 14.2859476,
            "addr:city": "Klagenfurt am Wörthersee",
            "addr:country": "AT",
            "addr:housenumber": "31",
            "addr:postcode": "9020",
            "addr:street": "Schubertstraße",
            "amenity": "school",
            "name": "VS 10, 18, 9 – Körnerschule",
            "wheelchair": "yes"
          },
          "geometry": {
            "type": "Point",
            "coordinates": [
              14.2859476,
              46.6163766
            ]
          }
        },
        {
          "type": "Feature",
          "properties": {
            "id": "1438542553",
            "osm_type": "node",
            "lat": 46.6192893,
            "lon": 14.2978643,
            "addr:city": "Klagenfurt am Wörthersee",
            "addr:country": "AT",
            "addr:housenumber": "20",
            "addr:street": "Richard-Wagner-Straße",
            "amenity": "school",
            "name": "Volksschule 12 – Festung",
            "website": "https://vs-klagenfurt12.at/",
            "wheelchair": "yes",
            "wikidata": "Q123361830"
          },
          "geometry": {
            "type": "Point",
            "coordinates": [
              14.2978643,
              46.6192893
            ]
          }
        },
        {
          "type": "Feature",
          "properties": {
            "id": "1438552000",
            "osm_type": "node",
            "lat": 46.6700197,
            "lon": 14.2520179,
            "addr:city": "Klagenfurt am Wörthersee",
            "addr:country": "AT",
            "addr:housenumber": "38",
            "addr:postcode": "9061",
            "addr:street": "Römerweg",
            "addr:suburb": "Wölfnitz",
            "amenity": "school",
            "name": "Mittelschule 5 Wölfnitz",
            "short_name": "MS 5 Wölfnitz",
            "website": "https://ms-klagenfurt5.at/",
            "wheelchair": "yes"
          },
          "geometry": {
            "type": "Point",
            "coordinates": [
              14.2520179,
              46.6700197
            ]
          }
        },
        {
          "type": "Feature",
          "properties": {
            "id": "1580174289",
            "osm_type": "node",
            "lat": 46.6110056,
            "lon": 14.0396487,
            "addr:city": "Velden am Wörther See",
            "addr:housenumber": "1",
            "addr:postcode": "9220",
            "addr:street": "Bäckerteichstraße",
            "amenity": "school",
            "name": "Alban Berg Musikschule Velden"
          },
          "geometry": {
            "type": "Point",
            "coordinates": [
              14.0396487,
              46.6110056
            ]
          }
        },
        {
          "type": "Feature",
          "properties": {
            "id": "2093901535",
            "osm_type": "node",
            "lat": 46.5509416,
            "lon": 14.0513059,
            "addr:city": "St. Jakob im Rosental",
            "addr:country": "AT",
            "addr:housenumber": "1",
            "addr:postcode": "9184",
            "addr:street": "Schulweg",
            "amenity": "school",
            "at_bev:addr_date": "2023-04-15",
            "name": "Volksschule St. Jakob",
            "source": "geoimage.at"
          },
          "geometry": {
            "type": "Point",
            "coordinates": [
              14.0513059,
              46.5509416
            ]
          }
        },
        {
          "type": "Feature",
          "properties": {
            "id": "2474979741",
            "osm_type": "node",
            "lat": 46.5530117,
            "lon": 14.0446209,
            "amenity": "school",
            "name": "Höhere Lehranstalt für wirtschaftliche Berufe des Konvents der Schulschwestern"
          },
          "geometry": {
            "type": "Point",
            "coordinates": [
              14.0446209,
              46.5530117
            ]
          }
        },
        {
          "type": "Feature",
          "properties": {
            "id": "2618696151",
            "osm_type": "node",
            "lat": 46.6703485,
            "lon": 14.2674011,
            "amenity": "school",
            "name": "HTBLA Pitzelstätten",
            "wheelchair": "yes"
          },
          "geometry": {
            "type": "Point",
            "coordinates": [
              14.2674011,
              46.6703485
            ]
          }
        },
        {
          "type": "Feature",
          "properties": {
            "id": "3740068775",
            "osm_type": "node",
            "lat": 46.551773,
            "lon": 14.0515981,
            "addr:city": "St. Jakob im Rosental",
            "addr:country": "AT",
            "addr:housenumber": "5",
            "addr:postcode": "9184",
            "addr:street": "Schulweg",
            "amenity": "school",
            "at_bev:addr_date": "2023-10-01",
            "name": "Neue Mittelschule St. Jakob"
          },
          "geometry": {
            "type": "Point",
            "coordinates": [
              14.0515981,
              46.551773
            ]
          }
        },
        {
          "type": "Feature",
          "properties": {
            "id": "4112344201",
            "osm_type": "node",
            "lat": 46.6093156,
            "lon": 14.1783718,
            "addr:housenumber": "143",
            "addr:street": "Wörthersee-Süduferstraße",
            "amenity": "school",
            "name": "Volksschule Reifnitz"
          },
          "geometry": {
            "type": "Point",
            "coordinates": [
              14.1783718,
              46.6093156
            ]
          }
        },
        {
          "type": "Feature",
          "properties": {
            "id": "4538547039",
            "osm_type": "node",
            "lat": 46.5893483,
            "lon": 14.2695677,
            "amenity": "school",
            "name": "Bundesrealgymnasium Viktring",
            "wheelchair": "yes"
          },
          "geometry": {
            "type": "Point",
            "coordinates": [
              14.2695677,
              46.5893483
            ]
          }
        },
        {
          "type": "Feature",
          "properties": {
            "id": "5599294042",
            "osm_type": "node",
            "lat": 46.6696704,
            "lon": 14.2528036,
            "addr:city": "Klagenfurt am Wörthersee",
            "addr:country": "AT",
            "addr:housenumber": "36",
            "addr:postcode": "9061",
            "addr:street": "Römerweg",
            "addr:suburb": "Wölfnitz",
            "amenity": "school",
            "name": "VS 23 Wölfnitz",
            "wheelchair": "yes"
          },
          "geometry": {
            "type": "Point",
            "coordinates": [
              14.2528036,
              46.6696704
            ]
          }
        },
        {
          "type": "Feature",
          "properties": {
            "id": "5599294045",
            "osm_type": "node",
            "lat": 46.6159622,
            "lon": 14.2877303,
            "amenity": "school",
            "name": "NMS 2 Waidmannsdorf",
            "wheelchair": "yes"
          },
          "geometry": {
            "type": "Point",
            "coordinates": [
              14.2877303,
              46.6159622
            ]
          }
        },
        {
          "type": "Feature",
          "properties": {
            "id": "5599350557",
            "osm_type": "node",
            "lat": 46.5920867,
            "lon": 14.2601461,
            "amenity": "school",
            "check_date": "2025-07-08",
            "name": "PSS Josefinum/Private Sonderschule Josefinum",
            "wheelchair": "yes"
          },
          "geometry": {
            "type": "Point",
            "coordinates": [
              14.2601461,
              46.5920867
            ]
          }
        },
        {
          "type": "Feature",
          "properties": {
            "id": "5599350558",
            "osm_type": "node",
            "lat": 46.6191649,
            "lon": 14.2682081,
            "addr:city": "Klagenfurt am Wörthersee",
            "addr:housenumber": "11",
            "addr:postcode": "9020",
            "addr:street": "Wilsonstraße",
            "amenity": "school",
            "check_date": "2023-04-19",
            "description": "Rudolf-Steiner-Schule (Waldorfschule)",
            "name": "Waldorfschule Klagenfurt - Privatschule",
            "phone": "+43 463 21492",
            "website": "https://waldorfklagenfurt.at/",
            "wheelchair": "yes"
          },
          "geometry": {
            "type": "Point",
            "coordinates": [
              14.2682081,
              46.6191649
            ]
          }
        },
        {
          "type": "Feature",
          "properties": {
            "id": "5599350561",
            "osm_type": "node",
            "lat": 46.6079982,
            "lon": 14.2901131,
            "amenity": "school",
            "name": "NMS Praxisschule",
            "wheelchair": "yes"
          },
          "geometry": {
            "type": "Point",
            "coordinates": [
              14.2901131,
              46.6079982
            ]
          }
        },
        {
          "type": "Feature",
          "properties": {
            "id": "5599350562",
            "osm_type": "node",
            "lat": 46.6084921,
            "lon": 14.2886862,
            "amenity": "school",
            "name": "Bundesoberstufenrealgymnasium Klagenfurt",
            "short_name": "BORG Klagenfurt",
            "website": "http://www.borg-klagenfurt.at/",
            "wheelchair": "yes",
            "wikidata": "Q120804914"
          },
          "geometry": {
            "type": "Point",
            "coordinates": [
              14.2886862,
              46.6084921
            ]
          }
        }
      ],
      "children": []
    },
    {
      "bbox": {
        "south": 46.372652,
        "west": 14.2994695,
        "north": 46.70320525,
        "east": 15.253173
      },
      "poiCount": 50,
      "leafCount": 50,
      "averagePosition": [
        14.527963680000001,
        46.610124047999996
      ],
      "data": [
        {
          "type": "Feature",
          "properties": {
            "id": "2391999190",
            "osm_type": "node",
            "lat": 46.4495919,
            "lon": 15.0076858,
            "amenity": "school",
            "name": "Osnovna šola Podgorje pri Slovenj Gradcu podružnica Razbor"
          },
          "geometry": {
            "type": "Point",
            "coordinates": [
              15.0076858,
              46.4495919
            ]
          }
        },
        {
          "type": "Feature",
          "properties": {
            "id": "2612637346",
            "osm_type": "node",
            "lat": 46.5574893,
            "lon": 14.6517267,
            "addr:housenumber": "11",
            "addr:postcode": "9141",
            "addr:street": "Unterbergen",
            "amenity": "school",
            "animal": "school",
            "name": "Hundeschule Eberndorf",
            "school_type": "dog"
          },
          "geometry": {
            "type": "Point",
            "coordinates": [
              14.6517267,
              46.5574893
            ]
          }
        },
        {
          "type": "Feature",
          "properties": {
            "id": "3900811088",
            "osm_type": "node",
            "lat": 46.6421498,
            "lon": 14.9446302,
            "addr:city": "Lavamünd",
            "addr:country": "AT",
            "addr:housenumber": "92",
            "addr:postcode": "9473",
            "addr:street": "Lavamünd",
            "amenity": "school",
            "contact:phone": "+43 4356 2200",
            "contact:website": "http://www.nms-lavamuend.ksn.at/",
            "name": "Mittelschule Lavamünd",
            "website": "https://www.ms-lavamuend.at/"
          },
          "geometry": {
            "type": "Point",
            "coordinates": [
              14.9446302,
              46.6421498
            ]
          }
        },
        {
          "type": "Feature",
          "properties": {
            "id": "3900811981",
            "osm_type": "node",
            "lat": 46.6434398,
            "lon": 14.9405398,
            "addr:city": "Lavamünd",
            "addr:country": "AT",
            "addr:housenumber": "35",
            "addr:postcode": "9473",
            "addr:street": "Lavamünd",
            "amenity": "school",
            "name": "Volksschule Lavamünd"
          },
          "geometry": {
            "type": "Point",
            "coordinates": [
              14.9405398,
              46.6434398
            ]
          }
        },
        {
          "type": "Feature",
          "properties": {
            "id": "4679970196",
            "osm_type": "node",
            "lat": 46.7008218,
            "lon": 14.7324776,
            "amenity": "school",
            "name": "Mittelschule Griffen"
          },
          "geometry": {
            "type": "Point",
            "coordinates": [
              14.7324776,
              46.7008218
            ]
          }
        },
        {
          "type": "Feature",
          "properties": {
            "id": "4680003197",
            "osm_type": "node",
            "lat": 46.7006327,
            "lon": 14.7333109,
            "amenity": "school",
            "name": "Volksschule Griffen",
            "name:de": "Volksschule Griffen"
          },
          "geometry": {
            "type": "Point",
            "coordinates": [
              14.7333109,
              46.7006327
            ]
          }
        },
        {
          "type": "Feature",
          "properties": {
            "id": "5015120923",
            "osm_type": "node",
            "lat": 46.6953291,
            "lon": 14.6735496,
            "amenity": "school",
            "name": "Volksschule Haimburg",
            "name:de": "Volksschule Haimburg"
          },
          "geometry": {
            "type": "Point",
            "coordinates": [
              14.6735496,
              46.6953291
            ]
          }
        },
        {
          "type": "Feature",
          "properties": {
            "id": "11646969347",
            "osm_type": "node",
            "lat": 46.586467,
            "lon": 14.7982933,
            "amenity": "school",
            "name": "Volksschule Bleiburg"
          },
          "geometry": {
            "type": "Point",
            "coordinates": [
              14.7982933,
              46.586467
            ]
          }
        },
        {
          "type": "Feature",
          "properties": {
            "id": "11647042928",
            "osm_type": "node",
            "lat": 46.6574161,
            "lon": 14.7687168,
            "amenity": "school",
            "name": "Volksschule Ruden"
          },
          "geometry": {
            "type": "Point",
            "coordinates": [
              14.7687168,
              46.6574161
            ]
          }
        },
        {
          "type": "Feature",
          "properties": {
            "id": "11770168142",
            "osm_type": "node",
            "lat": 46.7021585,
            "lon": 14.8122062,
            "amenity": "school",
            "name": "Volksschule Granitztal"
          },
          "geometry": {
            "type": "Point",
            "coordinates": [
              14.8122062,
              46.7021585
            ]
          }
        },
        {
          "type": "Feature",
          "properties": {
            "id": "687840371",
            "osm_type": "node",
            "lat": 46.608098,
            "lon": 15.1593444,
            "amenity": "school",
            "name": "Glasbena šola"
          },
          "geometry": {
            "type": "Point",
            "coordinates": [
              15.1593444,
              46.608098
            ]
          }
        },
        {
          "type": "Feature",
          "properties": {
            "id": "981309949",
            "osm_type": "node",
            "lat": 46.6188743,
            "lon": 15.0352646,
            "amenity": "school",
            "name": "Osnovna šola Ojstrica"
          },
          "geometry": {
            "type": "Point",
            "coordinates": [
              15.0352646,
              46.6188743
            ]
          }
        },
        {
          "type": "Feature",
          "properties": {
            "id": "2820300772",
            "osm_type": "node",
            "lat": 46.447792,
            "lon": 15.1922204,
            "amenity": "school"
          },
          "geometry": {
            "type": "Point",
            "coordinates": [
              15.1922204,
              46.447792
            ]
          }
        },
        {
          "type": "Feature",
          "properties": {
            "id": "4200028690",
            "osm_type": "node",
            "lat": 46.4537277,
            "lon": 15.1105011,
            "amenity": "school"
          },
          "geometry": {
            "type": "Point",
            "coordinates": [
              15.1105011,
              46.4537277
            ]
          }
        },
        {
          "type": "Feature",
          "properties": {
            "id": "4252832562",
            "osm_type": "node",
            "lat": 46.4719986,
            "lon": 15.0872052,
            "amenity": "school"
          },
          "geometry": {
            "type": "Point",
            "coordinates": [
              15.0872052,
              46.4719986
            ]
          }
        },
        {
          "type": "Feature",
          "properties": {
            "id": "4382536025",
            "osm_type": "node",
            "lat": 46.5935781,
            "lon": 15.2327122,
            "addr:housenumber": "148",
            "addr:street": "Vuhred",
            "amenity": "school",
            "name": "Osnovna šola Radlje ob Dravi - podružnica Vuhred"
          },
          "geometry": {
            "type": "Point",
            "coordinates": [
              15.2327122,
              46.5935781
            ]
          }
        },
        {
          "type": "Feature",
          "properties": {
            "id": "300573857",
            "osm_type": "node",
            "lat": 46.6115166,
            "lon": 14.310738,
            "amenity": "school",
            "name": "VS 11 St. Ruprecht",
            "wheelchair": "yes"
          },
          "geometry": {
            "type": "Point",
            "coordinates": [
              14.310738,
              46.6115166
            ]
          }
        },
        {
          "type": "Feature",
          "properties": {
            "id": "300573868",
            "osm_type": "node",
            "lat": 46.6111946,
            "lon": 14.3111867,
            "amenity": "school",
            "name": "NMS St. Ruprecht",
            "wheelchair": "yes"
          },
          "geometry": {
            "type": "Point",
            "coordinates": [
              14.3111867,
              46.6111946
            ]
          }
        },
        {
          "type": "Feature",
          "properties": {
            "id": "300579784",
            "osm_type": "node",
            "lat": 46.6225992,
            "lon": 14.3131179,
            "amenity": "school",
            "name": "Mittelschule 3 Hasnerschule",
            "short_name": "MS 3 Hasnerschule",
            "website": "https://ms-hasnerschule.ksn.at/",
            "wheelchair": "no"
          },
          "geometry": {
            "type": "Point",
            "coordinates": [
              14.3131179,
              46.6225992
            ]
          }
        },
        {
          "type": "Feature",
          "properties": {
            "id": "355619342",
            "osm_type": "node",
            "lat": 46.6158063,
            "lon": 14.4676582,
            "addr:city": "Grafenstein",
            "addr:housenumber": "34",
            "addr:postcode": "9131",
            "addr:street": "C.-Holzmeister-Straße",
            "amenity": "school",
            "name": "Volksschule Grafenstein : Clemens Holzmeister"
          },
          "geometry": {
            "type": "Point",
            "coordinates": [
              14.4676582,
              46.6158063
            ]
          }
        },
        {
          "type": "Feature",
          "properties": {
            "id": "355619343",
            "osm_type": "node",
            "lat": 46.6157162,
            "lon": 14.4682855,
            "amenity": "school",
            "name": "Musikschule Grafenstein"
          },
          "geometry": {
            "type": "Point",
            "coordinates": [
              14.4682855,
              46.6157162
            ]
          }
        },
        {
          "type": "Feature",
          "properties": {
            "id": "799295350",
            "osm_type": "node",
            "lat": 46.6227986,
            "lon": 14.3055421,
            "addr:city": "Klagenfurt am Wörthersee",
            "addr:country": "AT",
            "addr:housenumber": "1",
            "addr:postcode": "9010",
            "addr:street": "Benediktinerplatz",
            "alt_name": "Hauptschule 7;Neue Mittelschule",
            "amenity": "school",
            "check_date": "2024-07-23",
            "contact:email": "direktion@hs-klagenfurt7.ksn.at",
            "contact:phone": "+43 463 5375464",
            "contact:website": "http://www.nms-benediktinerschule.ksn.at/",
            "fixme": "Existiert diese Schule noch?",
            "name": "HS7/NMS Benediktinerschule",
            "toilets:wheelchair": "yes",
            "wheelchair": "yes",
            "wheelchair:access": "yes"
          },
          "geometry": {
            "type": "Point",
            "coordinates": [
              14.3055421,
              46.6227986
            ]
          }
        },
        {
          "type": "Feature",
          "properties": {
            "id": "814644745",
            "osm_type": "node",
            "lat": 46.625021,
            "lon": 14.3050695,
            "amenity": "school",
            "check_date": "2024-09-18",
            "name": "Volksschule St. Ursula",
            "wheelchair:access": "limited"
          },
          "geometry": {
            "type": "Point",
            "coordinates": [
              14.3050695,
              46.625021
            ]
          }
        },
        {
          "type": "Feature",
          "properties": {
            "id": "1192893104",
            "osm_type": "node",
            "lat": 46.5516052,
            "lon": 14.51281,
            "addr:city": "Gallizien",
            "addr:country": "AT",
            "addr:housenumber": "2",
            "addr:place": "Krejanzach",
            "addr:postcode": "9132",
            "amenity": "school",
            "at_bev:addr_date": "2017-10-01",
            "name": "Volksschule Gallizien"
          },
          "geometry": {
            "type": "Point",
            "coordinates": [
              14.51281,
              46.5516052
            ]
          }
        },
        {
          "type": "Feature",
          "properties": {
            "id": "1417271587",
            "osm_type": "node",
            "lat": 46.6195444,
            "lon": 14.3119998,
            "addr:city": "Klagenfurt am Wörthersee",
            "addr:country": "AT",
            "addr:housenumber": "47",
            "addr:street": "Bahnhofstraße",
            "amenity": "school",
            "name": "Lern- und Bildungsinstitut",
            "wheelchair": "no"
          },
          "geometry": {
            "type": "Point",
            "coordinates": [
              14.3119998,
              46.6195444
            ]
          }
        },
        {
          "type": "Feature",
          "properties": {
            "id": "1445264868",
            "osm_type": "node",
            "lat": 46.6428517,
            "lon": 14.3158598,
            "amenity": "school",
            "name": "VS 4 Annabichl"
          },
          "geometry": {
            "type": "Point",
            "coordinates": [
              14.3158598,
              46.6428517
            ]
          }
        },
        {
          "type": "Feature",
          "properties": {
            "id": "1445380458",
            "osm_type": "node",
            "lat": 46.6184297,
            "lon": 14.3135248,
            "addr:city": "Klagenfurt am Wörthersee",
            "addr:country": "AT",
            "addr:housenumber": "24",
            "addr:street": "Wulfengasse",
            "amenity": "school",
            "name": "Fachberufsschule Klagenfurt 1",
            "wheelchair": "no"
          },
          "geometry": {
            "type": "Point",
            "coordinates": [
              14.3135248,
              46.6184297
            ]
          }
        },
        {
          "type": "Feature",
          "properties": {
            "id": "1445380808",
            "osm_type": "node",
            "lat": 46.6185902,
            "lon": 14.3134373,
            "addr:city": "Klagenfurt am Wörthersee",
            "addr:country": "AT",
            "addr:housenumber": "24",
            "addr:street": "Wulfengasse",
            "amenity": "school",
            "name": "Fachberufsschule Klagenfurt 2",
            "wheelchair": "no"
          },
          "geometry": {
            "type": "Point",
            "coordinates": [
              14.3134373,
              46.6185902
            ]
          }
        },
        {
          "type": "Feature",
          "properties": {
            "id": "1446525979",
            "osm_type": "node",
            "lat": 46.6250689,
            "lon": 14.3050669,
            "addr:city": "Klagenfurt am Wörthersee",
            "addr:country": "AT",
            "addr:housenumber": "1",
            "addr:postcode": "9020",
            "addr:street": "Ursulinengasse",
            "amenity": "school",
            "name": "ORG St. Ursula",
            "name:etymology:wikidata": "Q369691",
            "wheelchair": "no"
          },
          "geometry": {
            "type": "Point",
            "coordinates": [
              14.3050669,
              46.6250689
            ]
          }
        },
        {
          "type": "Feature",
          "properties": {
            "id": "1713022541",
            "osm_type": "node",
            "lat": 46.6211274,
            "lon": 14.3076531,
            "addr:city": "Klagenfurt am Wörthersee",
            "addr:country": "AT",
            "addr:housenumber": "25",
            "addr:street": "10.-Oktober-Straße",
            "amenity": "school",
            "check_date": "2024-08-31",
            "name": "Priv. Volksschule Hermagoras- Mohorjeva",
            "name:sl": "Mohorjeva družba Celovec",
            "wheelchair": "yes"
          },
          "geometry": {
            "type": "Point",
            "coordinates": [
              14.3076531,
              46.6211274
            ]
          }
        },
        {
          "type": "Feature",
          "properties": {
            "id": "1827913255",
            "osm_type": "node",
            "lat": 46.6225773,
            "lon": 14.3051766,
            "addr:city": "Klagenfurt am Wörthersee",
            "addr:country": "AT",
            "addr:housenumber": "1",
            "addr:postcode": "9020",
            "addr:street": "Lichtenfelsgasse",
            "alt_name": "Musikvolksschule 1",
            "amenity": "school",
            "at_bev:addr_date": "2017-10-01",
            "check_date": "2024-07-23",
            "contact:phone": "+43 463 5375462",
            "contact:website": "http://www.vs-klagenfurt1.ksn.at/",
            "name": "VS1 Benediktinerschule"
          },
          "geometry": {
            "type": "Point",
            "coordinates": [
              14.3051766,
              46.6225773
            ]
          }
        },
        {
          "type": "Feature",
          "properties": {
            "id": "4212655232",
            "osm_type": "node",
            "lat": 46.57572,
            "lon": 14.4354865,
            "amenity": "school",
            "name": "Volksschule Mieger"
          },
          "geometry": {
            "type": "Point",
            "coordinates": [
              14.4354865,
              46.57572
            ]
          }
        },
        {
          "type": "Feature",
          "properties": {
            "id": "5292425079",
            "osm_type": "node",
            "lat": 46.6292508,
            "lon": 14.3380126,
            "amenity": "school",
            "name": "Radfahr-Übungs-Strecke"
          },
          "geometry": {
            "type": "Point",
            "coordinates": [
              14.3380126,
              46.6292508
            ]
          }
        },
        {
          "type": "Feature",
          "properties": {
            "id": "5599177523",
            "osm_type": "node",
            "lat": 46.6226312,
            "lon": 14.3051519,
            "amenity": "school",
            "check_date": "2024-07-23",
            "name": "Benediktinerschule",
            "wheelchair": "yes"
          },
          "geometry": {
            "type": "Point",
            "coordinates": [
              14.3051519,
              46.6226312
            ]
          }
        },
        {
          "type": "Feature",
          "properties": {
            "id": "5599177527",
            "osm_type": "node",
            "lat": 46.6234788,
            "lon": 14.3249285,
            "amenity": "school",
            "name": "VS 8 Rennerschule",
            "wheelchair": "yes"
          },
          "geometry": {
            "type": "Point",
            "coordinates": [
              14.3249285,
              46.6234788
            ]
          }
        },
        {
          "type": "Feature",
          "properties": {
            "id": "5599177528",
            "osm_type": "node",
            "lat": 46.6300696,
            "lon": 14.3377888,
            "amenity": "school",
            "name": "VS 14 Welzenegg",
            "wheelchair": "yes"
          },
          "geometry": {
            "type": "Point",
            "coordinates": [
              14.3377888,
              46.6300696
            ]
          }
        },
        {
          "type": "Feature",
          "properties": {
            "id": "5599177529",
            "osm_type": "node",
            "lat": 46.6547266,
            "lon": 14.329306,
            "amenity": "school",
            "name": "VS 15 - St. Georgen am Sandhof",
            "wheelchair": "yes"
          },
          "geometry": {
            "type": "Point",
            "coordinates": [
              14.329306,
              46.6547266
            ]
          }
        },
        {
          "type": "Feature",
          "properties": {
            "id": "5599177531",
            "osm_type": "node",
            "lat": 46.6303484,
            "lon": 14.3815515,
            "amenity": "school",
            "name": "VS 21 Hörtendorf",
            "wheelchair": "yes"
          },
          "geometry": {
            "type": "Point",
            "coordinates": [
              14.3815515,
              46.6303484
            ]
          }
        },
        {
          "type": "Feature",
          "properties": {
            "id": "5599294043",
            "osm_type": "node",
            "lat": 46.6229576,
            "lon": 14.3241994,
            "amenity": "school",
            "name": "VS 24 Rennerschule",
            "wheelchair": "yes"
          },
          "geometry": {
            "type": "Point",
            "coordinates": [
              14.3241994,
              46.6229576
            ]
          }
        },
        {
          "type": "Feature",
          "properties": {
            "id": "5599294044",
            "osm_type": "node",
            "lat": 46.6299267,
            "lon": 14.3377116,
            "amenity": "school",
            "name": "VS 27 Welzenegg",
            "wheelchair": "yes"
          },
          "geometry": {
            "type": "Point",
            "coordinates": [
              14.3377116,
              46.6299267
            ]
          }
        },
        {
          "type": "Feature",
          "properties": {
            "id": "5599294046",
            "osm_type": "node",
            "lat": 46.6399981,
            "lon": 14.3155654,
            "amenity": "school",
            "name": "NMS Annabichl",
            "wheelchair": "yes"
          },
          "geometry": {
            "type": "Point",
            "coordinates": [
              14.3155654,
              46.6399981
            ]
          }
        },
        {
          "type": "Feature",
          "properties": {
            "id": "5599350555",
            "osm_type": "node",
            "lat": 46.6331154,
            "lon": 14.3071958,
            "amenity": "school",
            "name": "Heilstättenschule Kärnten",
            "short_name": "HSS Kärnten",
            "website": "https://hss-kaernten.ksn.at/",
            "wheelchair": "yes"
          },
          "geometry": {
            "type": "Point",
            "coordinates": [
              14.3071958,
              46.6331154
            ]
          }
        },
        {
          "type": "Feature",
          "properties": {
            "id": "5599350556",
            "osm_type": "node",
            "lat": 46.6336577,
            "lon": 14.3020923,
            "amenity": "school",
            "name": "SeF Gutenberg/Sonderschule für Kinder mit erhöhtem Förderbedarf",
            "wheelchair": "yes"
          },
          "geometry": {
            "type": "Point",
            "coordinates": [
              14.3020923,
              46.6336577
            ]
          }
        },
        {
          "type": "Feature",
          "properties": {
            "id": "5599350559",
            "osm_type": "node",
            "lat": 46.6251449,
            "lon": 14.3050662,
            "amenity": "school",
            "check_date": "2024-09-18",
            "name": "NMS St. Ursula",
            "wheelchair": "yes"
          },
          "geometry": {
            "type": "Point",
            "coordinates": [
              14.3050662,
              46.6251449
            ]
          }
        },
        {
          "type": "Feature",
          "properties": {
            "id": "5599350560",
            "osm_type": "node",
            "lat": 46.6217285,
            "lon": 14.3424296,
            "amenity": "school",
            "name": "Lernraum - Montessorischule de La Tour Klagenfurt",
            "wheelchair": "yes"
          },
          "geometry": {
            "type": "Point",
            "coordinates": [
              14.3424296,
              46.6217285
            ]
          }
        },
        {
          "type": "Feature",
          "properties": {
            "id": "5599350566",
            "osm_type": "node",
            "lat": 46.6237553,
            "lon": 14.3160412,
            "amenity": "school",
            "name": "Bundeshandelsakademie 1",
            "wheelchair": "yes"
          },
          "geometry": {
            "type": "Point",
            "coordinates": [
              14.3160412,
              46.6237553
            ]
          }
        },
        {
          "type": "Feature",
          "properties": {
            "id": "5599350567",
            "osm_type": "node",
            "lat": 46.624296,
            "lon": 14.3167972,
            "amenity": "school",
            "name": "Bundeshandelsakademie 2",
            "wheelchair": "yes"
          },
          "geometry": {
            "type": "Point",
            "coordinates": [
              14.3167972,
              46.624296
            ]
          }
        },
        {
          "type": "Feature",
          "properties": {
            "id": "5599350569",
            "osm_type": "node",
            "lat": 46.6208872,
            "lon": 14.3045732,
            "amenity": "school",
            "check_date": "2024-08-31",
            "name": "Fachschule für Sozialberufe",
            "wheelchair": "yes"
          },
          "geometry": {
            "type": "Point",
            "coordinates": [
              14.3045732,
              46.6208872
            ]
          }
        },
        {
          "type": "Feature",
          "properties": {
            "id": "7021534955",
            "osm_type": "node",
            "lat": 46.6183117,
            "lon": 14.341536,
            "addr:city": "Klagenfurt am Wörthersee",
            "addr:housenumber": "20",
            "addr:postcode": "9020",
            "addr:street": "Rosenegger Straße",
            "amenity": "school",
            "name": "Landesfeuerwehrschule",
            "training": "fire_fighting",
            "website": "https://www.feuerwehr-ktn.at/landesfeuerwehrschule/"
          },
          "geometry": {
            "type": "Point",
            "coordinates": [
              14.341536,
              46.6183117
            ]
          }
        },
        {
          "type": "Feature",
          "properties": {
            "id": "8655702470",
            "osm_type": "node",
            "lat": 46.4721859,
            "lon": 14.3852393,
            "addr:city": "Ferlach",
            "addr:housenumber": "47",
            "addr:postcode": "9170",
            "addr:street": "Zell-Pfarre/Sele-Cerkev",
            "amenity": "school",
            "name": "Volksschule/Ljudska šola Zell-Pfarre/Sele-Cerkev",
            "name:de": "Volksschule Zell-Pfarre",
            "name:sl": "Ljudska šola Sele-Cerkev",
            "phone": "+43 (0)4227 7214"
          },
          "geometry": {
            "type": "Point",
            "coordinates": [
              14.3852393,
              46.4721859
            ]
          }
        }
      ],
      "children": []
    },
    {
      "bbox": {
        "south": 46.70320525,
        "west": 13.345766,
        "north": 47.033758500000005,
        "east": 14.2994695
      },
      "poiCount": 21,
      "leafCount": 21,
      "averagePosition": [
        13.72254497142857,
        46.83143293809524
      ],
      "data": [
        {
          "type": "Feature",
          "properties": {
            "id": "440619768",
            "osm_type": "node",
            "lat": 46.9550275,
            "lon": 13.5061352,
            "amenity": "school",
            "name": "Volksschule Malta"
          },
          "geometry": {
            "type": "Point",
            "coordinates": [
              13.5061352,
              46.9550275
            ]
          }
        },
        {
          "type": "Feature",
          "properties": {
            "id": "1738020408",
            "osm_type": "node",
            "lat": 46.9073807,
            "lon": 13.5371469,
            "amenity": "school",
            "check_date": "2024-08-09",
            "name": "Musikmittelschule Gmünd",
            "short_name": "MMS Gmünd",
            "wheelchair": "no"
          },
          "geometry": {
            "type": "Point",
            "coordinates": [
              13.5371469,
              46.9073807
            ]
          }
        },
        {
          "type": "Feature",
          "properties": {
            "id": "12246666665",
            "osm_type": "node",
            "lat": 47.0197601,
            "lon": 13.6107619,
            "amenity": "school",
            "name": "Volksschule Rennweg",
            "short_name": "VS Rennweg"
          },
          "geometry": {
            "type": "Point",
            "coordinates": [
              13.6107619,
              47.0197601
            ]
          }
        },
        {
          "type": "Feature",
          "properties": {
            "id": "12246666666",
            "osm_type": "node",
            "lat": 47.0197838,
            "lon": 13.610845,
            "amenity": "school",
            "name": "Mittelschule Rennweg",
            "short_name": "MS Rennweg"
          },
          "geometry": {
            "type": "Point",
            "coordinates": [
              13.610845,
              47.0197838
            ]
          }
        },
        {
          "type": "Feature",
          "properties": {
            "id": "4260262903",
            "osm_type": "node",
            "lat": 46.8746902,
            "lon": 14.2902319,
            "addr:housenumber": "8",
            "addr:postcode": "9342",
            "addr:street": "Dr.-Schnerich-Straße",
            "amenity": "school",
            "name": "Volksschule und Kindergarten",
            "wikidata": "Q38058627"
          },
          "geometry": {
            "type": "Point",
            "coordinates": [
              14.2902319,
              46.8746902
            ]
          }
        },
        {
          "type": "Feature",
          "properties": {
            "id": "2403603774",
            "osm_type": "node",
            "lat": 46.8385819,
            "lon": 13.5209134,
            "addr:city": "Seeboden",
            "addr:country": "AT",
            "addr:housenumber": "200",
            "addr:postcode": "9871",
            "addr:street": "Treffling",
            "amenity": "school",
            "name": "Volksschule Treffling",
            "source": "data.ktn.gv.at"
          },
          "geometry": {
            "type": "Point",
            "coordinates": [
              13.5209134,
              46.8385819
            ]
          }
        },
        {
          "type": "Feature",
          "properties": {
            "id": "2461402170",
            "osm_type": "node",
            "lat": 46.8179189,
            "lon": 13.4988937,
            "addr:city": "Seeboden",
            "addr:country": "AT",
            "addr:housenumber": "6",
            "addr:postcode": "9871",
            "addr:street": "Seebacherstraße",
            "amenity": "school",
            "name": "Sonderschule für schwerstbehinderte Kinder Seebach",
            "source": "data.ktn.gv.at"
          },
          "geometry": {
            "type": "Point",
            "coordinates": [
              13.4988937,
              46.8179189
            ]
          }
        },
        {
          "type": "Feature",
          "properties": {
            "id": "2461402171",
            "osm_type": "node",
            "lat": 46.8578351,
            "lon": 13.4898253,
            "addr:city": "Trebesing",
            "addr:country": "AT",
            "addr:housenumber": "8",
            "addr:postcode": "9852",
            "addr:street": "Altersberg",
            "amenity": "school",
            "name": "Volksschule Altersberg",
            "source": "data.ktn.gv.at"
          },
          "geometry": {
            "type": "Point",
            "coordinates": [
              13.4898253,
              46.8578351
            ]
          }
        },
        {
          "type": "Feature",
          "properties": {
            "id": "2461402173",
            "osm_type": "node",
            "lat": 46.8344915,
            "lon": 13.483764,
            "addr:city": "Lieserbrücke",
            "addr:country": "AT",
            "addr:housenumber": "65",
            "addr:postcode": "9851",
            "addr:street": "Lieserhofen",
            "amenity": "school",
            "name": "Volksschule Lieserhofen",
            "source": "data.ktn.gv.at"
          },
          "geometry": {
            "type": "Point",
            "coordinates": [
              13.483764,
              46.8344915
            ]
          }
        },
        {
          "type": "Feature",
          "properties": {
            "id": "3806559305",
            "osm_type": "node",
            "lat": 46.8562144,
            "lon": 13.3474638,
            "addr:housename": "Volksschule Mühldorf",
            "addr:postcode": "9814",
            "amenity": "school",
            "name": "Volksschule Mühldorf"
          },
          "geometry": {
            "type": "Point",
            "coordinates": [
              13.3474638,
              46.8562144
            ]
          }
        },
        {
          "type": "Feature",
          "properties": {
            "id": "12246703929",
            "osm_type": "node",
            "lat": 46.8407628,
            "lon": 13.3663801,
            "amenity": "school",
            "name": "Mittelschule Lurnfeld"
          },
          "geometry": {
            "type": "Point",
            "coordinates": [
              13.3663801,
              46.8407628
            ]
          }
        },
        {
          "type": "Feature",
          "properties": {
            "id": "12246703930",
            "osm_type": "node",
            "lat": 46.840742,
            "lon": 13.366408,
            "amenity": "school",
            "name": "Volksschule Lurnfeld"
          },
          "geometry": {
            "type": "Point",
            "coordinates": [
              13.366408,
              46.840742
            ]
          }
        },
        {
          "type": "Feature",
          "properties": {
            "id": "1851457120",
            "osm_type": "node",
            "lat": 46.8147381,
            "lon": 13.7959083,
            "amenity": "school"
          },
          "geometry": {
            "type": "Point",
            "coordinates": [
              13.7959083,
              46.8147381
            ]
          }
        },
        {
          "type": "Feature",
          "properties": {
            "id": "4992879383",
            "osm_type": "node",
            "lat": 46.8178097,
            "lon": 13.8656768,
            "amenity": "school",
            "contact:website": "http://www.nms-nockberge.ksn.at",
            "name": "Neue Mittelschule Nockberge - Patergassen"
          },
          "geometry": {
            "type": "Point",
            "coordinates": [
              13.8656768,
              46.8178097
            ]
          }
        },
        {
          "type": "Feature",
          "properties": {
            "id": "5398331344",
            "osm_type": "node",
            "lat": 46.7308085,
            "lon": 13.8498161,
            "amenity": "school",
            "name": "VS Arriach"
          },
          "geometry": {
            "type": "Point",
            "coordinates": [
              13.8498161,
              46.7308085
            ]
          }
        },
        {
          "type": "Feature",
          "properties": {
            "id": "6634690728",
            "osm_type": "node",
            "lat": 46.7147732,
            "lon": 13.6390543,
            "addr:city": "Paternion",
            "addr:country": "AT",
            "addr:housenumber": "7",
            "addr:postcode": "9711",
            "addr:street": "Bahnhofstraße (Paternion)",
            "amenity": "school",
            "at_bev:addr_date": "2018-10-01",
            "name": "Volksschule Paternion"
          },
          "geometry": {
            "type": "Point",
            "coordinates": [
              13.6390543,
              46.7147732
            ]
          }
        },
        {
          "type": "Feature",
          "properties": {
            "id": "2406126388",
            "osm_type": "node",
            "lat": 46.8244064,
            "lon": 14.0572618,
            "amenity": "school",
            "name": "Volksschule Sirnitz"
          },
          "geometry": {
            "type": "Point",
            "coordinates": [
              14.0572618,
              46.8244064
            ]
          }
        },
        {
          "type": "Feature",
          "properties": {
            "id": "4197015841",
            "osm_type": "node",
            "lat": 46.7283271,
            "lon": 14.0926877,
            "amenity": "school",
            "name": "Reformpädagogische Mittelschule Feldkirchen"
          },
          "geometry": {
            "type": "Point",
            "coordinates": [
              14.0926877,
              46.7283271
            ]
          }
        },
        {
          "type": "Feature",
          "properties": {
            "id": "6544867205",
            "osm_type": "node",
            "lat": 46.7291318,
            "lon": 14.0932024,
            "amenity": "school",
            "name": "Polytechnische Schule"
          },
          "geometry": {
            "type": "Point",
            "coordinates": [
              14.0932024,
              46.7291318
            ]
          }
        },
        {
          "type": "Feature",
          "properties": {
            "id": "9034085099",
            "osm_type": "node",
            "lat": 46.7278647,
            "lon": 14.0933731,
            "amenity": "school",
            "name": "Volksschule Feldkirchen"
          },
          "geometry": {
            "type": "Point",
            "coordinates": [
              14.0933731,
              46.7278647
            ]
          }
        },
        {
          "type": "Feature",
          "properties": {
            "id": "12749378161",
            "osm_type": "node",
            "lat": 46.7090433,
            "lon": 14.0576947,
            "amenity": "school"
          },
          "geometry": {
            "type": "Point",
            "coordinates": [
              14.0576947,
              46.7090433
            ]
          }
        }
      ],
      "children": []
    },
    {
      "bbox": {
        "south": 46.70320525,
        "west": 14.2994695,
        "north": 47.033758500000005,
        "east": 15.253173
      },
      "poiCount": 28,
      "leafCount": 28,
      "averagePosition": [
        14.921762025000001,
        46.854251857142856
      ],
      "data": [
        {
          "type": "Feature",
          "properties": {
            "id": "1653393451",
            "osm_type": "node",
            "lat": 46.8091273,
            "lon": 14.8507977,
            "amenity": "school",
            "name": "Lehrlingsakademie"
          },
          "geometry": {
            "type": "Point",
            "coordinates": [
              14.8507977,
              46.8091273
            ]
          }
        },
        {
          "type": "Feature",
          "properties": {
            "id": "1770240230",
            "osm_type": "node",
            "lat": 46.8343449,
            "lon": 14.5408023,
            "amenity": "school"
          },
          "geometry": {
            "type": "Point",
            "coordinates": [
              14.5408023,
              46.8343449
            ]
          }
        },
        {
          "type": "Feature",
          "properties": {
            "id": "2149583762",
            "osm_type": "node",
            "lat": 46.8288604,
            "lon": 14.8517191,
            "amenity": "school",
            "name": "HAS/HAK"
          },
          "geometry": {
            "type": "Point",
            "coordinates": [
              14.8517191,
              46.8288604
            ]
          }
        },
        {
          "type": "Feature",
          "properties": {
            "id": "2149583911",
            "osm_type": "node",
            "lat": 46.8291412,
            "lon": 14.8512792,
            "amenity": "school",
            "name": "HLW"
          },
          "geometry": {
            "type": "Point",
            "coordinates": [
              14.8512792,
              46.8291412
            ]
          }
        },
        {
          "type": "Feature",
          "properties": {
            "id": "2149583959",
            "osm_type": "node",
            "lat": 46.8288273,
            "lon": 14.8515233,
            "amenity": "school",
            "name": "BRG/BORG"
          },
          "geometry": {
            "type": "Point",
            "coordinates": [
              14.8515233,
              46.8288273
            ]
          }
        },
        {
          "type": "Feature",
          "properties": {
            "id": "2149583967",
            "osm_type": "node",
            "lat": 46.8294735,
            "lon": 14.8513916,
            "addr:housenumber": "1",
            "addr:street": "Gartenstraße",
            "amenity": "school",
            "contact:email": "office@htl-wolfsberg.at",
            "name": "HTL Wolfsberg",
            "phone": "+43 4352 4844 5600",
            "website": "https://www.htl-wolfsberg.at/"
          },
          "geometry": {
            "type": "Point",
            "coordinates": [
              14.8513916,
              46.8294735
            ]
          }
        },
        {
          "type": "Feature",
          "properties": {
            "id": "2819103953",
            "osm_type": "node",
            "lat": 46.7461123,
            "lon": 14.7459286,
            "amenity": "school",
            "name": "Volksschule Pustritz"
          },
          "geometry": {
            "type": "Point",
            "coordinates": [
              14.7459286,
              46.7461123
            ]
          }
        },
        {
          "type": "Feature",
          "properties": {
            "id": "2824264957",
            "osm_type": "node",
            "lat": 46.7430579,
            "lon": 14.6166509,
            "amenity": "school",
            "contact:phone": "+43 4231 8119",
            "isced:level": "1",
            "name": "Volksschule Diex"
          },
          "geometry": {
            "type": "Point",
            "coordinates": [
              14.6166509,
              46.7430579
            ]
          }
        },
        {
          "type": "Feature",
          "properties": {
            "id": "5654152297",
            "osm_type": "node",
            "lat": 46.8556589,
            "lon": 14.8025577,
            "amenity": "school",
            "name": "Volksschule St. Margarethen"
          },
          "geometry": {
            "type": "Point",
            "coordinates": [
              14.8025577,
              46.8556589
            ]
          }
        },
        {
          "type": "Feature",
          "properties": {
            "id": "12229299820",
            "osm_type": "node",
            "lat": 46.8288803,
            "lon": 14.8486045,
            "amenity": "school",
            "name": "Berufsbasisschule und Polytechnische Schule Wolfsberg",
            "short_name": "BBS Wolfsberg",
            "website": "https://pts-wolfsberg.ksn.at/"
          },
          "geometry": {
            "type": "Point",
            "coordinates": [
              14.8486045,
              46.8288803
            ]
          }
        },
        {
          "type": "Feature",
          "properties": {
            "id": "2238768348",
            "osm_type": "node",
            "lat": 46.7902317,
            "lon": 15.2176685,
            "amenity": "school",
            "name": "Musikschule Hollenegg"
          },
          "geometry": {
            "type": "Point",
            "coordinates": [
              15.2176685,
              46.7902317
            ]
          }
        },
        {
          "type": "Feature",
          "properties": {
            "id": "2723202741",
            "osm_type": "node",
            "lat": 46.8691719,
            "lon": 15.2220195,
            "addr:city": "Deutschlandsberg",
            "addr:country": "AT",
            "addr:housenumber": "3",
            "addr:place": "Bad Gams",
            "addr:postcode": "8524",
            "amenity": "school",
            "contact:mobile": "+43 664 28 45 329",
            "isced:level": "1",
            "name": "Volksschule Bad Gams",
            "phone": "+43 664 2845330",
            "website": "https://www.vs-badgams.at/"
          },
          "geometry": {
            "type": "Point",
            "coordinates": [
              15.2220195,
              46.8691719
            ]
          }
        },
        {
          "type": "Feature",
          "properties": {
            "id": "7334570230",
            "osm_type": "node",
            "lat": 46.7153315,
            "lon": 15.2068381,
            "addr:city": "Wies",
            "addr:housenumber": "54",
            "addr:place": "Wernersdorf",
            "addr:postcode": "8551",
            "amenity": "school",
            "name": "Volksschule Wernersdorf",
            "website": "https://gts-wernersdorf.at/"
          },
          "geometry": {
            "type": "Point",
            "coordinates": [
              15.2068381,
              46.7153315
            ]
          }
        },
        {
          "type": "Feature",
          "properties": {
            "id": "7361941983",
            "osm_type": "node",
            "lat": 46.8193176,
            "lon": 15.2137637,
            "addr:city": "Deutschlandsberg",
            "addr:housenumber": "3",
            "addr:postcode": "8530",
            "addr:street": "Wildbacher Straße",
            "amenity": "school",
            "fee": "yes",
            "name": "Sternschule Deutschlandsberg",
            "operator": "Diakonie de la Tour Steiermark",
            "operator:type": "religious",
            "phone": "+43 3462 30928",
            "website": "https://www.diakonie-delatour.at/wo/sternschule-deutschlandsberg"
          },
          "geometry": {
            "type": "Point",
            "coordinates": [
              15.2137637,
              46.8193176
            ]
          }
        },
        {
          "type": "Feature",
          "properties": {
            "id": "7379925287",
            "osm_type": "node",
            "lat": 46.8213547,
            "lon": 15.2239766,
            "addr:city": "Deutschlandsberg",
            "addr:housenumber": "11",
            "addr:postcode": "8530",
            "addr:street": "Lagergasse",
            "amenity": "school",
            "name": "HLW/FW Deutschlandsberg",
            "website": "https://www.hlw-dl.at"
          },
          "geometry": {
            "type": "Point",
            "coordinates": [
              15.2239766,
              46.8213547
            ]
          }
        },
        {
          "type": "Feature",
          "properties": {
            "id": "7379925288",
            "osm_type": "node",
            "lat": 46.8212752,
            "lon": 15.2240045,
            "addr:city": "Deutschlandsberg",
            "addr:housenumber": "11",
            "addr:postcode": "8530",
            "addr:street": "Lagergasse",
            "amenity": "school",
            "name": "BORG Deutschlandsberg",
            "website": "https://www.borg-dl.ac.at/"
          },
          "geometry": {
            "type": "Point",
            "coordinates": [
              15.2240045,
              46.8212752
            ]
          }
        },
        {
          "type": "Feature",
          "properties": {
            "id": "7379925289",
            "osm_type": "node",
            "lat": 46.8211958,
            "lon": 15.224037,
            "addr:city": "Deutschlandsberg",
            "addr:housenumber": "11",
            "addr:postcode": "8530",
            "addr:street": "Lagergasse",
            "amenity": "school",
            "name": "BHAK/BHAS Deutschlandsberg",
            "website": "https://www.bhak-dl.ac.at"
          },
          "geometry": {
            "type": "Point",
            "coordinates": [
              15.224037,
              46.8211958
            ]
          }
        },
        {
          "type": "Feature",
          "properties": {
            "id": "7559297374",
            "osm_type": "node",
            "lat": 46.8158401,
            "lon": 15.2123916,
            "addr:city": "Deutschlandsberg",
            "addr:country": "AT",
            "addr:housenumber": "16",
            "addr:postcode": "8530",
            "addr:street": "Schulgasse",
            "amenity": "school",
            "check_date": "2024-03-18",
            "name": "HTL Bulme Deutschlandsberg",
            "phone": "+43 3462 2011 253",
            "website": "http://www.bulme-dl.at"
          },
          "geometry": {
            "type": "Point",
            "coordinates": [
              15.2123916,
              46.8158401
            ]
          }
        },
        {
          "type": "Feature",
          "properties": {
            "id": "10229499228",
            "osm_type": "node",
            "lat": 46.7493524,
            "lon": 15.1588509,
            "amenity": "school",
            "name": "Volksschule St. Anna"
          },
          "geometry": {
            "type": "Point",
            "coordinates": [
              15.1588509,
              46.7493524
            ]
          }
        },
        {
          "type": "Feature",
          "properties": {
            "id": "2245010163",
            "osm_type": "node",
            "lat": 46.8889402,
            "lon": 14.5107189,
            "addr:housenumber": "5",
            "addr:postcode": "9334",
            "addr:street": "Stlbereggerstraße",
            "amenity": "school",
            "name": "Volksschule Guttaring",
            "website": "https://vs-guttaring.ksn.at/"
          },
          "geometry": {
            "type": "Point",
            "coordinates": [
              14.5107189,
              46.8889402
            ]
          }
        },
        {
          "type": "Feature",
          "properties": {
            "id": "5434814234",
            "osm_type": "node",
            "lat": 46.9138254,
            "lon": 14.4277022,
            "amenity": "school"
          },
          "geometry": {
            "type": "Point",
            "coordinates": [
              14.4277022,
              46.9138254
            ]
          }
        },
        {
          "type": "Feature",
          "properties": {
            "id": "5763764634",
            "osm_type": "node",
            "lat": 46.8763832,
            "lon": 14.4651512,
            "amenity": "school",
            "name": "Flex Ausbildungszentrum"
          },
          "geometry": {
            "type": "Point",
            "coordinates": [
              14.4651512,
              46.8763832
            ]
          }
        },
        {
          "type": "Feature",
          "properties": {
            "id": "1939353434",
            "osm_type": "node",
            "lat": 46.9629916,
            "lon": 14.7960682,
            "amenity": "school",
            "name": "Musikschule"
          },
          "geometry": {
            "type": "Point",
            "coordinates": [
              14.7960682,
              46.9629916
            ]
          }
        },
        {
          "type": "Feature",
          "properties": {
            "id": "1601039767",
            "osm_type": "node",
            "lat": 47.0094768,
            "lon": 15.1089877,
            "addr:city": "Sankt Martin am Wöllmißberg",
            "addr:country": "AT",
            "addr:housenumber": "36",
            "addr:place": "Sankt Martin am Wöllmißberg",
            "addr:postcode": "8580",
            "amenity": "school",
            "at_bev:addr_date": "2018-04-02",
            "name": "Volksschule",
            "website": "http://www.st-martin-woellmissberg.at/de-volksschule-12-info.html",
            "website_1": "http://www.st-martin-woellmissberg.at/de-volksschule-12-info.html"
          },
          "geometry": {
            "type": "Point",
            "coordinates": [
              15.1089877,
              47.0094768
            ]
          }
        },
        {
          "type": "Feature",
          "properties": {
            "id": "1618737500",
            "osm_type": "node",
            "lat": 47.0224001,
            "lon": 15.0543928,
            "addr:city": "Edelschrott",
            "addr:country": "AT",
            "addr:housenumber": "110",
            "addr:postcode": "8583",
            "addr:street": "Schulstraße",
            "amenity": "school",
            "isced:level": "1",
            "name": "Musikvolksschule Edelschrott",
            "short_name": "MVS Edelschrott",
            "website": "https://www.mvs-edelschrott.at/"
          },
          "geometry": {
            "type": "Point",
            "coordinates": [
              15.0543928,
              47.0224001
            ]
          }
        },
        {
          "type": "Feature",
          "properties": {
            "id": "2188695452",
            "osm_type": "node",
            "lat": 46.9939225,
            "lon": 15.2057365,
            "amenity": "school",
            "name": "Musikschule Ligist"
          },
          "geometry": {
            "type": "Point",
            "coordinates": [
              15.2057365,
              46.9939225
            ]
          }
        },
        {
          "type": "Feature",
          "properties": {
            "id": "12227847551",
            "osm_type": "node",
            "lat": 47.0224753,
            "lon": 15.0546248,
            "addr:city": "Edelschrott",
            "addr:country": "AT",
            "addr:housenumber": "110",
            "addr:postcode": "8583",
            "addr:street": "Schulstraße",
            "amenity": "school",
            "contact:phone": "+43 3145 80120",
            "isced:level": "2",
            "name": "Musikmittelschule Edelschrott",
            "short_name": "MMS Edelschrott",
            "website": "https://ms-edelschrott.at/"
          },
          "geometry": {
            "type": "Point",
            "coordinates": [
              15.0546248,
              47.0224753
            ]
          }
        },
        {
          "type": "Feature",
          "properties": {
            "id": "5329558592",
            "osm_type": "node",
            "lat": 46.872082,
            "lon": 14.4711491,
            "addr:city": "Althofen",
            "addr:housenumber": "3",
            "addr:postcode": "9330",
            "addr:street": "Schulgasse",
            "amenity": "school",
            "name": "NMS Althofen",
            "phone": "+43 4262 2401",
            "website": "http://www.nms-althofen.at/index.php?option=com_content&view=article&id=46&Itemid=55"
          },
          "geometry": {
            "type": "Point",
            "coordinates": [
              14.4711491,
              46.872082
            ]
          }
        }
      ],
      "children": []
    }
  ]
}