{
  "bbox": {
    "south": 47.033758500000005,
    "west": 15.253173,
    "north": 47.694865,
    "east": 17.16058
  },
  "poiCount": 208,
  "leafCount": 0,
  "averagePosition": [
    16.008760983173076,
    47.33369362211538
  ],
  "data": [],
  "children": [
    {
      "bbox": {
        "south": 47.033758500000005,
        "west": 15.253173,
        "north": 47.36431175,
        "east": 16.2068765
      },
      "poiCount": 95,
      "leafCount": 0,
      "averagePosition": [
        15.646471288421052,
        47.17526303473685
      ],
      "data": [],
      "children": [
        {
          "bbox": {
            "south": 47.033758500000005,
            "west": 15.253173,
            "north": 47.199035125,
            "east": 15.73002475
          },
          "poiCount": 48,
          "leafCount": 48,
          "averagePosition": [
            15.441588229166667,
            47.088945450000004
          ],
          "data": [
            {
              "type": "Feature",
              "properties": {
                "id": "117124121",
                "osm_type": "node",
                "lat": 47.0470965,
                "lon": 15.4829991,
                "amenity": "school",
                "name": "Waldorfschule"
              },
              "geometry": {
                "type": "Point",
                "coordinates": [
                  15.4829991,
                  47.0470965
                ]
              }
            },
            {
              "type": "Feature",
              "properties": {
                "id": "270508838",
                "osm_type": "node",
                "lat": 47.0740215,
                "lon": 15.4008094,
                "addr:city": "Graz",
                "addr:country": "AT",
                "addr:housenumber": "9",
                "addr:postcode": "8020",
                "addr:street": "Algersdorfer Straße",
                "amenity": "school",
                "contact:phone": "+43 316 872-6763",
                "isced:level": "1",
                "name": "Volksschule Algersdorf",
                "website": "https://www.vs-algersdorf.at/",
                "wheelchair": "yes"
              },
              "geometry": {
                "type": "Point",
                "coordinates": [
                  15.4008094,
                  47.0740215
                ]
              }
            },
            {
              "type": "Feature",
              "properties": {
                "id": "270508846",
                "osm_type": "node",
                "lat": 47.0929027,
                "lon": 15.4028193,
                "addr:city": "Graz",
                "addr:country": "AT",
                "addr:housenumber": "15-21",
                "addr:postcode": "8051",
                "addr:street": "Ibererstraße",
                "amenity": "school",
                "check_date": "2024-06-11",
                "name": "HTL BULME",
                "official_name": "Höhere technische Bundeslehr- und Versuchsanstalt Graz-Gösting",
                "phone": "+43 316 6081 0",
                "wikidata": "Q1643742",
                "wikipedia": "de:Höhere technische Bundeslehr- und Versuchsanstalt Graz-Gösting"
              },
              "geometry": {
                "type": "Point",
                "coordinates": [
                  15.4028193,
                  47.0929027
                ]
              }
            },
            {
              "type": "Feature",
              "properties": {
                "id": "280451771",
                "osm_type": "node",
                "lat": 47.0676094,
                "lon": 15.4332959,
                "amenity": "school",
                "check_date": "2025-07-21",
                "name": "Johann Josef Fux Konservatorium"
              },
              "geometry": {
                "type": "Point",
                "coordinates": [
                  15.4332959,
                  47.0676094
                ]
              }
            },
            {
              "type": "Feature",
              "properties": {
                "id": "319117443",
                "osm_type": "node",
                "lat": 47.0695637,
                "lon": 15.4311481,
                "addr:city": "Graz",
                "addr:country": "AT",
                "addr:housenumber": "1",
                "addr:postcode": "8020",
                "addr:street": "Maria-Stromberger-Gasse",
                "amenity": "school",
                "contact:email": "ms.st.andrae@ms-st-andrae.edu.graz.at",
                "contact:phone": "+43 316 872-6905",
                "isced:level": "1-2",
                "name": "Volks-/ Mittelschule St. Andrä",
                "old_name": "Volks-/ Hauptschule St. Andrä",
                "website": "https://www.msandrae.at/"
              },
              "geometry": {
                "type": "Point",
                "coordinates": [
                  15.4311481,
                  47.0695637
                ]
              }
            },
            {
              "type": "Feature",
              "properties": {
                "id": "386048899",
                "osm_type": "node",
                "lat": 47.0367744,
                "lon": 15.3027728,
                "addr:city": "Hitzendorf",
                "addr:country": "AT",
                "addr:housenumber": "120",
                "addr:place": "Hitzendorf",
                "addr:postcode": "8151",
                "amenity": "school",
                "at_bev:addr_date": "2017-10-01",
                "contact:phone": "+43 3137 2335 -10",
                "isced:level": "2",
                "name": "Mittelschule Hitzendorf",
                "old_name": "Hauptschule Hitzendorf",
                "public_transport:version": "2",
                "website": "https://mshitzendorf.edupage.org/"
              },
              "geometry": {
                "type": "Point",
                "coordinates": [
                  15.3027728,
                  47.0367744
                ]
              }
            },
            {
              "type": "Feature",
              "properties": {
                "id": "386048900",
                "osm_type": "node",
                "lat": 47.0363213,
                "lon": 15.3024923,
                "addr:city": "Hitzendorf",
                "addr:country": "AT",
                "addr:housenumber": "4",
                "addr:place": "Hitzendorf",
                "addr:postcode": "8151",
                "amenity": "school",
                "at_bev:addr_date": "2017-10-01",
                "contact:phone": "+43 3137 2335-20",
                "isced:level": "1",
                "name": "Volksschule Hitzendorf",
                "public_transport:version": "2",
                "website": "https://vs.hitzendorf.at/"
              },
              "geometry": {
                "type": "Point",
                "coordinates": [
                  15.3024923,
                  47.0363213
                ]
              }
            },
            {
              "type": "Feature",
              "properties": {
                "id": "558554699",
                "osm_type": "node",
                "lat": 47.19546,
                "lon": 15.3376561,
                "addr:city": "Deutschfeistritz",
                "addr:country": "AT",
                "addr:housenumber": "1",
                "addr:postcode": "8121",
                "addr:street": "Schulgasse",
                "amenity": "school",
                "name": "Sportmittelschule Deutschfeistritz",
                "short_name": "MS Deutschfeistritz",
                "website": "https://msdf.at"
              },
              "geometry": {
                "type": "Point",
                "coordinates": [
                  15.3376561,
                  47.19546
                ]
              }
            },
            {
              "type": "Feature",
              "properties": {
                "id": "890459222",
                "osm_type": "node",
                "lat": 47.0669109,
                "lon": 15.4011856,
                "addr:city": "Graz",
                "addr:country": "AT",
                "addr:housenumber": "59",
                "addr:postcode": "8020",
                "addr:street": "Karl-Morre-Straße",
                "amenity": "school",
                "check_date": "2024-06-25",
                "name": "Flugschule Steiermark",
                "phone": "+4306642600995",
                "website": "http://www.flugschule-steiermark.at"
              },
              "geometry": {
                "type": "Point",
                "coordinates": [
                  15.4011856,
                  47.0669109
                ]
              }
            },
            {
              "type": "Feature",
              "properties": {
                "id": "890461898",
                "osm_type": "node",
                "lat": 47.0952216,
                "lon": 15.454256,
                "addr:city": "Graz",
                "addr:country": "AT",
                "addr:housenumber": "2",
                "addr:postcode": "8043",
                "addr:street": "Rafensedergasse",
                "amenity": "school",
                "name": "Visagistenschule",
                "phone": "+43316321515",
                "website": "https://www.visagisten.at/"
              },
              "geometry": {
                "type": "Point",
                "coordinates": [
                  15.454256,
                  47.0952216
                ]
              }
            },
            {
              "type": "Feature",
              "properties": {
                "id": "1372222666",
                "osm_type": "node",
                "lat": 47.0756247,
                "lon": 15.3961454,
                "addr:city": "Graz",
                "addr:country": "AT",
                "addr:housenumber": "84a",
                "addr:postcode": "8020",
                "addr:street": "Georgigasse",
                "amenity": "school",
                "name": "Privates ORG;private HLA private Mittelschule;private Volksschule",
                "operator": "Verein für Franziskanische Bildung",
                "operator:type": "religious",
                "phone": "+43 316 574098"
              },
              "geometry": {
                "type": "Point",
                "coordinates": [
                  15.3961454,
                  47.0756247
                ]
              }
            },
            {
              "type": "Feature",
              "properties": {
                "id": "1508797990",
                "osm_type": "node",
                "lat": 47.0718044,
                "lon": 15.440063,
                "addr:city": "Graz",
                "addr:country": "AT",
                "addr:housenumber": "11",
                "addr:postcode": "8010",
                "addr:street": "Färbergasse",
                "amenity": "school",
                "int_name": "Musikmittelschule Graz Ferdinandeum",
                "name": "Musikmittelschule Graz-Ferdinandeum",
                "wheelchair": "yes"
              },
              "geometry": {
                "type": "Point",
                "coordinates": [
                  15.440063,
                  47.0718044
                ]
              }
            },
            {
              "type": "Feature",
              "properties": {
                "id": "1594463278",
                "osm_type": "node",
                "lat": 47.071801,
                "lon": 15.4255332,
                "addr:city": "Graz",
                "addr:country": "AT",
                "addr:housenumber": "32",
                "addr:postcode": "8020",
                "addr:street": "Strauchergasse",
                "amenity": "school",
                "check_date": "2024-05-29",
                "entrance": "yes",
                "name": "Volkshochschule"
              },
              "geometry": {
                "type": "Point",
                "coordinates": [
                  15.4255332,
                  47.071801
                ]
              }
            },
            {
              "type": "Feature",
              "properties": {
                "id": "1826076555",
                "osm_type": "node",
                "lat": 47.0726469,
                "lon": 15.4406456,
                "addr:city": "Graz",
                "addr:country": "AT",
                "addr:housenumber": "1",
                "addr:postcode": "8010",
                "addr:street": "Freiheitsplatz",
                "amenity": "school",
                "name": "BDV Benko",
                "phone": "+43 316 822172",
                "source": "Stadt Graz - data.graz.gv.at"
              },
              "geometry": {
                "type": "Point",
                "coordinates": [
                  15.4406456,
                  47.0726469
                ]
              }
            },
            {
              "type": "Feature",
              "properties": {
                "id": "1826076558",
                "osm_type": "node",
                "lat": 47.0838458,
                "lon": 15.4361154,
                "addr:city": "Graz",
                "addr:country": "AT",
                "addr:housenumber": "41",
                "addr:postcode": "8010",
                "addr:street": "Grabenstraße",
                "amenity": "school",
                "name": "FS w.Freie Berufe",
                "operator": "Caritas Graz-Seckau",
                "source": "Stadt Graz - data.graz.gv.at"
              },
              "geometry": {
                "type": "Point",
                "coordinates": [
                  15.4361154,
                  47.0838458
                ]
              }
            },
            {
              "type": "Feature",
              "properties": {
                "id": "1826076559",
                "osm_type": "node",
                "lat": 47.0839239,
                "lon": 15.4361061,
                "addr:city": "Graz",
                "addr:country": "AT",
                "addr:housenumber": "41",
                "addr:postcode": "8010",
                "addr:street": "Grabenstraße",
                "amenity": "school",
                "name": "HLA für wirtschaftliche Berufe, Sozialmanagement",
                "operator": "Caritas Graz-Seckau",
                "phone": "+43 316 8015 430",
                "source": "Stadt Graz - data.graz.gv.at"
              },
              "geometry": {
                "type": "Point",
                "coordinates": [
                  15.4361061,
                  47.0839239
                ]
              }
            },
            {
              "type": "Feature",
              "properties": {
                "id": "1826076563",
                "osm_type": "node",
                "lat": 47.0821405,
                "lon": 15.4380465,
                "addr:city": "Graz",
                "addr:country": "AT",
                "addr:housenumber": "2",
                "addr:postcode": "8010",
                "addr:street": "Lange Gasse",
                "amenity": "school",
                "name": "Kolleg für Sozialpädagogik",
                "phone": "+43 316 581670 27"
              },
              "geometry": {
                "type": "Point",
                "coordinates": [
                  15.4380465,
                  47.0821405
                ]
              }
            },
            {
              "type": "Feature",
              "properties": {
                "id": "1826076567",
                "osm_type": "node",
                "lat": 47.0773673,
                "lon": 15.4645493,
                "addr:city": "Graz",
                "addr:country": "AT",
                "addr:housenumber": "130",
                "addr:postcode": "8010",
                "addr:street": "Leonhardstraße",
                "amenity": "school",
                "name": "LA für Sehbehinderte; Hauswirtschaftliche Schulen",
                "phone": "+43 316 322667 26",
                "source": "Stadt Graz - data.graz.gv.at",
                "toilets:wheelchair": "yes",
                "wheelchair": "yes"
              },
              "geometry": {
                "type": "Point",
                "coordinates": [
                  15.4645493,
                  47.0773673
                ]
              }
            },
            {
              "type": "Feature",
              "properties": {
                "id": "1826076568",
                "osm_type": "node",
                "lat": 47.0619008,
                "lon": 15.4393874,
                "addr:city": "Graz",
                "addr:country": "AT",
                "addr:housenumber": "31",
                "addr:postcode": "8010",
                "addr:street": "Wielandgasse",
                "alt_name": "LA für Sozialbetreuungsberufe",
                "amenity": "school",
                "contact:email": "abz.wielandgasse@caritas-steiermark.at",
                "contact:fax": "+43 316 8015 666",
                "contact:phone": "+43 316 8015 660",
                "fixme": "'phone' - nr. still correct? contact:phone taken from website",
                "name": "Ausbildungszentrum für Sozialberufe",
                "official_name": "Ausbildungszentrum für Sozialberufe Wielandgasse Graz",
                "operator": "Diözese Graz-Seckau",
                "phone": "+43 316 824151 0",
                "source": "website",
                "website": "https://abz-wielandgasse.caritas-steiermark.at/",
                "wheelchair": "limited",
                "wheelchair:description": "\"Parterre\" liegt 10 Stufen über dem Eingangsniveau. Parterre ist mit einem aufwendigen Lift zu erreichen. Treppenlift in den Keller zur Rollstuhl-gerechten Toilette ist vorhanden, aber nur mit Schlüssel zu bedienen."
              },
              "geometry": {
                "type": "Point",
                "coordinates": [
                  15.4393874,
                  47.0619008
                ]
              }
            },
            {
              "type": "Feature",
              "properties": {
                "id": "1826076569",
                "osm_type": "node",
                "lat": 47.0710026,
                "lon": 15.4414061,
                "addr:city": "Graz",
                "addr:country": "AT",
                "addr:housenumber": "5",
                "addr:postcode": "8010",
                "addr:street": "Glockenspielplatz",
                "amenity": "school",
                "name": "Privatschule Uranschek",
                "phone": "+43 316 830246",
                "source": "Stadt Graz - data.graz.gv.at"
              },
              "geometry": {
                "type": "Point",
                "coordinates": [
                  15.4414061,
                  47.0710026
                ]
              }
            },
            {
              "type": "Feature",
              "properties": {
                "id": "1826085722",
                "osm_type": "node",
                "lat": 47.0733819,
                "lon": 15.4305046,
                "addr:city": "Graz",
                "addr:country": "AT",
                "addr:housenumber": "19-21",
                "addr:postcode": "8020",
                "addr:street": "Marschallgasse",
                "amenity": "school",
                "contact:email": "office@abendgymnasium.at",
                "contact:fax": "+43 316 318899-4",
                "contact:phone": "+43 316 318899",
                "contact:website": "www.abendgymnasium-graz.at",
                "name": "BG/BRG für Berufstätige",
                "source": "Stadt Graz - data.graz.gv.at"
              },
              "geometry": {
                "type": "Point",
                "coordinates": [
                  15.4305046,
                  47.0733819
                ]
              }
            },
            {
              "type": "Feature",
              "properties": {
                "id": "1826114827",
                "osm_type": "node",
                "lat": 47.035175,
                "lon": 15.4202014,
                "addr:city": "Graz",
                "addr:country": "AT",
                "addr:housenumber": "23",
                "addr:postcode": "8053",
                "addr:street": "Wagner-Jauregg-Platz",
                "amenity": "school",
                "name": "Psychiatrische Gesundheits- und Krankenpflegeschule",
                "phone": "+43 316 2191 2470"
              },
              "geometry": {
                "type": "Point",
                "coordinates": [
                  15.4202014,
                  47.035175
                ]
              }
            },
            {
              "type": "Feature",
              "properties": {
                "id": "1826114828",
                "osm_type": "node",
                "lat": 47.0497755,
                "lon": 15.3906037,
                "addr:city": "Graz",
                "addr:country": "AT",
                "addr:housenumber": "81",
                "addr:postcode": "8052",
                "addr:street": "Krottendorfer Straße",
                "amenity": "school",
                "name": "Schule für Sozialbetriebe/Altenarbeit",
                "operator": "Diakoniewerk",
                "source": "Stadt Graz - data.graz.gv.at"
              },
              "geometry": {
                "type": "Point",
                "coordinates": [
                  15.3906037,
                  47.0497755
                ]
              }
            },
            {
              "type": "Feature",
              "properties": {
                "id": "1826114829",
                "osm_type": "node",
                "lat": 47.0349116,
                "lon": 15.4202695,
                "addr:city": "Graz",
                "addr:country": "AT",
                "addr:housenumber": "23",
                "addr:postcode": "8053",
                "addr:street": "Wagner-Jauregg-Platz",
                "amenity": "school",
                "name": "Schule für medizinisch-technischen Fachdienst",
                "phone": "+43 316 2191 2652"
              },
              "geometry": {
                "type": "Point",
                "coordinates": [
                  15.4202695,
                  47.0349116
                ]
              }
            },
            {
              "type": "Feature",
              "properties": {
                "id": "2384398613",
                "osm_type": "node",
                "lat": 47.1355216,
                "lon": 15.2858081,
                "amenity": "school",
                "check_date": "2024-03-10",
                "name": "BG Rein"
              },
              "geometry": {
                "type": "Point",
                "coordinates": [
                  15.2858081,
                  47.1355216
                ]
              }
            },
            {
              "type": "Feature",
              "properties": {
                "id": "2388273961",
                "osm_type": "node",
                "lat": 47.0732833,
                "lon": 15.4305264,
                "addr:city": "Graz",
                "addr:country": "AT",
                "addr:housenumber": "19",
                "addr:postcode": "8020",
                "addr:street": "Marschallgasse",
                "amenity": "school",
                "contact:phone": "+43 316 713425",
                "name": "Volksschule Afritsch"
              },
              "geometry": {
                "type": "Point",
                "coordinates": [
                  15.4305264,
                  47.0732833
                ]
              }
            },
            {
              "type": "Feature",
              "properties": {
                "id": "2428068144",
                "osm_type": "node",
                "lat": 47.1027509,
                "lon": 15.4222552,
                "addr:city": "Graz",
                "addr:country": "AT",
                "addr:housenumber": "35b",
                "addr:postcode": "8045",
                "addr:street": "Andritzer Reichsstraße",
                "amenity": "school",
                "name": "Volksschule Viktor Kaplan",
                "old_name": "Erzherzog-Johann-Schule",
                "source": "data.graz.gv.at",
                "website": "https://www.vsviktorkaplan.at/"
              },
              "geometry": {
                "type": "Point",
                "coordinates": [
                  15.4222552,
                  47.1027509
                ]
              }
            },
            {
              "type": "Feature",
              "properties": {
                "id": "3128104429",
                "osm_type": "node",
                "lat": 47.061905,
                "lon": 15.4395058,
                "addr:city": "Graz",
                "addr:country": "AT",
                "addr:housenumber": "31",
                "addr:postcode": "8010",
                "addr:street": "Wielandgasse",
                "amenity": "school",
                "name": "Caritas Schule für Sozailbetreuungsberufe",
                "wheelchair": "limited",
                "wheelchair:description": "Nur je ein Lift nach Parterre im 1.Halbstock und zum WC im Keller. If you come from Augarten bus stop, you have to use the gateway for cars on the backside."
              },
              "geometry": {
                "type": "Point",
                "coordinates": [
                  15.4395058,
                  47.061905
                ]
              }
            },
            {
              "type": "Feature",
              "properties": {
                "id": "3282895894",
                "osm_type": "node",
                "lat": 47.0740497,
                "lon": 15.456309,
                "amenity": "school",
                "check_date": "2025-08-06",
                "contact:phone": "+43 316 323300-22",
                "isced:level": "1",
                "name": "Volksschule der Ursulinen",
                "name:etymology:wikidata": "Q2250880",
                "website": "https://www.ursulinen.at/volksschule/",
                "wheelchair": "yes"
              },
              "geometry": {
                "type": "Point",
                "coordinates": [
                  15.456309,
                  47.0740497
                ]
              }
            },
            {
              "type": "Feature",
              "properties": {
                "id": "3282895895",
                "osm_type": "node",
                "lat": 47.0741539,
                "lon": 15.4565886,
                "alt_name": "Mittelschule mit PTS der Ursulinen",
                "amenity": "school",
                "check_date": "2025-08-06",
                "contact:phone": "+43 316 323 300-20",
                "isced:level": "2",
                "name": "Mittelschule der Ursulinen",
                "name:etymology:wikidata": "Q2250880",
                "website": "https://www.ursulinen.at/mittelschule/",
                "wheelchair": "yes"
              },
              "geometry": {
                "type": "Point",
                "coordinates": [
                  15.4565886,
                  47.0741539
                ]
              }
            },
            {
              "type": "Feature",
              "properties": {
                "id": "3282895896",
                "osm_type": "node",
                "lat": 47.0740994,
                "lon": 15.4563859,
                "amenity": "school",
                "check_date": "2024-06-11",
                "isced:level": "2-3",
                "name": "Privatgymnasium und privates Oberstufenrealgymnasium der Ursulinen Graz",
                "name:etymology:wikidata": "Q2250880",
                "website": "https://www.ursulinen.at/gymnasium/",
                "wheelchair": "limited"
              },
              "geometry": {
                "type": "Point",
                "coordinates": [
                  15.4563859,
                  47.0740994
                ]
              }
            },
            {
              "type": "Feature",
              "properties": {
                "id": "3590610467",
                "osm_type": "node",
                "lat": 47.0747378,
                "lon": 15.4010924,
                "addr:city": "Graz",
                "addr:country": "AT",
                "addr:housenumber": "11",
                "addr:postcode": "8020",
                "addr:street": "Algersdorfer Straße",
                "amenity": "school",
                "contact:email": "sigrid.carbonare-godina@ms-algersdorf.edu.graz.at",
                "contact:phone": "+43 316 872-6765",
                "isced:level": "2",
                "name": "Mittelschule Graz-Algersdorf",
                "short_name": "MS Algersdorf",
                "website": "http://www.algersdorf.at/kontakt/",
                "wheelchair": "no"
              },
              "geometry": {
                "type": "Point",
                "coordinates": [
                  15.4010924,
                  47.0747378
                ]
              }
            },
            {
              "type": "Feature",
              "properties": {
                "id": "4036716628",
                "osm_type": "node",
                "lat": 47.1317043,
                "lon": 15.31792,
                "addr:city": "Gratwein-Straßengel",
                "addr:postcode": "8112",
                "addr:street": "Schulgasse",
                "amenity": "school",
                "name": "Volksschule"
              },
              "geometry": {
                "type": "Point",
                "coordinates": [
                  15.31792,
                  47.1317043
                ]
              }
            },
            {
              "type": "Feature",
              "properties": {
                "id": "4403909999",
                "osm_type": "node",
                "lat": 47.0745734,
                "lon": 15.4006083,
                "amenity": "school",
                "name": "Volksschule Leopoldinum",
                "note": "Expositur",
                "wheelchair": "yes"
              },
              "geometry": {
                "type": "Point",
                "coordinates": [
                  15.4006083,
                  47.0745734
                ]
              }
            },
            {
              "type": "Feature",
              "properties": {
                "id": "4556752678",
                "osm_type": "node",
                "lat": 47.1021735,
                "lon": 15.4219055,
                "addr:city": "Graz",
                "addr:country": "AT",
                "addr:housenumber": "35c",
                "addr:postcode": "8045",
                "addr:street": "Andritzer Reichsstraße",
                "amenity": "school",
                "contact:email": "ms.viktor.kaplan@ms-viktor-kaplan.edu.graz.at",
                "contact:phone": "+43 316 872-6865",
                "isced:level": "2",
                "name": "Mittelschule Graz Andritz",
                "source": "data.graz.gv.at",
                "website": "https://ms-viktor-kaplan.edupage.org/"
              },
              "geometry": {
                "type": "Point",
                "coordinates": [
                  15.4219055,
                  47.1021735
                ]
              }
            },
            {
              "type": "Feature",
              "properties": {
                "id": "4857924914",
                "osm_type": "node",
                "lat": 47.0599537,
                "lon": 15.4337559,
                "addr:city": "Graz",
                "addr:country": "AT",
                "addr:housenumber": "96",
                "addr:postcode": "8020",
                "addr:street": "Grieskai",
                "amenity": "school",
                "contact:email": "office@alea.co.at",
                "contact:phone": "+43 59 996 0",
                "name": "aleaACADEMY",
                "old_name": "AK:ZENT Graz",
                "operator": "alea + partner gmbh",
                "website": "https://www.alea.co.at/impressum/ent-graz.at/"
              },
              "geometry": {
                "type": "Point",
                "coordinates": [
                  15.4337559,
                  47.0599537
                ]
              }
            },
            {
              "type": "Feature",
              "properties": {
                "id": "6712175500",
                "osm_type": "node",
                "lat": 47.0717533,
                "lon": 15.4248558,
                "addr:city": "Graz",
                "addr:country": "AT",
                "addr:housenumber": "6",
                "addr:postcode": "8020",
                "addr:street": "Hans-Resel-Gasse",
                "amenity": "school",
                "check_date": "2024-05-29",
                "name": "Volkshochschule"
              },
              "geometry": {
                "type": "Point",
                "coordinates": [
                  15.4248558,
                  47.0717533
                ]
              }
            },
            {
              "type": "Feature",
              "properties": {
                "id": "7040620201",
                "osm_type": "node",
                "lat": 47.195865,
                "lon": 15.337631,
                "addr:city": "Deutschfeistritz",
                "addr:country": "AT",
                "addr:housenumber": "5",
                "addr:postcode": "8121",
                "addr:street": "Schulgasse",
                "amenity": "school",
                "at_bev:addr_date": "2019-10-01",
                "name": "Polytechnische Schule Deutschfeistritz",
                "short_name": "PTS Deutschfeistritz",
                "website": "https://www.ptsdf.at"
              },
              "geometry": {
                "type": "Point",
                "coordinates": [
                  15.337631,
                  47.195865
                ]
              }
            },
            {
              "type": "Feature",
              "properties": {
                "id": "7040620202",
                "osm_type": "node",
                "lat": 47.195854,
                "lon": 15.33837,
                "addr:city": "Deutschfeistritz",
                "addr:country": "AT",
                "addr:housenumber": "3",
                "addr:postcode": "8121",
                "addr:street": "Schulgasse",
                "amenity": "school",
                "at_bev:addr_date": "2019-10-01",
                "name": "Volksschule Deutschfeistritz",
                "short_name": "VS Deutschfeistritz",
                "website": "https://www.vs-deutschfeistritz.com"
              },
              "geometry": {
                "type": "Point",
                "coordinates": [
                  15.33837,
                  47.195854
                ]
              }
            },
            {
              "type": "Feature",
              "properties": {
                "id": "7284688169",
                "osm_type": "node",
                "lat": 47.0474068,
                "lon": 15.4607624,
                "addr:city": "Graz",
                "addr:country": "AT",
                "addr:housenumber": "69",
                "addr:postcode": "8041",
                "addr:street": "Emil-Ertl-Gasse",
                "amenity": "school",
                "contact:phone": "+43 316 38 31 94",
                "contact:website": "www.drumbl.at",
                "name": "Drumbl Akademie",
                "school": "health_care"
              },
              "geometry": {
                "type": "Point",
                "coordinates": [
                  15.4607624,
                  47.0474068
                ]
              }
            },
            {
              "type": "Feature",
              "properties": {
                "id": "11056316512",
                "osm_type": "node",
                "lat": 47.0607491,
                "lon": 15.4589295,
                "addr:housenumber": "3a",
                "addr:street": "Moserhofgasse",
                "amenity": "school",
                "name": "Projektschule Graz",
                "operator": "Verein Projektschule Graz",
                "operator:type": "private_non_profit",
                "website": "https://www.projektschule-graz.at/"
              },
              "geometry": {
                "type": "Point",
                "coordinates": [
                  15.4589295,
                  47.0607491
                ]
              }
            },
            {
              "type": "Feature",
              "properties": {
                "id": "12183371430",
                "osm_type": "node",
                "lat": 47.1955249,
                "lon": 15.3380004,
                "addr:city": "Deutschfeistritz",
                "addr:country": "AT",
                "addr:housenumber": "1-5",
                "addr:postcode": "8121",
                "addr:street": "Schulgasse",
                "alt_name": "Schulzentrum Deutschfeistritz",
                "amenity": "school",
                "at_bev:addr_date": "2019-10-01",
                "name": "Pflichtschulcluster Deutschfeistritz",
                "short_name": "SZ Deutschfeistritz",
                "website": "https://www.szdf.at"
              },
              "geometry": {
                "type": "Point",
                "coordinates": [
                  15.3380004,
                  47.1955249
                ]
              }
            },
            {
              "type": "Feature",
              "properties": {
                "id": "13072333060",
                "osm_type": "node",
                "lat": 47.0802647,
                "lon": 15.4121663,
                "addr:city": "Graz",
                "addr:country": "AT",
                "addr:housenumber": "108-108a",
                "addr:postcode": "8020",
                "addr:street": "Waagner-Biro-Straße",
                "amenity": "school",
                "name": "BORG Dreierschützengasse (Ausweichquartier)"
              },
              "geometry": {
                "type": "Point",
                "coordinates": [
                  15.4121663,
                  47.0802647
                ]
              }
            },
            {
              "type": "Feature",
              "properties": {
                "id": "418175051",
                "osm_type": "node",
                "lat": 47.1068379,
                "lon": 15.7160214,
                "addr:city": "Gleisdorf",
                "addr:country": "AT",
                "addr:housenumber": "12",
                "addr:postcode": "8200",
                "addr:street": "Alois-Grogger-Gasse",
                "amenity": "school",
                "contact:email": "mittelschule@gleisdorf.at",
                "contact:phone": "+43 3112 2735-12",
                "isced:level": "2",
                "name": "Mittelschule Gleisdorf",
                "official_name": "Neue Mittelschule Gleisdorf",
                "website": "https://www.ms.gleisdorf.at/",
                "wheelchair": "no"
              },
              "geometry": {
                "type": "Point",
                "coordinates": [
                  15.7160214,
                  47.1068379
                ]
              }
            },
            {
              "type": "Feature",
              "properties": {
                "id": "1264756965",
                "osm_type": "node",
                "lat": 47.1596384,
                "lon": 15.7206918,
                "addr:city": "Albersdorf-Prebuch",
                "addr:country": "AT",
                "addr:housename": "Volksschule Prebuch",
                "addr:housenumber": "40",
                "addr:place": "Prebuch",
                "addr:postcode": "8211",
                "amenity": "school",
                "name": "Volksschule Prebuch"
              },
              "geometry": {
                "type": "Point",
                "coordinates": [
                  15.7206918,
                  47.1596384
                ]
              }
            },
            {
              "type": "Feature",
              "properties": {
                "id": "2278420446",
                "osm_type": "node",
                "lat": 47.1820786,
                "lon": 15.7080112,
                "addr:city": "Sankt Ruprecht an der Raab",
                "addr:housenumber": "6",
                "addr:place": "Rollsdorf",
                "addr:postcode": "8181",
                "amenity": "school",
                "name": "Volksschule Etzersdorf-Rollsdorf",
                "phone": "+433177 2296"
              },
              "geometry": {
                "type": "Point",
                "coordinates": [
                  15.7080112,
                  47.1820786
                ]
              }
            },
            {
              "type": "Feature",
              "properties": {
                "id": "3050298314",
                "osm_type": "node",
                "lat": 47.1065352,
                "lon": 15.7156658,
                "addr:city": "Gleisdorf",
                "addr:country": "AT",
                "addr:housenumber": "12",
                "addr:postcode": "8200",
                "addr:street": "Alois-Grogger-Gasse",
                "amenity": "school",
                "contact:email": "pts@gleisdorf.at",
                "contact:phone": "+43 3112 3260",
                "name": "Polytechnische Schule Gleisdorf",
                "website": "https://www.pts.gleisdorf.at/"
              },
              "geometry": {
                "type": "Point",
                "coordinates": [
                  15.7156658,
                  47.1065352
                ]
              }
            },
            {
              "type": "Feature",
              "properties": {
                "id": "4721055707",
                "osm_type": "node",
                "lat": 47.1007833,
                "lon": 15.6734565,
                "amenity": "school",
                "name": "Volksschule Flöcking",
                "source": "survey;geoimage.at"
              },
              "geometry": {
                "type": "Point",
                "coordinates": [
                  15.6734565,
                  47.1007833
                ]
              }
            }
          ],
          "children": []
        },
        {
          "bbox": {
            "south": 47.033758500000005,
            "west": 15.73002475,
            "north": 47.199035125,
            "east": 16.2068765
          },
          "poiCount": 7,
          "leafCount": 7,
          "averagePosition": [
            15.943192957142857,
            47.144784828571424
          ],
          "data": [
            {
              "type": "Feature",
              "properties": {
                "id": "471579042",
                "osm_type": "node",
                "lat": 47.169459,
                "lon": 16.0128406,
                "amenity": "school",
                "name": "Volksschule Bad Waltersdorf",
                "phone": "+433333 22 43",
                "website": "http://www.vs-badwaltersdorf.at"
              },
              "geometry": {
                "type": "Point",
                "coordinates": [
                  16.0128406,
                  47.169459
                ]
              }
            },
            {
              "type": "Feature",
              "properties": {
                "id": "471579148",
                "osm_type": "node",
                "lat": 47.1695245,
                "lon": 16.0135372,
                "alt_name": "NMS Neue Mittelschule Bad Waltersdorf",
                "amenity": "school",
                "email": "nms-badwaltersdorf@htb.at",
                "name": "Mittelschule Bad Waltersdorf",
                "phone": "+433333 22001",
                "website": "https://ms-badwaltersdorf.at/"
              },
              "geometry": {
                "type": "Point",
                "coordinates": [
                  16.0135372,
                  47.1695245
                ]
              }
            },
            {
              "type": "Feature",
              "properties": {
                "id": "2018656606",
                "osm_type": "node",
                "lat": 47.0532582,
                "lon": 15.8421196,
                "addr:country": "AT",
                "addr:housenumber": "166",
                "addr:postcode": "8311",
                "addr:street": "Feldbacherstraße",
                "amenity": "school",
                "name": "Volksschule Markt Hartmannsdorf",
                "phone": "+433114 2234"
              },
              "geometry": {
                "type": "Point",
                "coordinates": [
                  15.8421196,
                  47.0532582
                ]
              }
            },
            {
              "type": "Feature",
              "properties": {
                "id": "2922043404",
                "osm_type": "node",
                "lat": 47.114943,
                "lon": 15.9441308,
                "amenity": "school",
                "name": "Volksschule Hainersdorf"
              },
              "geometry": {
                "type": "Point",
                "coordinates": [
                  15.9441308,
                  47.114943
                ]
              }
            },
            {
              "type": "Feature",
              "properties": {
                "id": "5315206652",
                "osm_type": "node",
                "lat": 47.1421792,
                "lon": 15.7814661,
                "amenity": "school"
              },
              "geometry": {
                "type": "Point",
                "coordinates": [
                  15.7814661,
                  47.1421792
                ]
              }
            },
            {
              "type": "Feature",
              "properties": {
                "id": "7516921930",
                "osm_type": "node",
                "lat": 47.1754819,
                "lon": 15.8045503,
                "addr:city": "Pischelsdorf am Kulm",
                "addr:country": "AT",
                "addr:housenumber": "95",
                "addr:place": "Pischelsdorf",
                "addr:postcode": "8212",
                "amenity": "school",
                "name": "Polytechnische Schule Pischelsdorf",
                "phone": "+43 3113 5106",
                "website": "https://www.poly-pischelsdorf.at"
              },
              "geometry": {
                "type": "Point",
                "coordinates": [
                  15.8045503,
                  47.1754819
                ]
              }
            },
            {
              "type": "Feature",
              "properties": {
                "id": "5615845850",
                "osm_type": "node",
                "lat": 47.188648,
                "lon": 16.2037061,
                "addr:city": "Olbendorf",
                "addr:country": "AT",
                "addr:housenumber": "4",
                "addr:place": "Dorf",
                "addr:postcode": "7534",
                "amenity": "school",
                "at_bev:addr_date": "2017-10-01",
                "contact:phone": "+43 3326 52 751-20",
                "name": "Volksschule Olbendorf"
              },
              "geometry": {
                "type": "Point",
                "coordinates": [
                  16.2037061,
                  47.188648
                ]
              }
            }
          ],
          "children": []
        },
        {
          "bbox": {
            "south": 47.199035125,
            "west": 15.253173,
            "north": 47.36431175,
            "east": 15.73002475
          },
          "poiCount": 14,
          "leafCount": 14,
          "averagePosition": [
            15.577038478571428,
            47.2675754
          ],
          "data": [
            {
              "type": "Feature",
              "properties": {
                "id": "289168020",
                "osm_type": "node",
                "lat": 47.2686586,
                "lon": 15.3255876,
                "addr:city": "Frohnleiten",
                "addr:country": "AT",
                "addr:housenumber": "5",
                "addr:postcode": "8130",
                "addr:street": "Josef-Ortis-Straße",
                "amenity": "school",
                "contact:email": "sgfl@stmk.gv.at",
                "contact:phone": "+43 3126 50078 11",
                "loc_name": "Schule für allgemeine Gesundheits- und Krankenpflege des Landes Steiermark",
                "name": "Schule für allgemeine Gesundheits- und Krankenpflege",
                "website": "https://www.gesundheitsausbildungen.steiermark.at/cms/ziel/73433376/DE/"
              },
              "geometry": {
                "type": "Point",
                "coordinates": [
                  15.3255876,
                  47.2686586
                ]
              }
            },
            {
              "type": "Feature",
              "properties": {
                "id": "621849901",
                "osm_type": "node",
                "lat": 47.2177536,
                "lon": 15.4011046,
                "addr:housenumber": "5",
                "addr:postcode": "8102",
                "addr:street": "Kirchengasse",
                "amenity": "school",
                "name": "VS Semriach"
              },
              "geometry": {
                "type": "Point",
                "coordinates": [
                  15.4011046,
                  47.2177536
                ]
              }
            },
            {
              "type": "Feature",
              "properties": {
                "id": "886165538",
                "osm_type": "node",
                "lat": 47.24883,
                "lon": 15.5142896,
                "addr:city": "Passail",
                "addr:housenumber": "3",
                "addr:place": "Arzberg",
                "addr:postcode": "8162",
                "amenity": "school",
                "contact:email": "volksschule_arzberg@gmx.at",
                "contact:phone": "+433179 27450-5",
                "contact:phone_1": "0664/4196043",
                "contact:website": "http://vs-arzberg.weebly.com/",
                "name": "Volksschule Arzberg"
              },
              "geometry": {
                "type": "Point",
                "coordinates": [
                  15.5142896,
                  47.24883
                ]
              }
            },
            {
              "type": "Feature",
              "properties": {
                "id": "3059151414",
                "osm_type": "node",
                "lat": 47.2783873,
                "lon": 15.5205665,
                "addr:city": "Passail",
                "addr:country": "AT",
                "addr:housenumber": "46",
                "addr:postcode": "8162",
                "addr:street": "Weizer Straße",
                "amenity": "school",
                "contact:email": "direktion@ms-passail.at",
                "contact:phone": "+43 3179 23550 21",
                "contact:website": "https://nmspassail8162.edupage.org/",
                "isced:level": "2",
                "name": "Mittelschule Passail",
                "old_name": "Hauptschule Passail"
              },
              "geometry": {
                "type": "Point",
                "coordinates": [
                  15.5205665,
                  47.2783873
                ]
              }
            },
            {
              "type": "Feature",
              "properties": {
                "id": "4159425102",
                "osm_type": "node",
                "lat": 47.2786558,
                "lon": 15.5236334,
                "addr:city": "Passail",
                "addr:country": "AT",
                "addr:housenumber": "103",
                "addr:postcode": "8162",
                "addr:street": "Weizer Straße",
                "amenity": "school",
                "contact:email": "vs-passail@aon.at",
                "contact:phone": "+433179 23 331",
                "name": "Volksschule Passail"
              },
              "geometry": {
                "type": "Point",
                "coordinates": [
                  15.5236334,
                  47.2786558
                ]
              }
            },
            {
              "type": "Feature",
              "properties": {
                "id": "1707265636",
                "osm_type": "node",
                "lat": 47.3528417,
                "lon": 15.6901859,
                "addr:housename": "Polytechnische Schule Birkfeld",
                "addr:housenumber": "1",
                "addr:postcode": "8190",
                "addr:street": "Birkengasse",
                "amenity": "school",
                "name": "Polytechnische Schule Birkfeld"
              },
              "geometry": {
                "type": "Point",
                "coordinates": [
                  15.6901859,
                  47.3528417
                ]
              }
            },
            {
              "type": "Feature",
              "properties": {
                "id": "1779133150",
                "osm_type": "node",
                "lat": 47.2715851,
                "lon": 15.6961333,
                "addr:city": "Anger",
                "addr:country": "AT",
                "addr:housenumber": "10",
                "addr:postcode": "8184",
                "addr:street": "Pettauer Straße",
                "amenity": "school",
                "at_bev:addr_date": "2018-10-01",
                "name": "NMS Anger"
              },
              "geometry": {
                "type": "Point",
                "coordinates": [
                  15.6961333,
                  47.2715851
                ]
              }
            },
            {
              "type": "Feature",
              "properties": {
                "id": "1779133227",
                "osm_type": "node",
                "lat": 47.2721165,
                "lon": 15.696305,
                "addr:city": "Anger",
                "addr:country": "AT",
                "addr:housenumber": "3",
                "addr:postcode": "8184",
                "addr:street": "Pettauer Straße",
                "amenity": "school",
                "at_bev:addr_date": "2018-10-01",
                "name": "Volksschule"
              },
              "geometry": {
                "type": "Point",
                "coordinates": [
                  15.696305,
                  47.2721165
                ]
              }
            },
            {
              "type": "Feature",
              "properties": {
                "id": "2832169960",
                "osm_type": "node",
                "lat": 47.3012911,
                "lon": 15.5766597,
                "addr:country": "AT",
                "addr:postcode": "8171",
                "amenity": "school",
                "name": "Volksschule St. Kathrein am Offenegg"
              },
              "geometry": {
                "type": "Point",
                "coordinates": [
                  15.5766597,
                  47.3012911
                ]
              }
            },
            {
              "type": "Feature",
              "properties": {
                "id": "3899694498",
                "osm_type": "node",
                "lat": 47.320187,
                "lon": 15.6892756,
                "amenity": "school",
                "name": "Volksschule Koglhof",
                "operator": "Gemeinde Birkfeld",
                "wheelchair": "yes"
              },
              "geometry": {
                "type": "Point",
                "coordinates": [
                  15.6892756,
                  47.320187
                ]
              }
            },
            {
              "type": "Feature",
              "properties": {
                "id": "6027794376",
                "osm_type": "node",
                "lat": 47.2188374,
                "lon": 15.6268343,
                "addr:city": "Weiz",
                "addr:country": "AT",
                "addr:housenumber": "9a",
                "addr:postcode": "8160",
                "addr:street": "Europa-Allee",
                "amenity": "school",
                "at_bev:addr_date": "2018-10-01",
                "contact:phone": "+43 3172 2955 103",
                "isced:level": "2",
                "name": "Musik Mittelschule Weiz II",
                "website": "https://www.mms-weiz.at/"
              },
              "geometry": {
                "type": "Point",
                "coordinates": [
                  15.6268343,
                  47.2188374
                ]
              }
            },
            {
              "type": "Feature",
              "properties": {
                "id": "6027794377",
                "osm_type": "node",
                "lat": 47.2186417,
                "lon": 15.6263471,
                "addr:city": "Weiz",
                "addr:country": "AT",
                "addr:housenumber": "9",
                "addr:postcode": "8160",
                "addr:street": "Europa-Allee",
                "amenity": "school",
                "at_bev:addr_date": "2018-10-01",
                "name": "Polytechnische Schule"
              },
              "geometry": {
                "type": "Point",
                "coordinates": [
                  15.6263471,
                  47.2186417
                ]
              }
            },
            {
              "type": "Feature",
              "properties": {
                "id": "11152724755",
                "osm_type": "node",
                "lat": 47.2491769,
                "lon": 15.5958876,
                "amenity": "school",
                "level": "1",
                "name": "Volksschule Naas"
              },
              "geometry": {
                "type": "Point",
                "coordinates": [
                  15.5958876,
                  47.2491769
                ]
              }
            },
            {
              "type": "Feature",
              "properties": {
                "id": "11152724756",
                "osm_type": "node",
                "lat": 47.2490929,
                "lon": 15.5957285,
                "amenity": "school",
                "level": "0.5",
                "name": "Fachschule für Land und Ernährungswirtschaft Naas St. Martin"
              },
              "geometry": {
                "type": "Point",
                "coordinates": [
                  15.5957285,
                  47.2490929
                ]
              }
            }
          ],
          "children": []
        },
        {
          "bbox": {
            "south": 47.199035125,
            "west": 15.73002475,
            "north": 47.36431175,
            "east": 16.2068765
          },
          "poiCount": 26,
          "leafCount": 26,
          "averagePosition": [
            15.98221723076923,
            47.29311758846154
          ],
          "data": [
            {
              "type": "Feature",
              "properties": {
                "id": "569352665",
                "osm_type": "node",
                "lat": 47.278853,
                "lon": 15.9676969,
                "amenity": "school",
                "name": "Mittelschule und Musikmittelschule Gerlitz",
                "website": "https://www.diegerlitz.at"
              },
              "geometry": {
                "type": "Point",
                "coordinates": [
                  15.9676969,
                  47.278853
                ]
              }
            },
            {
              "type": "Feature",
              "properties": {
                "id": "629528616",
                "osm_type": "node",
                "lat": 47.2795102,
                "lon": 15.9781441,
                "amenity": "school",
                "description": "Höhere Bundeslehranstalt für wirtschaftliche Berufe",
                "name": "HLW",
                "website": "http://portal.hlw-hartberg.at/joomla/index.php/hlw"
              },
              "geometry": {
                "type": "Point",
                "coordinates": [
                  15.9781441,
                  47.2795102
                ]
              }
            },
            {
              "type": "Feature",
              "properties": {
                "id": "1534161881",
                "osm_type": "node",
                "lat": 47.2793133,
                "lon": 15.9782403,
                "amenity": "school",
                "description": "Bundesbildungsanstalt für Elementarpädagogik",
                "name": "BAfEP",
                "website": "https://www.bafep-hartberg.at/"
              },
              "geometry": {
                "type": "Point",
                "coordinates": [
                  15.9782403,
                  47.2793133
                ]
              }
            },
            {
              "type": "Feature",
              "properties": {
                "id": "1534161884",
                "osm_type": "node",
                "lat": 47.2796859,
                "lon": 15.978078,
                "amenity": "school",
                "description": "Gymnasium",
                "name": "BG, BRG, BORG",
                "website": "https://www.gym-hartberg.ac.at/",
                "wheelchair": "yes",
                "wikidata": "Q1277460",
                "wikipedia": "de:Gymnasium Hartberg"
              },
              "geometry": {
                "type": "Point",
                "coordinates": [
                  15.978078,
                  47.2796859
                ]
              }
            },
            {
              "type": "Feature",
              "properties": {
                "id": "1534161887",
                "osm_type": "node",
                "lat": 47.2790838,
                "lon": 15.9783611,
                "amenity": "school",
                "description": "Bundeshandelsakademie und Bundeshandelsschule",
                "name": "HAK, HAS",
                "website": "http://www.bhak-hartberg.asn-graz.ac.at"
              },
              "geometry": {
                "type": "Point",
                "coordinates": [
                  15.9783611,
                  47.2790838
                ]
              }
            },
            {
              "type": "Feature",
              "properties": {
                "id": "1555869784",
                "osm_type": "node",
                "lat": 47.283718,
                "lon": 15.9857319,
                "amenity": "school",
                "check_date": "2025-08-06",
                "name": "Berufsförderungsinstitut",
                "opening_hours": "Mo-Th 07:30-16:00; Fr 07:30-12:00"
              },
              "geometry": {
                "type": "Point",
                "coordinates": [
                  15.9857319,
                  47.283718
                ]
              }
            },
            {
              "type": "Feature",
              "properties": {
                "id": "1598988895",
                "osm_type": "node",
                "lat": 47.2598523,
                "lon": 15.9719005,
                "amenity": "school",
                "name": "DAVINCI Privatschule",
                "website": "http://www.davincischule.at"
              },
              "geometry": {
                "type": "Point",
                "coordinates": [
                  15.9719005,
                  47.2598523
                ]
              }
            },
            {
              "type": "Feature",
              "properties": {
                "id": "1687405334",
                "osm_type": "node",
                "lat": 47.2795565,
                "lon": 15.9700005,
                "amenity": "school",
                "name": "Volkshochschule"
              },
              "geometry": {
                "type": "Point",
                "coordinates": [
                  15.9700005,
                  47.2795565
                ]
              }
            },
            {
              "type": "Feature",
              "properties": {
                "id": "1739837675",
                "osm_type": "node",
                "lat": 47.2440486,
                "lon": 15.8035195,
                "addr:housenumber": "149",
                "addr:postcode": "8223",
                "addr:street": "Stubenberg",
                "amenity": "school",
                "name": "Mittelschule Stubenberg am See",
                "short_name": "MS Stubenberg",
                "website": "https://bildung-stubenberg.at/neue-mittelschule"
              },
              "geometry": {
                "type": "Point",
                "coordinates": [
                  15.8035195,
                  47.2440486
                ]
              }
            },
            {
              "type": "Feature",
              "properties": {
                "id": "1739837772",
                "osm_type": "node",
                "lat": 47.2438813,
                "lon": 15.8035804,
                "amenity": "school",
                "name": "Volkssschule Stubenberg"
              },
              "geometry": {
                "type": "Point",
                "coordinates": [
                  15.8035804,
                  47.2438813
                ]
              }
            },
            {
              "type": "Feature",
              "properties": {
                "id": "3465063851",
                "osm_type": "node",
                "lat": 47.3026835,
                "lon": 15.8331968,
                "amenity": "school",
                "name": "Musikschule",
                "phone": "+433335 2439"
              },
              "geometry": {
                "type": "Point",
                "coordinates": [
                  15.8331968,
                  47.3026835
                ]
              }
            },
            {
              "type": "Feature",
              "properties": {
                "id": "8262263851",
                "osm_type": "node",
                "lat": 47.316432,
                "lon": 15.8586922,
                "amenity": "school",
                "contact:phone": "+43 3335 2418",
                "isced:level": "1",
                "name": "Volksschule Pöllauberg",
                "website": "https://www.vs-poellauberg.at/index.html"
              },
              "geometry": {
                "type": "Point",
                "coordinates": [
                  15.8586922,
                  47.316432
                ]
              }
            },
            {
              "type": "Feature",
              "properties": {
                "id": "8300576761",
                "osm_type": "node",
                "lat": 47.324212,
                "lon": 15.7975797,
                "amenity": "school",
                "check_date": "2025-07-22",
                "name": "Volksschule Saifen-Boden (Naturparkschule)"
              },
              "geometry": {
                "type": "Point",
                "coordinates": [
                  15.7975797,
                  47.324212
                ]
              }
            },
            {
              "type": "Feature",
              "properties": {
                "id": "8307128566",
                "osm_type": "node",
                "lat": 47.2688376,
                "lon": 15.8530864,
                "amenity": "school",
                "name": "Volksschule Schönegg (Naturparkschule)"
              },
              "geometry": {
                "type": "Point",
                "coordinates": [
                  15.8530864,
                  47.2688376
                ]
              }
            },
            {
              "type": "Feature",
              "properties": {
                "id": "9034934583",
                "osm_type": "node",
                "lat": 47.2793515,
                "lon": 15.9720928,
                "amenity": "school",
                "name": "Volksschule Hartberg - Standort Gartengasse",
                "note": "1. und 2. Klassen der Volksschule Hartberg",
                "website": "http://www.volksschule-hartberg.at"
              },
              "geometry": {
                "type": "Point",
                "coordinates": [
                  15.9720928,
                  47.2793515
                ]
              }
            },
            {
              "type": "Feature",
              "properties": {
                "id": "9034934584",
                "osm_type": "node",
                "lat": 47.278699,
                "lon": 15.9678149,
                "amenity": "school",
                "name": "Volksschule Hartberg - Standort Europaplatz",
                "note": "3. und 4. Klassen und Verwaltung der Volksschule Hartberg",
                "website": "http://www.volksschule-hartberg.at"
              },
              "geometry": {
                "type": "Point",
                "coordinates": [
                  15.9678149,
                  47.278699
                ]
              }
            },
            {
              "type": "Feature",
              "properties": {
                "id": "9034934585",
                "osm_type": "node",
                "lat": 47.2792208,
                "lon": 15.9713926,
                "amenity": "school",
                "name": "FS für Land- u. Ernährungswirtschaft Hartberg - St. Martin",
                "website": "https://www.fachschulen.steiermark.at/cms/ziel/103611552/DE"
              },
              "geometry": {
                "type": "Point",
                "coordinates": [
                  15.9713926,
                  47.2792208
                ]
              }
            },
            {
              "type": "Feature",
              "properties": {
                "id": "9034934586",
                "osm_type": "node",
                "lat": 47.2799137,
                "lon": 15.97699,
                "amenity": "school",
                "name": "Mittelschule und Sportmittelschule Rieger",
                "source": "plan.at 2009",
                "website": "https://www.nms-rieger.at"
              },
              "geometry": {
                "type": "Point",
                "coordinates": [
                  15.97699,
                  47.2799137
                ]
              }
            },
            {
              "type": "Feature",
              "properties": {
                "id": "9034934587",
                "osm_type": "node",
                "lat": 47.2802303,
                "lon": 15.9767031,
                "amenity": "school",
                "name": "Polytechnische Schule Hartberg",
                "source": "plan.at 2009",
                "website": "https://www.psh.at/"
              },
              "geometry": {
                "type": "Point",
                "coordinates": [
                  15.9767031,
                  47.2802303
                ]
              }
            },
            {
              "type": "Feature",
              "properties": {
                "id": "9116220166",
                "osm_type": "node",
                "lat": 47.3509951,
                "lon": 15.978553,
                "amenity": "school",
                "name": "Fachschule für Land- und Forstwirtschaft Kirchberg am Walde"
              },
              "geometry": {
                "type": "Point",
                "coordinates": [
                  15.978553,
                  47.3509951
                ]
              }
            },
            {
              "type": "Feature",
              "properties": {
                "id": "963502292",
                "osm_type": "node",
                "lat": 47.3173431,
                "lon": 16.2049558,
                "amenity": "school",
                "name": "Volksschule"
              },
              "geometry": {
                "type": "Point",
                "coordinates": [
                  16.2049558,
                  47.3173431
                ]
              }
            },
            {
              "type": "Feature",
              "properties": {
                "id": "1050214194",
                "osm_type": "node",
                "lat": 47.2508528,
                "lon": 16.1482322,
                "amenity": "school",
                "name": "Volksschule Kemeten"
              },
              "geometry": {
                "type": "Point",
                "coordinates": [
                  16.1482322,
                  47.2508528
                ]
              }
            },
            {
              "type": "Feature",
              "properties": {
                "id": "4476602460",
                "osm_type": "node",
                "lat": 47.3174286,
                "lon": 16.104769,
                "amenity": "school",
                "name": "Volksschule Buchschachen"
              },
              "geometry": {
                "type": "Point",
                "coordinates": [
                  16.104769,
                  47.3174286
                ]
              }
            },
            {
              "type": "Feature",
              "properties": {
                "id": "4527789597",
                "osm_type": "node",
                "lat": 47.3526887,
                "lon": 16.2060315,
                "amenity": "school"
              },
              "geometry": {
                "type": "Point",
                "coordinates": [
                  16.2060315,
                  47.3526887
                ]
              }
            },
            {
              "type": "Feature",
              "properties": {
                "id": "4527789598",
                "osm_type": "node",
                "lat": 47.3522741,
                "lon": 16.2065322,
                "amenity": "school",
                "heritage": "2",
                "heritage:operator": "bda",
                "name": "Bundesrealgymnasium",
                "name:etymology": "Oberschützen",
                "name:etymology:wikidata": "Q765086",
                "ref:at:bda": "8301",
                "start_date": "1846",
                "wikidata": "Q15793050"
              },
              "geometry": {
                "type": "Point",
                "coordinates": [
                  16.2065322,
                  47.3522741
                ]
              }
            },
            {
              "type": "Feature",
              "properties": {
                "id": "7644102199",
                "osm_type": "node",
                "lat": 47.3623916,
                "lon": 16.0657726,
                "amenity": "school",
                "name": "Volksschule Grafenschachen"
              },
              "geometry": {
                "type": "Point",
                "coordinates": [
                  16.0657726,
                  47.3623916
                ]
              }
            }
          ],
          "children": []
        }
      ]
    },
    {
      "bbox": {
        "south": 47.033758500000005,
        "west": 16.2068765,
        "north": 47.36431175,
        "east": 17.16058
      },
      "poiCount": 26,
      "leafCount": 26,
      "averagePosition": [
        16.53583691153846,
        47.190803492307694
      ],
      "data": [
        {
          "type": "Feature",
          "properties": {
            "id": "952276377",
            "osm_type": "node",
            "lat": 47.3500249,
            "lon": 16.2071822,
            "addr:city": "Oberschützen",
            "addr:housenumber": "7",
            "addr:postcode": "7432",
            "addr:street": "Gottlieb August Wimmer Platz",
            "amenity": "school",
            "name": "Schülerheim"
          },
          "geometry": {
            "type": "Point",
            "coordinates": [
              16.2071822,
              47.3500249
            ]
          }
        },
        {
          "type": "Feature",
          "properties": {
            "id": "1628447480",
            "osm_type": "node",
            "lat": 47.1585697,
            "lon": 16.2885104,
            "addr:city": "Güttenbach",
            "addr:country": "AT",
            "addr:housenumber": "1",
            "addr:postcode": "7536",
            "addr:street": "Schulweg",
            "amenity": "school",
            "at_bev:addr_date": "2018-10-01",
            "name": "Volksschule",
            "name:de": "Volksschule",
            "name:hr": "Osnovna Škola"
          },
          "geometry": {
            "type": "Point",
            "coordinates": [
              16.2885104,
              47.1585697
            ]
          }
        },
        {
          "type": "Feature",
          "properties": {
            "id": "1704446974",
            "osm_type": "node",
            "lat": 47.1737651,
            "lon": 16.3556093,
            "addr:city": "Kohfidisch",
            "addr:country": "AT",
            "addr:housename": "Hauptschule",
            "addr:housenumber": "1",
            "addr:postcode": "7512",
            "addr:street": "Schulgasse",
            "amenity": "school",
            "contact:email": "nms.kohfidisch@bildungsserver.com",
            "contact:phone": "+43 3366 76594",
            "isced:level": "2",
            "name": "Mittelschule Kohfidisch",
            "old_name": "Hauptschule",
            "website": "https://www.ms-kohfidisch.at/"
          },
          "geometry": {
            "type": "Point",
            "coordinates": [
              16.3556093,
              47.1737651
            ]
          }
        },
        {
          "type": "Feature",
          "properties": {
            "id": "1708261226",
            "osm_type": "node",
            "lat": 47.1739615,
            "lon": 16.3558787,
            "addr:city": "Kohfidisch",
            "addr:country": "AT",
            "addr:housename": "Volksschule",
            "addr:housenumber": "1",
            "addr:postcode": "7512",
            "addr:street": "Schulgasse",
            "amenity": "school",
            "contact:email": "vs.kohfidisch@bildungsserver.com",
            "contact:phone": "+43 3366 765 93",
            "isced:level": "1",
            "name": "Volksschule Kohfidisch",
            "website": "https://kohfidisch.at/gemeindeleben/bildung/volksschule"
          },
          "geometry": {
            "type": "Point",
            "coordinates": [
              16.3558787,
              47.1739615
            ]
          }
        },
        {
          "type": "Feature",
          "properties": {
            "id": "4486649473",
            "osm_type": "node",
            "lat": 47.3022468,
            "lon": 16.4391023,
            "amenity": "school"
          },
          "geometry": {
            "type": "Point",
            "coordinates": [
              16.4391023,
              47.3022468
            ]
          }
        },
        {
          "type": "Feature",
          "properties": {
            "id": "4486649616",
            "osm_type": "node",
            "lat": 47.3030032,
            "lon": 16.4391818,
            "amenity": "school"
          },
          "geometry": {
            "type": "Point",
            "coordinates": [
              16.4391818,
              47.3030032
            ]
          }
        },
        {
          "type": "Feature",
          "properties": {
            "id": "5122123460",
            "osm_type": "node",
            "lat": 47.2498203,
            "lon": 16.2471838,
            "amenity": "school",
            "name": "Volksschule"
          },
          "geometry": {
            "type": "Point",
            "coordinates": [
              16.2471838,
              47.2498203
            ]
          }
        },
        {
          "type": "Feature",
          "properties": {
            "id": "5370106960",
            "osm_type": "node",
            "lat": 47.1267335,
            "lon": 16.2735629,
            "addr:city": "Sankt Michael im Burgenland",
            "addr:country": "AT",
            "addr:housenumber": "250",
            "addr:postcode": "7535",
            "addr:street": "Schulstraße",
            "amenity": "school",
            "contact:email": "ms.stmichael@bildungsserver.com",
            "contact:phone": "+43 3327 2302",
            "isced:level": "2",
            "name": "Mittelschule St. Michael",
            "old_name": "Hauptschule St. Michael im Burgenland",
            "website": "http://www.ms-stmichael.at/kontakt/"
          },
          "geometry": {
            "type": "Point",
            "coordinates": [
              16.2735629,
              47.1267335
            ]
          }
        },
        {
          "type": "Feature",
          "properties": {
            "id": "5370106961",
            "osm_type": "node",
            "lat": 47.126562,
            "lon": 16.2731096,
            "addr:city": "Sankt Michael im Burgenland",
            "addr:country": "AT",
            "addr:housenumber": "250",
            "addr:postcode": "7535",
            "addr:street": "Schulstraße",
            "amenity": "school",
            "contact:email": "vs.stmichael@bildungsserver.com",
            "contact:phone": "+43 3327 2302",
            "isced:level": "1",
            "name": "Volksschule St. Michael",
            "website": "http://www.ms-stmichael.at/kontakt/"
          },
          "geometry": {
            "type": "Point",
            "coordinates": [
              16.2731096,
              47.126562
            ]
          }
        },
        {
          "type": "Feature",
          "properties": {
            "id": "5685171189",
            "osm_type": "node",
            "lat": 47.1083032,
            "lon": 16.4627619,
            "addr:city": "Eberau",
            "addr:country": "AT",
            "addr:housenumber": "29",
            "addr:postcode": "7521",
            "addr:street": "Marktstraße",
            "amenity": "school",
            "at_bev:addr_date": "2017-10-01",
            "contact:phone": "+43 3323 2228",
            "name": "Volksschule Eberau",
            "website": "https://www.bildungsserver.com/schulfuehrer/schule/63/action/info/controller/School/"
          },
          "geometry": {
            "type": "Point",
            "coordinates": [
              16.4627619,
              47.1083032
            ]
          }
        },
        {
          "type": "Feature",
          "properties": {
            "id": "5685171190",
            "osm_type": "node",
            "lat": 47.1085853,
            "lon": 16.4626345,
            "addr:city": "Eberau",
            "addr:country": "AT",
            "addr:housenumber": "29",
            "addr:postcode": "7521",
            "addr:street": "Marktstraße",
            "amenity": "school",
            "at_bev:addr_date": "2017-10-01",
            "contact:phone": "+43 676 704 81 12",
            "name": "Neue Mittelschule - NMS Josefinum Eberau",
            "website": "http://www.josefinum-eberau.at/kontakt/"
          },
          "geometry": {
            "type": "Point",
            "coordinates": [
              16.4626345,
              47.1085853
            ]
          }
        },
        {
          "type": "Feature",
          "properties": {
            "id": "12732625465",
            "osm_type": "node",
            "lat": 47.0636098,
            "lon": 16.3232457,
            "addr:city": "Güssing",
            "addr:housenumber": "11",
            "addr:postcode": "7540",
            "addr:street": "Schulstraße",
            "amenity": "school",
            "email": "vs.guessing@bildungsserver.com",
            "name": "Volksschule Güssing",
            "phone": "+43 (0) 3322 42394",
            "website": "http://www.vs-guessing.at/"
          },
          "geometry": {
            "type": "Point",
            "coordinates": [
              16.3232457,
              47.0636098
            ]
          }
        },
        {
          "type": "Feature",
          "properties": {
            "id": "12732625466",
            "osm_type": "node",
            "lat": 47.063525,
            "lon": 16.3232398,
            "addr:city": "Güssing",
            "addr:housenumber": "11",
            "addr:postcode": "7540",
            "addr:street": "Schulstraße",
            "amenity": "school",
            "email": "aso.guessing@bildungsserver.com",
            "name": "ASO - Allgemeine Sonderschule Güssing",
            "phone": "03322 43595",
            "website": "https://asoguessing7540.jimdofree.com/"
          },
          "geometry": {
            "type": "Point",
            "coordinates": [
              16.3232398,
              47.063525
            ]
          }
        },
        {
          "type": "Feature",
          "properties": {
            "id": "12732625469",
            "osm_type": "node",
            "lat": 47.063858,
            "lon": 16.3235717,
            "addr:city": "Güssing",
            "addr:housenumber": "17",
            "addr:postcode": "7540",
            "addr:street": "Schulstraße",
            "amenity": "school",
            "email": "office@ecole.at",
            "name": "Ecole Güssing (HLW)",
            "phone": "+43 3322/42753-10",
            "website": "https://www.ecole.at/"
          },
          "geometry": {
            "type": "Point",
            "coordinates": [
              16.3235717,
              47.063858
            ]
          }
        },
        {
          "type": "Feature",
          "properties": {
            "id": "3055702432",
            "osm_type": "node",
            "lat": 47.2831726,
            "lon": 16.6549953,
            "addr:city": "Söpte",
            "addr:postcode": "9743",
            "amenity": "school",
            "name": "Általános Iskola"
          },
          "geometry": {
            "type": "Point",
            "coordinates": [
              16.6549953,
              47.2831726
            ]
          }
        },
        {
          "type": "Feature",
          "properties": {
            "id": "3432013642",
            "osm_type": "node",
            "lat": 47.241046,
            "lon": 16.580746,
            "addr:city": "Szombathely",
            "addr:housenumber": "1",
            "addr:postcode": "9700",
            "addr:street": "Ernuszt Kelemen utca",
            "amenity": "school",
            "name": "Herman Ottó Környezetvédelmi és Mezőgazdasági Szakgimnázium, Szakközépiskola és Kollégium",
            "source": "turistautak.hu",
            "url": "http://turistautak.hu/poi.php?id=59741"
          },
          "geometry": {
            "type": "Point",
            "coordinates": [
              16.580746,
              47.241046
            ]
          }
        },
        {
          "type": "Feature",
          "properties": {
            "id": "3469860547",
            "osm_type": "node",
            "lat": 47.095963,
            "lon": 17.021056,
            "addr:city": "Hosszúpereszteg",
            "addr:postcode": "9676",
            "amenity": "school",
            "source": "turistautak.hu",
            "source:date": "2014-01-04",
            "url": "http://turistautak.hu/poi.php?id=164575"
          },
          "geometry": {
            "type": "Point",
            "coordinates": [
              17.021056,
              47.095963
            ]
          }
        },
        {
          "type": "Feature",
          "properties": {
            "id": "3469860589",
            "osm_type": "node",
            "lat": 47.235047,
            "lon": 16.867868,
            "addr:city": "Csénye",
            "addr:postcode": "9611",
            "amenity": "school",
            "source": "turistautak.hu",
            "source:date": "2011-09-06",
            "url": "http://turistautak.hu/poi.php?id=94696"
          },
          "geometry": {
            "type": "Point",
            "coordinates": [
              16.867868,
              47.235047
            ]
          }
        },
        {
          "type": "Feature",
          "properties": {
            "id": "3474961431",
            "osm_type": "node",
            "lat": 47.197183,
            "lon": 16.701067,
            "addr:city": "Táplánszentkereszt",
            "addr:postcode": "9761",
            "amenity": "school",
            "source": "turistautak.hu",
            "source:date": "2011-09-06",
            "url": "http://turistautak.hu/poi.php?id=31920"
          },
          "geometry": {
            "type": "Point",
            "coordinates": [
              16.701067,
              47.197183
            ]
          }
        },
        {
          "type": "Feature",
          "properties": {
            "id": "4228879323",
            "osm_type": "node",
            "lat": 47.2423104,
            "lon": 16.6485904,
            "addr:city": "Szombathely",
            "addr:housenumber": "37",
            "addr:postcode": "9700",
            "addr:street": "Kötő utca",
            "amenity": "school",
            "isced:level": "2",
            "min_age": "18",
            "name": "Emberképzés",
            "opening_hours": "Mo-Fr 08:00-16:00",
            "operator": "Emberképzés Kft.",
            "operator:type": "private",
            "phone": "+36 20 292 8494",
            "start_date": "2013-04-24",
            "website": "https://www.emberkepzes.hu/"
          },
          "geometry": {
            "type": "Point",
            "coordinates": [
              16.6485904,
              47.2423104
            ]
          }
        },
        {
          "type": "Feature",
          "properties": {
            "id": "4263055058",
            "osm_type": "node",
            "lat": 47.1313326,
            "lon": 16.7461932,
            "addr:city": "Sorkifalud",
            "addr:housenumber": "75",
            "addr:postcode": "9774",
            "addr:street": "Kossuth Lajos utca",
            "amenity": "school",
            "name": "Gárdonyi Géza Általános Iskola"
          },
          "geometry": {
            "type": "Point",
            "coordinates": [
              16.7461932,
              47.1313326
            ]
          }
        },
        {
          "type": "Feature",
          "properties": {
            "id": "4942736127",
            "osm_type": "node",
            "lat": 47.2423491,
            "lon": 16.6227709,
            "addr:city": "Szombathely",
            "addr:housenumber": "40",
            "addr:postcode": "9700",
            "addr:street": "11-es huszár út",
            "amenity": "school",
            "contact:email": "iskola@apaczaiwaldorf.hu",
            "contact:phone": "+36 30 526 9260",
            "contact:website": "https://apaczaiwaldorf.hu/",
            "name": "Apáczai Waldorf Általános Iskola Szombathely és AMI",
            "pedagogy": "waldorf"
          },
          "geometry": {
            "type": "Point",
            "coordinates": [
              16.6227709,
              47.2423491
            ]
          }
        },
        {
          "type": "Feature",
          "properties": {
            "id": "5747788680",
            "osm_type": "node",
            "lat": 47.2484571,
            "lon": 16.9374125,
            "addr:city": "Sárvár",
            "addr:housenumber": "24",
            "addr:postcode": "9600",
            "addr:street": "Alkotmány körút",
            "amenity": "school",
            "check_date": "2024-08-18",
            "name": "Nádasdy Tamás-Általános iskola",
            "phone": "+36 95 520 313"
          },
          "geometry": {
            "type": "Point",
            "coordinates": [
              16.9374125,
              47.2484571
            ]
          }
        },
        {
          "type": "Feature",
          "properties": {
            "id": "11101722112",
            "osm_type": "node",
            "lat": 47.1385099,
            "lon": 16.8236553,
            "addr:city": "Rum",
            "addr:housenumber": "1",
            "addr:postcode": "9766",
            "addr:street": "Kastély park",
            "amenity": "school",
            "contact:email": "rumkastely@rumkastely.hu",
            "contact:phone": "+36 20 282 4393",
            "contact:website": "https://www.rumkastely.hu/",
            "name": "Rum-Kastély EGYMI, Óvoda, Kollégium",
            "official_name": "Rum-Kastély Egységes Gyógypedagógiai Módszertani Intézmény, Óvoda, Általános Iskola, Fejlesztő Nevelés-Oktatást Végző Iskola, Készségfejlesztő Iskola és Kollégium"
          },
          "geometry": {
            "type": "Point",
            "coordinates": [
              16.8236553,
              47.1385099
            ]
          }
        },
        {
          "type": "Feature",
          "properties": {
            "id": "11101746893",
            "osm_type": "node",
            "lat": 47.2050845,
            "lon": 16.8210516,
            "addr:city": "Pecöl",
            "addr:postcode": "9754",
            "addr:street": "Széchenyi István utca",
            "amenity": "school",
            "name": "Gróf Erdődy Ferenc Tagiskola"
          },
          "geometry": {
            "type": "Point",
            "coordinates": [
              16.8210516,
              47.2050845
            ]
          }
        },
        {
          "type": "Feature",
          "properties": {
            "id": "11102441011",
            "osm_type": "node",
            "lat": 47.3278673,
            "lon": 16.7315789,
            "addr:city": "Acsád",
            "addr:housenumber": "1",
            "addr:postcode": "9746",
            "addr:street": "Kossuth Lajos utca",
            "amenity": "school",
            "name": "Ács Mihály AMI"
          },
          "geometry": {
            "type": "Point",
            "coordinates": [
              16.7315789,
              47.3278673
            ]
          }
        }
      ],
      "children": []
    },
    {
      "bbox": {
        "south": 47.36431175,
        "west": 15.253173,
        "north": 47.694865,
        "east": 16.2068765
      },
      "poiCount": 43,
      "leafCount": 43,
      "averagePosition": [
        15.797145455813954,
        47.52861092325581
      ],
      "data": [
        {
          "type": "Feature",
          "properties": {
            "id": "7514738010",
            "osm_type": "node",
            "lat": 47.3666299,
            "lon": 16.1231736,
            "addr:city": "Pinkafeld",
            "addr:housenumber": "1",
            "addr:postcode": "7423",
            "addr:street": "Schlossgasse",
            "amenity": "school",
            "name": "Landesberufsschule Pinkafeld",
            "phone": "+43 3357 422 71",
            "website": "https://www.bs-pinkafeld.at/"
          },
          "geometry": {
            "type": "Point",
            "coordinates": [
              16.1231736,
              47.3666299
            ]
          }
        },
        {
          "type": "Feature",
          "properties": {
            "id": "626870659",
            "osm_type": "node",
            "lat": 47.5406301,
            "lon": 15.5117381,
            "amenity": "school",
            "name": "Forstschule Pichl"
          },
          "geometry": {
            "type": "Point",
            "coordinates": [
              15.5117381,
              47.5406301
            ]
          }
        },
        {
          "type": "Feature",
          "properties": {
            "id": "915563982",
            "osm_type": "node",
            "lat": 47.4376721,
            "lon": 15.2909884,
            "amenity": "school",
            "name": "Mittelschule Kapfenberg Stadt"
          },
          "geometry": {
            "type": "Point",
            "coordinates": [
              15.2909884,
              47.4376721
            ]
          }
        },
        {
          "type": "Feature",
          "properties": {
            "id": "1020067361",
            "osm_type": "node",
            "lat": 47.4254537,
            "lon": 15.2704816,
            "alt_name": "Volksschule Wienerstraße",
            "amenity": "school",
            "contact:phone": "+43 3862 51803",
            "isced:level": "1",
            "name": "Volksschule Berndorf Bruck/ Mur",
            "website": "https://www.volksschule.at/berndorf-bruck/startseite",
            "wheelchair": "no"
          },
          "geometry": {
            "type": "Point",
            "coordinates": [
              15.2704816,
              47.4254537
            ]
          }
        },
        {
          "type": "Feature",
          "properties": {
            "id": "1374479712",
            "osm_type": "node",
            "lat": 47.4869552,
            "lon": 15.3201934,
            "amenity": "school",
            "name": "Volksschule Pogier"
          },
          "geometry": {
            "type": "Point",
            "coordinates": [
              15.3201934,
              47.4869552
            ]
          }
        },
        {
          "type": "Feature",
          "properties": {
            "id": "5271565785",
            "osm_type": "node",
            "lat": 47.4418167,
            "lon": 15.2868839,
            "amenity": "school",
            "name": "Musikschule"
          },
          "geometry": {
            "type": "Point",
            "coordinates": [
              15.2868839,
              47.4418167
            ]
          }
        },
        {
          "type": "Feature",
          "properties": {
            "id": "12181437436",
            "osm_type": "node",
            "lat": 47.4611834,
            "lon": 15.3297204,
            "addr:city": "Kapfenberg",
            "addr:housenumber": "1",
            "addr:postcode": "8605",
            "addr:street": "Lannergasse",
            "amenity": "school",
            "name": "Mittelschule Körner Kapfenberg",
            "short_name": "MS Körner Kapfenberg",
            "website": "https://www.koerner-kpfg.at"
          },
          "geometry": {
            "type": "Point",
            "coordinates": [
              15.3297204,
              47.4611834
            ]
          }
        },
        {
          "type": "Feature",
          "properties": {
            "id": "12181437437",
            "osm_type": "node",
            "lat": 47.4612251,
            "lon": 15.3302112,
            "addr:city": "Kapfenberg",
            "addr:housenumber": "1",
            "addr:postcode": "8605",
            "addr:street": "Lannergasse",
            "amenity": "school",
            "name": "Volksschule Dr. Theodor Körner Kapfenberg Schirmitzbühel",
            "short_name": "VKS",
            "website": "http://www.vs-koerner.at"
          },
          "geometry": {
            "type": "Point",
            "coordinates": [
              15.3302112,
              47.4612251
            ]
          }
        },
        {
          "type": "Feature",
          "properties": {
            "id": "12612251658",
            "osm_type": "node",
            "lat": 47.4433202,
            "lon": 15.2893736,
            "addr:city": "Kapfenberg",
            "addr:housenumber": "1a",
            "addr:postcode": "8605",
            "addr:street": "Mariazeller Straße",
            "amenity": "school",
            "name": "Polytechnische Schule Kapfenberg",
            "operator": "Stadtgemeinde Kapfenberg",
            "operator:type": "public",
            "website": "https://www.pts-kapfenberg.at/"
          },
          "geometry": {
            "type": "Point",
            "coordinates": [
              15.2893736,
              47.4433202
            ]
          }
        },
        {
          "type": "Feature",
          "properties": {
            "id": "310064562",
            "osm_type": "node",
            "lat": 47.623447,
            "lon": 15.9485552,
            "amenity": "school",
            "name": "Volksschule"
          },
          "geometry": {
            "type": "Point",
            "coordinates": [
              15.9485552,
              47.623447
            ]
          }
        },
        {
          "type": "Feature",
          "properties": {
            "id": "310132405",
            "osm_type": "node",
            "lat": 47.6745922,
            "lon": 15.9341223,
            "amenity": "school",
            "name": "Volksschule",
            "website": "https://www.vs-gloggnitz.at/"
          },
          "geometry": {
            "type": "Point",
            "coordinates": [
              15.9341223,
              47.6745922
            ]
          }
        },
        {
          "type": "Feature",
          "properties": {
            "id": "310132416",
            "osm_type": "node",
            "lat": 47.6744847,
            "lon": 15.9343059,
            "amenity": "school",
            "name": "Neue Niederösterreichische Mittelschule Gloggnitz",
            "website": "https://www.nms-gloggnitz.at/"
          },
          "geometry": {
            "type": "Point",
            "coordinates": [
              15.9343059,
              47.6744847
            ]
          }
        },
        {
          "type": "Feature",
          "properties": {
            "id": "874490042",
            "osm_type": "node",
            "lat": 47.6070376,
            "lon": 15.6710546,
            "addr:city": "Mürzzuschlag",
            "addr:country": "AT",
            "addr:housenumber": "9",
            "addr:postcode": "8680",
            "addr:street": "Mariazeller Straße",
            "amenity": "school",
            "check_date": "2025-09-11",
            "name": "Toni-Schruf-Volksschule",
            "wheelchair": "no"
          },
          "geometry": {
            "type": "Point",
            "coordinates": [
              15.6710546,
              47.6070376
            ]
          }
        },
        {
          "type": "Feature",
          "properties": {
            "id": "874532128",
            "osm_type": "node",
            "lat": 47.6047916,
            "lon": 15.6718576,
            "addr:city": "Mürzzuschlag",
            "addr:country": "AT",
            "addr:housenumber": "2",
            "addr:postcode": "8680",
            "addr:street": "Roseggergasse",
            "amenity": "school",
            "contact:phone": "+43 3852 2690",
            "contact:website": "http://www.rosegger-nms.at",
            "name": "Mittelschule Peter Rosegger"
          },
          "geometry": {
            "type": "Point",
            "coordinates": [
              15.6718576,
              47.6047916
            ]
          }
        },
        {
          "type": "Feature",
          "properties": {
            "id": "952644954",
            "osm_type": "node",
            "lat": 47.546041,
            "lon": 15.559717,
            "addr:country": "AT",
            "addr:housenumber": "5",
            "addr:postcode": "8670",
            "addr:street": "Bürstadtstraße",
            "amenity": "school",
            "name": "Volksschule",
            "phone": "+433855 2368",
            "website": "https://vs-krieglach.at/",
            "wheelchair": "limited"
          },
          "geometry": {
            "type": "Point",
            "coordinates": [
              15.559717,
              47.546041
            ]
          }
        },
        {
          "type": "Feature",
          "properties": {
            "id": "954887086",
            "osm_type": "node",
            "lat": 47.5474156,
            "lon": 15.5556466,
            "addr:country": "AT",
            "addr:housenumber": "4",
            "addr:postcode": "8670",
            "addr:street": "Alter Sommer",
            "alt_name": "Höhere Bundeslehranstalt für wirtschaftliche Berufe",
            "amenity": "school",
            "email": "schule@hlwkrieglach.at",
            "name": "HLW Krieglach",
            "phone": "+433855 2225",
            "website": "http://www.hlwkrieglach.at",
            "wheelchair": "limited"
          },
          "geometry": {
            "type": "Point",
            "coordinates": [
              15.5556466,
              47.5474156
            ]
          }
        },
        {
          "type": "Feature",
          "properties": {
            "id": "1234615222",
            "osm_type": "node",
            "lat": 47.6941149,
            "lon": 15.8682274,
            "amenity": "school",
            "email": "office@nms-payerbach.at",
            "fax": "+43 2666 52476-11",
            "name": "NMS Payerbach",
            "old_name": "Hauptschule Payerbach",
            "phone": "+43 2666 52476-0",
            "website": "https://nms-payerbach.at/"
          },
          "geometry": {
            "type": "Point",
            "coordinates": [
              15.8682274,
              47.6941149
            ]
          }
        },
        {
          "type": "Feature",
          "properties": {
            "id": "1234615242",
            "osm_type": "node",
            "lat": 47.6941187,
            "lon": 15.8686404,
            "amenity": "school",
            "email": "volksschule@payerbach.at",
            "name": "Volksschule Payerbach",
            "phone": "+43 2666 52315"
          },
          "geometry": {
            "type": "Point",
            "coordinates": [
              15.8686404,
              47.6941187
            ]
          }
        },
        {
          "type": "Feature",
          "properties": {
            "id": "1434025451",
            "osm_type": "node",
            "lat": 47.4890614,
            "lon": 15.6906211,
            "amenity": "school"
          },
          "geometry": {
            "type": "Point",
            "coordinates": [
              15.6906211,
              47.4890614
            ]
          }
        },
        {
          "type": "Feature",
          "properties": {
            "id": "1978400713",
            "osm_type": "node",
            "lat": 47.6380287,
            "lon": 15.8253102,
            "amenity": "school",
            "fixme": "Lage prüfen",
            "name": "Tourismusschule"
          },
          "geometry": {
            "type": "Point",
            "coordinates": [
              15.8253102,
              47.6380287
            ]
          }
        },
        {
          "type": "Feature",
          "properties": {
            "id": "2007757884",
            "osm_type": "node",
            "lat": 47.4107871,
            "lon": 15.7261608,
            "amenity": "school",
            "name": "Volksschule"
          },
          "geometry": {
            "type": "Point",
            "coordinates": [
              15.7261608,
              47.4107871
            ]
          }
        },
        {
          "type": "Feature",
          "properties": {
            "id": "2007759203",
            "osm_type": "node",
            "lat": 47.4090518,
            "lon": 15.7257155,
            "addr:city": "Strallegg",
            "addr:country": "AT",
            "addr:postcode": "8192",
            "amenity": "school",
            "contact:phone": "+43 3174 2229",
            "isced:level": "2",
            "name": "Mittelschule Strallegg"
          },
          "geometry": {
            "type": "Point",
            "coordinates": [
              15.7257155,
              47.4090518
            ]
          }
        },
        {
          "type": "Feature",
          "properties": {
            "id": "2085783499",
            "osm_type": "node",
            "lat": 47.4408803,
            "lon": 15.9553025,
            "addr:city": "Sankt Lorenzen am Wechsel",
            "addr:country": "AT",
            "addr:housenumber": "76",
            "addr:place": "Lorenzen",
            "addr:postcode": "8242",
            "amenity": "school",
            "at_bev:addr_date": "2018-10-01",
            "name": "Volksschule"
          },
          "geometry": {
            "type": "Point",
            "coordinates": [
              15.9553025,
              47.4408803
            ]
          }
        },
        {
          "type": "Feature",
          "properties": {
            "id": "3459542968",
            "osm_type": "node",
            "lat": 47.5455782,
            "lon": 15.5596509,
            "addr:country": "AT",
            "addr:housenumber": "1",
            "addr:postcode": "8670",
            "addr:street": "Bürstadtstraße",
            "amenity": "school",
            "name": "Musikschule",
            "phone": "+433855 2356",
            "website": "https://www.musikschule-krieglach.at/",
            "wheelchair": "no"
          },
          "geometry": {
            "type": "Point",
            "coordinates": [
              15.5596509,
              47.5455782
            ]
          }
        },
        {
          "type": "Feature",
          "properties": {
            "id": "10697305949",
            "osm_type": "node",
            "lat": 47.6018073,
            "lon": 15.6705138,
            "addr:city": "Mürzzuschlag",
            "addr:housenumber": "10",
            "addr:postcode": "8680",
            "addr:street": "Roseggergasse",
            "amenity": "school",
            "name": "Herta-Reich-Gymnasium",
            "phone": "+4350248053",
            "website": "http://www.herta-reich.at/",
            "wheelchair": "yes"
          },
          "geometry": {
            "type": "Point",
            "coordinates": [
              15.6705138,
              47.6018073
            ]
          }
        },
        {
          "type": "Feature",
          "properties": {
            "id": "10697305950",
            "osm_type": "node",
            "lat": 47.6013063,
            "lon": 15.6702429,
            "addr:city": "Mürzzuschlag",
            "addr:housenumber": "10",
            "addr:postcode": "8680",
            "addr:street": "Roseggergasse",
            "amenity": "school",
            "name": "HAK Mürzzuschlag",
            "phone": "+4350248054",
            "website": "https://www.hak-muerz.at/",
            "wheelchair": "yes"
          },
          "geometry": {
            "type": "Point",
            "coordinates": [
              15.6702429,
              47.6013063
            ]
          }
        },
        {
          "type": "Feature",
          "properties": {
            "id": "12177845758",
            "osm_type": "node",
            "lat": 47.4850951,
            "lon": 15.7218342,
            "addr:city": "Ratten",
            "addr:country": "AT",
            "addr:housenumber": "52",
            "addr:place": "Kirchenviertel",
            "addr:postcode": "8673",
            "amenity": "school",
            "name": "Mittelschule Ratten",
            "short_name": "MS Ratten",
            "website": "https://www.nmsratten.at"
          },
          "geometry": {
            "type": "Point",
            "coordinates": [
              15.7218342,
              47.4850951
            ]
          }
        },
        {
          "type": "Feature",
          "properties": {
            "id": "12177845759",
            "osm_type": "node",
            "lat": 47.4850298,
            "lon": 15.7215147,
            "addr:city": "Ratten",
            "addr:country": "AT",
            "addr:housenumber": "52",
            "addr:place": "Kirchenviertel",
            "addr:postcode": "8673",
            "amenity": "school",
            "name": "Volksschule Ratten",
            "short_name": "VS Ratten",
            "website": "http://www.vsratten.at"
          },
          "geometry": {
            "type": "Point",
            "coordinates": [
              15.7215147,
              47.4850298
            ]
          }
        },
        {
          "type": "Feature",
          "properties": {
            "id": "13128652760",
            "osm_type": "node",
            "lat": 47.4042177,
            "lon": 15.8856371,
            "amenity": "school",
            "contact:phone": "+43 3337 2279",
            "isced:level": "2",
            "name": "Mittelschule Vorau",
            "website": "https://nms-vorau.edupage.org/"
          },
          "geometry": {
            "type": "Point",
            "coordinates": [
              15.8856371,
              47.4042177
            ]
          }
        },
        {
          "type": "Feature",
          "properties": {
            "id": "13128652761",
            "osm_type": "node",
            "lat": 47.4038591,
            "lon": 15.8854504,
            "amenity": "school",
            "contact:phone": "+43 3337 33200",
            "isced:level": "1",
            "name": "Volksschule Vorau",
            "website": "https://www.vorau.at/gemeinde/bildung/schulen/volksschule-vorau"
          },
          "geometry": {
            "type": "Point",
            "coordinates": [
              15.8854504,
              47.4038591
            ]
          }
        },
        {
          "type": "Feature",
          "properties": {
            "id": "60909884",
            "osm_type": "node",
            "lat": 47.6172038,
            "lon": 16.125678,
            "amenity": "school",
            "name": "Volksschule Grimmenstein",
            "wheelchair": "limited"
          },
          "geometry": {
            "type": "Point",
            "coordinates": [
              16.125678,
              47.6172038
            ]
          }
        },
        {
          "type": "Feature",
          "properties": {
            "id": "819320111",
            "osm_type": "node",
            "lat": 47.6563627,
            "lon": 16.1326,
            "amenity": "school",
            "name": "Volksschule"
          },
          "geometry": {
            "type": "Point",
            "coordinates": [
              16.1326,
              47.6563627
            ]
          }
        },
        {
          "type": "Feature",
          "properties": {
            "id": "819320120",
            "osm_type": "node",
            "lat": 47.6561051,
            "lon": 16.1324527,
            "amenity": "school",
            "name": "Neue Niederösterreichische Mittelschule Scheiblingkirchen"
          },
          "geometry": {
            "type": "Point",
            "coordinates": [
              16.1324527,
              47.6561051
            ]
          }
        },
        {
          "type": "Feature",
          "properties": {
            "id": "1811676625",
            "osm_type": "node",
            "lat": 47.5981372,
            "lon": 16.1404018,
            "amenity": "school",
            "name": "Volksschule",
            "wheelchair": "limited"
          },
          "geometry": {
            "type": "Point",
            "coordinates": [
              16.1404018,
              47.5981372
            ]
          }
        },
        {
          "type": "Feature",
          "properties": {
            "id": "1841189226",
            "osm_type": "node",
            "lat": 47.5984185,
            "lon": 16.1405071,
            "amenity": "school",
            "name": "Neue Mittelschule"
          },
          "geometry": {
            "type": "Point",
            "coordinates": [
              16.1405071,
              47.5984185
            ]
          }
        },
        {
          "type": "Feature",
          "properties": {
            "id": "1978503715",
            "osm_type": "node",
            "lat": 47.4406622,
            "lon": 16.0573034,
            "amenity": "school"
          },
          "geometry": {
            "type": "Point",
            "coordinates": [
              16.0573034,
              47.4406622
            ]
          }
        },
        {
          "type": "Feature",
          "properties": {
            "id": "1980800886",
            "osm_type": "node",
            "lat": 47.4402617,
            "lon": 16.0685773,
            "addr:city": "Pinggau",
            "addr:country": "AT",
            "addr:housenumber": "19",
            "addr:postcode": "8243",
            "addr:street": "Schulstraße",
            "amenity": "school",
            "at_bev:addr_date": "2018-10-01",
            "name": "Mittelschule Pinggau",
            "phone": "+43 3339 223491",
            "website": "https://www.mittelschule-pinggau.at/"
          },
          "geometry": {
            "type": "Point",
            "coordinates": [
              16.0685773,
              47.4402617
            ]
          }
        },
        {
          "type": "Feature",
          "properties": {
            "id": "1982782336",
            "osm_type": "node",
            "lat": 47.440387,
            "lon": 16.0530732,
            "addr:city": "Friedberg",
            "addr:country": "AT",
            "addr:housenumber": "155",
            "addr:postcode": "8240",
            "addr:street": "Schwaighofstraße",
            "amenity": "school",
            "name": "Mittelschule Friedberg",
            "phone": "+43 3339 25154",
            "website": "http://www.ms-friedberg.at/"
          },
          "geometry": {
            "type": "Point",
            "coordinates": [
              16.0530732,
              47.440387
            ]
          }
        },
        {
          "type": "Feature",
          "properties": {
            "id": "3770425298",
            "osm_type": "node",
            "lat": 47.4781493,
            "lon": 16.110944,
            "amenity": "school",
            "name": "Volksschule"
          },
          "geometry": {
            "type": "Point",
            "coordinates": [
              16.110944,
              47.4781493
            ]
          }
        },
        {
          "type": "Feature",
          "properties": {
            "id": "3916567274",
            "osm_type": "node",
            "lat": 47.6621044,
            "lon": 16.1765145,
            "addr:city": "Thernberg",
            "addr:country": "AT",
            "addr:housenumber": "5",
            "addr:place": "Thernberg-Markt",
            "addr:postcode": "2832",
            "amenity": "school",
            "at_bev:addr_date": "2017-10-01",
            "name": "Volksschule"
          },
          "geometry": {
            "type": "Point",
            "coordinates": [
              16.1765145,
              47.6621044
            ]
          }
        },
        {
          "type": "Feature",
          "properties": {
            "id": "6578389091",
            "osm_type": "node",
            "lat": 47.5537467,
            "lon": 16.0878862,
            "amenity": "school"
          },
          "geometry": {
            "type": "Point",
            "coordinates": [
              16.0878862,
              47.5537467
            ]
          }
        },
        {
          "type": "Feature",
          "properties": {
            "id": "9003076150",
            "osm_type": "node",
            "lat": 47.4402765,
            "lon": 16.0530477,
            "addr:city": "Friedberg",
            "addr:country": "AT",
            "addr:housenumber": "155/2",
            "addr:postcode": "8240",
            "addr:street": "Schwaighofstraße",
            "amenity": "school",
            "name": "Polytechnische Schule Friedberg",
            "phone": "+43 3339 25151-0",
            "website": "https://www.pts-friedberg.at/"
          },
          "geometry": {
            "type": "Point",
            "coordinates": [
              16.0530477,
              47.4402765
            ]
          }
        },
        {
          "type": "Feature",
          "properties": {
            "id": "10536657242",
            "osm_type": "node",
            "lat": 47.5028221,
            "lon": 16.1954234,
            "addr:city": "Krumbach",
            "addr:housenumber": "1",
            "addr:postcode": "2851",
            "addr:street": "Schloß",
            "amenity": "school",
            "contact:email": "info@krumbach.school",
            "contact:phone": "+ 43 676 54 09 630",
            "name": "Schloss Krumbach International School",
            "website": "https://krumbach.school"
          },
          "geometry": {
            "type": "Point",
            "coordinates": [
              16.1954234,
              47.5028221
            ]
          }
        }
      ],
      "children": []
    },
    {
      "bbox": {
        "south": 47.36431175,
        "west": 16.2068765,
        "north": 47.694865,
        "east": 17.16058
      },
      "poiCount": 44,
      "leafCount": 44,
      "averagePosition": [
        16.686329495454547,
        47.56970737727273
      ],
      "data": [
        {
          "type": "Feature",
          "properties": {
            "id": "482764006",
            "osm_type": "node",
            "lat": 47.5070861,
            "lon": 16.2979182,
            "amenity": "school",
            "name": "Volksschule"
          },
          "geometry": {
            "type": "Point",
            "coordinates": [
              16.2979182,
              47.5070861
            ]
          }
        },
        {
          "type": "Feature",
          "properties": {
            "id": "1365350579",
            "osm_type": "node",
            "lat": 47.5070738,
            "lon": 16.2975875,
            "amenity": "school",
            "name": "Neue NÖ Mittelschule Kirchschlag"
          },
          "geometry": {
            "type": "Point",
            "coordinates": [
              16.2975875,
              47.5070738
            ]
          }
        },
        {
          "type": "Feature",
          "properties": {
            "id": "1406906375",
            "osm_type": "node",
            "lat": 47.6790918,
            "lon": 16.5281441,
            "addr:city": "Sopron",
            "addr:housenumber": "82",
            "addr:postcode": "9400",
            "addr:street": "Brennbergi út",
            "amenity": "school",
            "email": "iskola@doborjani-sopron.sulinet.hu",
            "name": "Doborjáni Ferenc Speciális Oktatási és Nevelési Intézmény",
            "phone": "+36 99 512 730",
            "website": "http://doborjani.sopron.hu/"
          },
          "geometry": {
            "type": "Point",
            "coordinates": [
              16.5281441,
              47.6790918
            ]
          }
        },
        {
          "type": "Feature",
          "properties": {
            "id": "3048338353",
            "osm_type": "node",
            "lat": 47.6880839,
            "lon": 16.5203049,
            "addr:city": "Ágfalva",
            "addr:housenumber": "1",
            "addr:postcode": "9423",
            "addr:street": "Váci Mihály utca",
            "amenity": "school",
            "email": "agfalva.iskola@gmail.com",
            "name": "Ágfalvi Váci Mihály Általános Iskola",
            "phone": "+36 99 510 972",
            "website": "http://vacimihalyiskola.uw.hu/"
          },
          "geometry": {
            "type": "Point",
            "coordinates": [
              16.5203049,
              47.6880839
            ]
          }
        },
        {
          "type": "Feature",
          "properties": {
            "id": "4155869388",
            "osm_type": "node",
            "lat": 47.6664193,
            "lon": 16.2080003,
            "amenity": "school",
            "name": "Volksschule Bromberg"
          },
          "geometry": {
            "type": "Point",
            "coordinates": [
              16.2080003,
              47.6664193
            ]
          }
        },
        {
          "type": "Feature",
          "properties": {
            "id": "4405667535",
            "osm_type": "node",
            "lat": 47.5335337,
            "lon": 16.4741564,
            "addr:housenumber": "6",
            "addr:postcode": "7344",
            "addr:street": "Schulgasse",
            "amenity": "school",
            "contact:email": "nms.stoob@bildungsserver.com",
            "contact:phone": "+43 2612 42758",
            "name": "MS - Mittelschule Stoob",
            "old_name": "Hauptschule Stoob"
          },
          "geometry": {
            "type": "Point",
            "coordinates": [
              16.4741564,
              47.5335337
            ]
          }
        },
        {
          "type": "Feature",
          "properties": {
            "id": "4405667536",
            "osm_type": "node",
            "lat": 47.533261,
            "lon": 16.4744802,
            "addr:city": "Stoob",
            "addr:country": "AT",
            "addr:housenumber": "6",
            "addr:postcode": "7344",
            "addr:street": "Schulgasse",
            "amenity": "school",
            "contact:email": "vs.stoob@bildungsserver.com",
            "contact:phone": "+43 2612 43982",
            "name": "Volksschule Stoob"
          },
          "geometry": {
            "type": "Point",
            "coordinates": [
              16.4744802,
              47.533261
            ]
          }
        },
        {
          "type": "Feature",
          "properties": {
            "id": "4985134329",
            "osm_type": "node",
            "lat": 47.4113018,
            "lon": 16.2410686,
            "amenity": "school",
            "name": "VS Rettenbach"
          },
          "geometry": {
            "type": "Point",
            "coordinates": [
              16.2410686,
              47.4113018
            ]
          }
        },
        {
          "type": "Feature",
          "properties": {
            "id": "6402109424",
            "osm_type": "node",
            "lat": 47.583183,
            "lon": 16.4301909,
            "addr:city": "Weppersdorf",
            "addr:country": "AT",
            "addr:housenumber": "4",
            "addr:postcode": "7331",
            "addr:street": "Eichengasse",
            "amenity": "school",
            "email": "vs.weppersdorf@bildungsserver.com",
            "isced:level": "1",
            "phone": "+43 2618 2836",
            "website": "http://www.vs-weppersdorf.at/"
          },
          "geometry": {
            "type": "Point",
            "coordinates": [
              16.4301909,
              47.583183
            ]
          }
        },
        {
          "type": "Feature",
          "properties": {
            "id": "12895236256",
            "osm_type": "node",
            "lat": 47.6475077,
            "lon": 16.3796148,
            "amenity": "school",
            "name": "Volksschule Sieggraben"
          },
          "geometry": {
            "type": "Point",
            "coordinates": [
              16.3796148,
              47.6475077
            ]
          }
        },
        {
          "type": "Feature",
          "properties": {
            "id": "366058146",
            "osm_type": "node",
            "lat": 47.6026496,
            "lon": 16.5486823,
            "amenity": "school",
            "created_by": "Potlatch 0.10f",
            "name": "Volksschule"
          },
          "geometry": {
            "type": "Point",
            "coordinates": [
              16.5486823,
              47.6026496
            ]
          }
        },
        {
          "type": "Feature",
          "properties": {
            "id": "1584438529",
            "osm_type": "node",
            "lat": 47.474641,
            "lon": 16.5431382,
            "addr:city": "Frankenau-Unterpullendorf",
            "addr:country": "AT",
            "addr:housenumber": "25",
            "addr:postcode": "7452",
            "addr:street": "Hauptstraße",
            "amenity": "school",
            "at_bev:addr_date": "2018-10-01",
            "name": "VS Unterpullendorf"
          },
          "geometry": {
            "type": "Point",
            "coordinates": [
              16.5431382,
              47.474641
            ]
          }
        },
        {
          "type": "Feature",
          "properties": {
            "id": "1744346051",
            "osm_type": "node",
            "lat": 47.5668779,
            "lon": 16.5347411,
            "addr:country": "AT",
            "addr:housenumber": "4",
            "addr:postcode": "7321",
            "addr:street": "Jägerzeile",
            "amenity": "school",
            "check_date": "2025-02-03",
            "email": "vs.raiding@bildungsserver.com",
            "name": "Volksschule Raiding",
            "phone": "+432619 7679"
          },
          "geometry": {
            "type": "Point",
            "coordinates": [
              16.5347411,
              47.5668779
            ]
          }
        },
        {
          "type": "Feature",
          "properties": {
            "id": "1786291794",
            "osm_type": "node",
            "lat": 47.5455699,
            "lon": 16.7456179,
            "addr:city": "Sopronkövesd",
            "addr:postcode": "9483",
            "amenity": "school"
          },
          "geometry": {
            "type": "Point",
            "coordinates": [
              16.7456179,
              47.5455699
            ]
          }
        },
        {
          "type": "Feature",
          "properties": {
            "id": "1863344151",
            "osm_type": "node",
            "lat": 47.5970957,
            "lon": 16.6253846,
            "addr:city": "Deutschkreutz",
            "addr:housenumber": "66",
            "addr:postcode": "7301",
            "addr:street": "Hauptstraße",
            "amenity": "school",
            "name": "Carl Goldmark Musikschule",
            "phone": "02613 202 83",
            "website": "https://www.musikschulwerk-bgld.at/index.php?id=16"
          },
          "geometry": {
            "type": "Point",
            "coordinates": [
              16.6253846,
              47.5970957
            ]
          }
        },
        {
          "type": "Feature",
          "properties": {
            "id": "1863344166",
            "osm_type": "node",
            "lat": 47.5979132,
            "lon": 16.624746,
            "amenity": "school",
            "name": "Neue Mittelschule Deutschkreutz"
          },
          "geometry": {
            "type": "Point",
            "coordinates": [
              16.624746,
              47.5979132
            ]
          }
        },
        {
          "type": "Feature",
          "properties": {
            "id": "1863344379",
            "osm_type": "node",
            "lat": 47.5976238,
            "lon": 16.624943,
            "amenity": "school",
            "name": "Volksschule VSD Deutschkreutz"
          },
          "geometry": {
            "type": "Point",
            "coordinates": [
              16.624943,
              47.5976238
            ]
          }
        },
        {
          "type": "Feature",
          "properties": {
            "id": "1967956473",
            "osm_type": "node",
            "lat": 47.3928174,
            "lon": 16.5490771,
            "addr:city": "Kőszeg",
            "addr:housenumber": "31",
            "addr:postcode": "9730",
            "addr:street": "Kiss János utca",
            "amenity": "school",
            "contact:mobile": "+36 30 574 9945",
            "contact:phone": "+36 94 360 185",
            "name": "Dr. Nagy László EGYMI"
          },
          "geometry": {
            "type": "Point",
            "coordinates": [
              16.5490771,
              47.3928174
            ]
          }
        },
        {
          "type": "Feature",
          "properties": {
            "id": "2126433707",
            "osm_type": "node",
            "lat": 47.5950948,
            "lon": 16.7292822,
            "addr:city": "Pereszteg",
            "addr:postcode": "9484",
            "amenity": "school",
            "name": "Általános iskola"
          },
          "geometry": {
            "type": "Point",
            "coordinates": [
              16.7292822,
              47.5950948
            ]
          }
        },
        {
          "type": "Feature",
          "properties": {
            "id": "2321039639",
            "osm_type": "node",
            "lat": 47.619578,
            "lon": 16.887274,
            "addr:city": "Fertőd",
            "addr:housenumber": "2/B",
            "addr:postcode": "9431",
            "addr:street": "Mentes Mihály utca",
            "amenity": "school",
            "name": "Fertőd-Süttör Iskola"
          },
          "geometry": {
            "type": "Point",
            "coordinates": [
              16.887274,
              47.619578
            ]
          }
        },
        {
          "type": "Feature",
          "properties": {
            "id": "2478977443",
            "osm_type": "node",
            "lat": 47.6798004,
            "lon": 16.5907133,
            "addr:city": "Sopron",
            "addr:housenumber": "51",
            "addr:postcode": "9400",
            "addr:street": "Deák tér",
            "amenity": "school",
            "email": "iskola@eotvos.sopron.hu",
            "name": "Eötvös József Evangélikus Gimnázium és Egészségügyi Szakközépiskola",
            "phone": "+36 99 311 767",
            "website": "https://eotvos.sopron.hu/"
          },
          "geometry": {
            "type": "Point",
            "coordinates": [
              16.5907133,
              47.6798004
            ]
          }
        },
        {
          "type": "Feature",
          "properties": {
            "id": "2478977446",
            "osm_type": "node",
            "lat": 47.6792181,
            "lon": 16.5913964,
            "addr:city": "Sopron",
            "addr:housenumber": "78",
            "addr:postcode": "9400",
            "addr:street": "Deák tér",
            "amenity": "school",
            "email": "deakter@deakteriiskola.axelero.net",
            "name": "Deák Téri Általános Iskola",
            "phone": "+36 99 510 158",
            "website": "http://deakisk.sulinet.hu/"
          },
          "geometry": {
            "type": "Point",
            "coordinates": [
              16.5913964,
              47.6792181
            ]
          }
        },
        {
          "type": "Feature",
          "properties": {
            "id": "2989966599",
            "osm_type": "node",
            "lat": 47.4237948,
            "lon": 17.0181687,
            "amenity": "school",
            "name": "Móra Ferenc Általános Iskola és Alapfokú Művészetoktatási Intézmény",
            "short_name": "Móra Ferenc Ált. Isk."
          },
          "geometry": {
            "type": "Point",
            "coordinates": [
              17.0181687,
              47.4237948
            ]
          }
        },
        {
          "type": "Feature",
          "properties": {
            "id": "3048208482",
            "osm_type": "node",
            "lat": 47.6373159,
            "lon": 16.6419106,
            "addr:city": "Kópháza",
            "addr:housenumber": "23",
            "addr:postcode": "9495",
            "addr:street": "Fő utca",
            "amenity": "school",
            "email": "nakovich@nakovich.hu",
            "name": "Nakovich Mihály Általános Iskola",
            "name:hr": "Osnovna škola Mihovil Naković",
            "phone": "+36 99 531 101",
            "website": "http://www.nakovich.hu/"
          },
          "geometry": {
            "type": "Point",
            "coordinates": [
              16.6419106,
              47.6373159
            ]
          }
        },
        {
          "type": "Feature",
          "properties": {
            "id": "3048722265",
            "osm_type": "node",
            "lat": 47.6498912,
            "lon": 16.6652836,
            "addr:city": "Sopron",
            "addr:housenumber": "5",
            "addr:postcode": "9494",
            "addr:street": "Fő utca",
            "addr:suburb": "Balf",
            "amenity": "school",
            "email": "balfisk@gmail.com",
            "phone": "+36 99 311 291",
            "website": "https://balfiiskola.ewk.hu/"
          },
          "geometry": {
            "type": "Point",
            "coordinates": [
              16.6652836,
              47.6498912
            ]
          }
        },
        {
          "type": "Feature",
          "properties": {
            "id": "3072432103",
            "osm_type": "node",
            "lat": 47.6841385,
            "lon": 16.5691116,
            "addr:city": "Sopron",
            "addr:housenumber": "1",
            "addr:postcode": "9400",
            "addr:street": "Tóth Antal utca",
            "amenity": "school",
            "email": "titkarsag@tothantal.hu",
            "name": "Tóth Antal Óvoda, Általános Iskola, Kollégium",
            "official_name": "Tóth Antal Egységes Gyógypedagógiai Módszertani Intézmény, Óvoda, Általános Iskola, Szakiskola, Kollégium",
            "phone": "+36 99 312 254",
            "website": "http://tothantal.hu/"
          },
          "geometry": {
            "type": "Point",
            "coordinates": [
              16.5691116,
              47.6841385
            ]
          }
        },
        {
          "type": "Feature",
          "properties": {
            "id": "3087959229",
            "osm_type": "node",
            "lat": 47.5950118,
            "lon": 17.0254376,
            "addr:city": "Kapuvár",
            "amenity": "school"
          },
          "geometry": {
            "type": "Point",
            "coordinates": [
              17.0254376,
              47.5950118
            ]
          }
        },
        {
          "type": "Feature",
          "properties": {
            "id": "3110878550",
            "osm_type": "node",
            "lat": 47.4412763,
            "lon": 16.9087051,
            "addr:city": "Iván",
            "addr:postcode": "9374",
            "amenity": "school",
            "wheelchair": "limited"
          },
          "geometry": {
            "type": "Point",
            "coordinates": [
              16.9087051,
              47.4412763
            ]
          }
        },
        {
          "type": "Feature",
          "properties": {
            "id": "3439644731",
            "osm_type": "node",
            "lat": 47.557675,
            "lon": 16.979929,
            "addr:city": "Vitnyéd",
            "addr:postcode": "9371",
            "amenity": "school",
            "enforcement": "129",
            "name": "Újhelyi Imre Élelmiszeripari Középiskola",
            "source": "turistautak.hu",
            "source:date": "2010-03-29",
            "url": "http://turistautak.hu/poi.php?id=62491",
            "website": "http://users.atw.hu/csermajor/"
          },
          "geometry": {
            "type": "Point",
            "coordinates": [
              16.979929,
              47.557675
            ]
          }
        },
        {
          "type": "Feature",
          "properties": {
            "id": "3465143427",
            "osm_type": "node",
            "lat": 47.391544,
            "lon": 16.546894,
            "addr:city": "Kőszeg",
            "addr:postcode": "9730",
            "amenity": "school",
            "name": "Gyógypedagógiai Intézet (kapu)",
            "source": "turistautak.hu",
            "source:date": "2014-03-06",
            "url": "http://turistautak.hu/poi.php?id=166508"
          },
          "geometry": {
            "type": "Point",
            "coordinates": [
              16.546894,
              47.391544
            ]
          }
        },
        {
          "type": "Feature",
          "properties": {
            "id": "3470004379",
            "osm_type": "node",
            "lat": 47.682467,
            "lon": 16.577317,
            "addr:city": "Sopron",
            "amenity": "school",
            "description": "Főbejárat.",
            "name": "Soproni Egyetem",
            "source": "turistautak.hu",
            "source:date": "2015-01-15",
            "url": "http://turistautak.hu/poi.php?id=14104"
          },
          "geometry": {
            "type": "Point",
            "coordinates": [
              16.577317,
              47.682467
            ]
          }
        },
        {
          "type": "Feature",
          "properties": {
            "id": "3760665451",
            "osm_type": "node",
            "lat": 47.5847754,
            "lon": 16.8788946,
            "addr:city": "Fertőszentmiklós",
            "addr:housenumber": "42",
            "addr:postcode": "9444",
            "addr:street": "Szent István utca",
            "amenity": "school",
            "name": "Ált. Isk. Alsó tagozat"
          },
          "geometry": {
            "type": "Point",
            "coordinates": [
              16.8788946,
              47.5847754
            ]
          }
        },
        {
          "type": "Feature",
          "properties": {
            "id": "3760665456",
            "osm_type": "node",
            "lat": 47.5843596,
            "lon": 16.8790022,
            "addr:city": "Fertőszentmiklós",
            "addr:housenumber": "41",
            "addr:postcode": "9444",
            "addr:street": "Szent István utca",
            "amenity": "school",
            "name": "Ált. Isk. Felső tagozat"
          },
          "geometry": {
            "type": "Point",
            "coordinates": [
              16.8790022,
              47.5843596
            ]
          }
        },
        {
          "type": "Feature",
          "properties": {
            "id": "3885716732",
            "osm_type": "node",
            "lat": 47.6090607,
            "lon": 16.9437204,
            "addr:city": "Agyagosszergény",
            "addr:housenumber": "2",
            "addr:postcode": "9441",
            "addr:street": "Arany János utca",
            "amenity": "school",
            "name": "Általános iskola"
          },
          "geometry": {
            "type": "Point",
            "coordinates": [
              16.9437204,
              47.6090607
            ]
          }
        },
        {
          "type": "Feature",
          "properties": {
            "id": "5851724385",
            "osm_type": "node",
            "lat": 47.3832302,
            "lon": 16.7508229,
            "addr:city": "Bük",
            "addr:housenumber": "1-3",
            "addr:postcode": "9737",
            "addr:street": "Eötvös utca",
            "amenity": "school",
            "name": "Felsőbüki Nagy Pál Általános Iskola és Vendéglátóipari Szakiskola",
            "phone": "+36 94 558 618"
          },
          "geometry": {
            "type": "Point",
            "coordinates": [
              16.7508229,
              47.3832302
            ]
          }
        },
        {
          "type": "Feature",
          "properties": {
            "id": "7027093317",
            "osm_type": "node",
            "lat": 47.5944739,
            "lon": 17.0249177,
            "addr:city": "Kapuvár",
            "addr:housenumber": "25",
            "addr:postcode": "9330",
            "addr:street": "Fő tér",
            "amenity": "school",
            "denomination": "roman_catholic",
            "name": "Páli Szent Vince Katolikus Gimnázium",
            "operator": "Győri Egyházmegye",
            "operator:type": "religious",
            "religion": "christian"
          },
          "geometry": {
            "type": "Point",
            "coordinates": [
              17.0249177,
              47.5944739
            ]
          }
        },
        {
          "type": "Feature",
          "properties": {
            "id": "7027129849",
            "osm_type": "node",
            "lat": 47.594728,
            "lon": 17.025793,
            "addr:city": "Kapuvár",
            "addr:housenumber": "27",
            "addr:postcode": "9330",
            "addr:street": "Fő tér",
            "amenity": "school",
            "denomination": "roman_catholic",
            "name": "Páli Szent Vince Katolikus Általános Iskola",
            "operator": "Győri Egyházmegye",
            "operator:type": "religious",
            "religion": "christian"
          },
          "geometry": {
            "type": "Point",
            "coordinates": [
              17.025793,
              47.594728
            ]
          }
        },
        {
          "type": "Feature",
          "properties": {
            "id": "7077770580",
            "osm_type": "node",
            "lat": 47.4590707,
            "lon": 16.6733971,
            "addr:city": "Zsira",
            "addr:housenumber": "37",
            "addr:postcode": "9476",
            "addr:street": "Fő utca",
            "amenity": "school",
            "contact:email": "iskolazsira@freemail.hu",
            "contact:phone": "+36 99 543 015",
            "contact:website": "http://www.iskola.zsira.hu/",
            "name": "Általános Iskola"
          },
          "geometry": {
            "type": "Point",
            "coordinates": [
              16.6733971,
              47.4590707
            ]
          }
        },
        {
          "type": "Feature",
          "properties": {
            "id": "9464316153",
            "osm_type": "node",
            "lat": 47.5860936,
            "lon": 16.9813444,
            "addr:city": "Vitnyéd",
            "addr:postcode": "9371",
            "amenity": "school",
            "name": "Kapuvár Térségi Általános Iskola és Pedagógai Szakszolgálat"
          },
          "geometry": {
            "type": "Point",
            "coordinates": [
              16.9813444,
              47.5860936
            ]
          }
        },
        {
          "type": "Feature",
          "properties": {
            "id": "9500621239",
            "osm_type": "node",
            "lat": 47.5935142,
            "lon": 16.7290836,
            "addr:city": "Pereszteg",
            "addr:postcode": "9484",
            "amenity": "school"
          },
          "geometry": {
            "type": "Point",
            "coordinates": [
              16.7290836,
              47.5935142
            ]
          }
        },
        {
          "type": "Feature",
          "properties": {
            "id": "11156471585",
            "osm_type": "node",
            "lat": 47.482941,
            "lon": 16.7321972,
            "addr:city": "Sopronhorpács",
            "addr:housenumber": "62",
            "addr:postcode": "9463",
            "addr:street": "Fő utca",
            "amenity": "school",
            "name": "Marionett Alapfokú Művészeti Iskola"
          },
          "geometry": {
            "type": "Point",
            "coordinates": [
              16.7321972,
              47.482941
            ]
          }
        },
        {
          "type": "Feature",
          "properties": {
            "id": "2422630068",
            "osm_type": "node",
            "lat": 47.6354655,
            "lon": 17.0774531,
            "addr:city": "Osli",
            "addr:postcode": "9354",
            "amenity": "school",
            "name": "Osli Általános Iskola"
          },
          "geometry": {
            "type": "Point",
            "coordinates": [
              17.0774531,
              47.6354655
            ]
          }
        },
        {
          "type": "Feature",
          "properties": {
            "id": "2822178471",
            "osm_type": "node",
            "lat": 47.593071,
            "lon": 17.0351125,
            "addr:city": "Kapuvár",
            "amenity": "school",
            "name": "Berg Gusztáv Szakiskola"
          },
          "geometry": {
            "type": "Point",
            "coordinates": [
              17.0351125,
              47.593071
            ]
          }
        },
        {
          "type": "Feature",
          "properties": {
            "id": "7294352685",
            "osm_type": "node",
            "lat": 47.5978044,
            "lon": 17.0875399,
            "addr:city": "Veszkény",
            "addr:postcode": "9352",
            "amenity": "school",
            "name": "Kapuvár Térségi Általános Iskola és Pedagógiai Szakszolgálat"
          },
          "geometry": {
            "type": "Point",
            "coordinates": [
              17.0875399,
              47.5978044
            ]
          }
        }
      ],
      "children": []
    }
  ]
}