{
  "bbox": {
    "south": 47.033758500000005,
    "west": 13.345766,
    "north": 47.694865,
    "east": 15.253173
  },
  "poiCount": 57,
  "leafCount": 0,
  "averagePosition": [
    14.463184124561401,
    47.298236591228076
  ],
  "data": [],
  "children": [
    {
      "bbox": {
        "south": 47.033758500000005,
        "west": 13.345766,
        "north": 47.36431175,
        "east": 14.2994695
      },
      "poiCount": 12,
      "leafCount": 12,
      "averagePosition": [
        13.924990741666667,
        47.13250930833333
      ],
      "data": [
        {
          "type": "Feature",
          "properties": {
            "id": "2289044038",
            "osm_type": "node",
            "lat": 47.098561,
            "lon": 13.638419,
            "addr:city": "Sankt Michael im Lungau",
            "addr:country": "AT",
            "addr:housenumber": "57",
            "addr:postcode": "5582",
            "addr:street": "Bräugasse",
            "alt_name": "Öffentliche Pfarr-Bücherei",
            "amenity": "library",
            "contact:email": "buecherei.stmichael@pfarre.kirchen.net",
            "contact:phone": "+43 6477 8229",
            "contact:website": "https://stmichael-lungau.bvoe.at/",
            "name": "Bücherei",
            "opening_hours": "Mo 09:00-10:30; Tu 16:00-18:00; Th 18:00-20:00; Sa 10:00-12:00; Su 10:00-11:30",
            "wikidata": "Q56241867"
          },
          "geometry": {
            "type": "Point",
            "coordinates": [
              13.638419,
              47.098561
            ]
          }
        },
        {
          "type": "Feature",
          "properties": {
            "id": "3639147787",
            "osm_type": "node",
            "lat": 47.1498869,
            "lon": 13.7465604,
            "amenity": "library",
            "name": "Bücherei",
            "wheelchair": "yes"
          },
          "geometry": {
            "type": "Point",
            "coordinates": [
              13.7465604,
              47.1498869
            ]
          }
        },
        {
          "type": "Feature",
          "properties": {
            "id": "4567654573",
            "osm_type": "node",
            "lat": 47.0751871,
            "lon": 13.8364923,
            "addr:city": "Ramingstein",
            "addr:housenumber": "19",
            "addr:postcode": "5591",
            "addr:street": "Waagplatz",
            "amenity": "library",
            "description": "Öffentliche Bibliothek",
            "name": "Bibliothek Gemeinde Ramingstein",
            "website": "http://www.ramingstein.bvoe.at",
            "wikidata": "Q56237894"
          },
          "geometry": {
            "type": "Point",
            "coordinates": [
              13.8364923,
              47.0751871
            ]
          }
        },
        {
          "type": "Feature",
          "properties": {
            "id": "4567658577",
            "osm_type": "node",
            "lat": 47.0796074,
            "lon": 13.6957611,
            "amenity": "library",
            "description": "Öffentliche Bibliothek der Gemeinde St. Margarethen",
            "name": "Gemeindebücherei",
            "opening_hours": "We 15:30-17:30",
            "wikidata": "Q56237705"
          },
          "geometry": {
            "type": "Point",
            "coordinates": [
              13.6957611,
              47.0796074
            ]
          }
        },
        {
          "type": "Feature",
          "properties": {
            "id": "4567658578",
            "osm_type": "node",
            "lat": 47.0714218,
            "lon": 13.7480898,
            "addr:city": "Thomatal",
            "addr:country": "AT",
            "addr:housenumber": "2",
            "addr:place": "Thomatal",
            "addr:postcode": "5592",
            "amenity": "library",
            "at_bev:addr_date": "2018-04-02",
            "description": "Öffentliche Bibliothek",
            "website": "http://www.thomatal.bvoe.at/",
            "wikidata": "Q56238316"
          },
          "geometry": {
            "type": "Point",
            "coordinates": [
              13.7480898,
              47.0714218
            ]
          }
        },
        {
          "type": "Feature",
          "properties": {
            "id": "5018746100",
            "osm_type": "node",
            "lat": 47.1271925,
            "lon": 13.8103652,
            "amenity": "library",
            "name": "Öffentliche Bibliothek"
          },
          "geometry": {
            "type": "Point",
            "coordinates": [
              13.8103652,
              47.1271925
            ]
          }
        },
        {
          "type": "Feature",
          "properties": {
            "id": "9921890755",
            "osm_type": "node",
            "lat": 47.1465159,
            "lon": 13.792095,
            "amenity": "library",
            "description": "Echange",
            "name": "Minibiblio",
            "opening_hours": "24/7"
          },
          "geometry": {
            "type": "Point",
            "coordinates": [
              13.792095,
              47.1465159
            ]
          }
        },
        {
          "type": "Feature",
          "properties": {
            "id": "1854590707",
            "osm_type": "node",
            "lat": 47.1872688,
            "lon": 14.1849353,
            "addr:city": "St. Peter am Kammersberg",
            "addr:country": "AT",
            "addr:housenumber": "81",
            "addr:place": "St. Peter a. Kbg.",
            "addr:postcode": "8843",
            "amenity": "library",
            "at_bev:addr_date": "2017-10-01",
            "wikidata": "Q55469052"
          },
          "geometry": {
            "type": "Point",
            "coordinates": [
              14.1849353,
              47.1872688
            ]
          }
        },
        {
          "type": "Feature",
          "properties": {
            "id": "4629289895",
            "osm_type": "node",
            "lat": 47.1576707,
            "lon": 14.0823364,
            "addr:city": "Ranten",
            "addr:country": "AT",
            "addr:housenumber": "110",
            "addr:place": "Ranten",
            "addr:postcode": "8853",
            "amenity": "library",
            "at_bev:addr_date": "2018-10-01",
            "description": "Öffentliche Bibliothek"
          },
          "geometry": {
            "type": "Point",
            "coordinates": [
              14.0823364,
              47.1576707
            ]
          }
        },
        {
          "type": "Feature",
          "properties": {
            "id": "4631593766",
            "osm_type": "node",
            "lat": 47.1103403,
            "lon": 14.1675319,
            "addr:city": "Murau",
            "addr:housenumber": "39",
            "addr:postcode": "8850",
            "addr:street": "Anna-Neumann-Straße",
            "amenity": "library",
            "description": "Stadtbücherei",
            "opening_hours": "Tu, Fr 09:00-12:00, 15:00-19:00; Th 15:00-17:00"
          },
          "geometry": {
            "type": "Point",
            "coordinates": [
              14.1675319,
              47.1103403
            ]
          }
        },
        {
          "type": "Feature",
          "properties": {
            "id": "4631593767",
            "osm_type": "node",
            "lat": 47.18147,
            "lon": 14.1153459,
            "addr:housenumber": "88",
            "addr:place": "Schöder",
            "addr:postcode": "8844",
            "amenity": "library",
            "description": "Öffentliche Bibliothek"
          },
          "geometry": {
            "type": "Point",
            "coordinates": [
              14.1153459,
              47.18147
            ]
          }
        },
        {
          "type": "Feature",
          "properties": {
            "id": "4631689015",
            "osm_type": "node",
            "lat": 47.2049893,
            "lon": 14.2819566,
            "addr:city": "Oberwölz (Stadt)",
            "addr:housenumber": "15",
            "addr:postcode": "8832",
            "addr:street": "Stadt",
            "amenity": "library",
            "name": "Dokumentationszentrum des Österreichischen Blasmusikverbandes",
            "website": "https://www.blasmusik.at/uber-uns/geschichte/dokumentationszentrum/"
          },
          "geometry": {
            "type": "Point",
            "coordinates": [
              14.2819566,
              47.2049893
            ]
          }
        }
      ],
      "children": []
    },
    {
      "bbox": {
        "south": 47.033758500000005,
        "west": 14.2994695,
        "north": 47.36431175,
        "east": 15.253173
      },
      "poiCount": 20,
      "leafCount": 20,
      "averagePosition": [
        14.825591464999999,
        47.16257302
      ],
      "data": [
        {
          "type": "Feature",
          "properties": {
            "id": "4629345280",
            "osm_type": "node",
            "lat": 47.099568,
            "lon": 14.4005746,
            "addr:housenumber": "1",
            "addr:place": "Mariahof",
            "addr:postcode": "8812",
            "amenity": "library",
            "description": "Bücherstube Mariahof"
          },
          "geometry": {
            "type": "Point",
            "coordinates": [
              14.4005746,
              47.099568
            ]
          }
        },
        {
          "type": "Feature",
          "properties": {
            "id": "4631593765",
            "osm_type": "node",
            "lat": 47.1304527,
            "lon": 14.3591546,
            "addr:city": "Teufenbach-Katsch",
            "addr:housenumber": "7",
            "addr:postcode": "8833",
            "addr:street": "Hauptstraße",
            "amenity": "library",
            "description": "Öffentliche Bibliothek"
          },
          "geometry": {
            "type": "Point",
            "coordinates": [
              14.3591546,
              47.1304527
            ]
          }
        },
        {
          "type": "Feature",
          "properties": {
            "id": "4631689013",
            "osm_type": "node",
            "lat": 47.1487088,
            "lon": 14.4074118,
            "addr:city": "Scheifling",
            "addr:country": "AT",
            "addr:housenumber": "1",
            "addr:postcode": "8811",
            "addr:street": "Dr.-Georg-Zwerenz-Platz",
            "amenity": "library",
            "description": "Öffentliche Bibliothek u. Schulbibliothek d. NMS"
          },
          "geometry": {
            "type": "Point",
            "coordinates": [
              14.4074118,
              47.1487088
            ]
          }
        },
        {
          "type": "Feature",
          "properties": {
            "id": "4631689014",
            "osm_type": "node",
            "lat": 47.1986519,
            "lon": 14.44542,
            "addr:city": "Unzmarkt",
            "addr:housenumber": "2",
            "addr:postcode": "8800",
            "addr:street": "Simon Hafnerplatz",
            "amenity": "library",
            "description": "Gemeindebücherei Unzmarkt-Frauenburg"
          },
          "geometry": {
            "type": "Point",
            "coordinates": [
              14.44542,
              47.1986519
            ]
          }
        },
        {
          "type": "Feature",
          "properties": {
            "id": "4631697852",
            "osm_type": "node",
            "lat": 47.2509456,
            "lon": 14.4879802,
            "addr:city": "Oberzeiring",
            "addr:housenumber": "8",
            "addr:postcode": "8762",
            "addr:street": "Florianigasse",
            "amenity": "library",
            "description": "Öffentliche Bibliothek Pölstal"
          },
          "geometry": {
            "type": "Point",
            "coordinates": [
              14.4879802,
              47.2509456
            ]
          }
        },
        {
          "type": "Feature",
          "properties": {
            "id": "1613158509",
            "osm_type": "node",
            "lat": 47.1897131,
            "lon": 14.7457592,
            "addr:housenumber": "4",
            "addr:postcode": "8740",
            "addr:street": "Aichfeldgasse",
            "amenity": "library",
            "name": "Stadtbücherei Zeltweg"
          },
          "geometry": {
            "type": "Point",
            "coordinates": [
              14.7457592,
              47.1897131
            ]
          }
        },
        {
          "type": "Feature",
          "properties": {
            "id": "2040941697",
            "osm_type": "node",
            "lat": 47.215141,
            "lon": 14.8292189,
            "addr:housenumber": "15",
            "addr:postcode": "8720",
            "addr:street": "Hauptplatz",
            "amenity": "library",
            "name": "Bücherei"
          },
          "geometry": {
            "type": "Point",
            "coordinates": [
              14.8292189,
              47.215141
            ]
          }
        },
        {
          "type": "Feature",
          "properties": {
            "id": "4631697850",
            "osm_type": "node",
            "lat": 47.1694454,
            "lon": 14.6585195,
            "addr:city": "Judenburg",
            "addr:housenumber": "12",
            "addr:postcode": "8750",
            "addr:street": "Herrengasse",
            "amenity": "library",
            "description": "Stadtbibliothek Judenburg",
            "name": "Stadt Bücherei",
            "opening_hours": "Mo,Th 14:30-18:30; We,Fr 08:00-13:00",
            "phone": "+43 3572 83795",
            "wikidata": "Q55469009"
          },
          "geometry": {
            "type": "Point",
            "coordinates": [
              14.6585195,
              47.1694454
            ]
          }
        },
        {
          "type": "Feature",
          "properties": {
            "id": "4631697851",
            "osm_type": "node",
            "lat": 47.2206072,
            "lon": 14.5789388,
            "addr:city": "Pöls",
            "addr:housenumber": "3",
            "addr:postcode": "8761",
            "addr:street": "Schulgasse",
            "amenity": "library",
            "description": "Öffentliche Bibliothek"
          },
          "geometry": {
            "type": "Point",
            "coordinates": [
              14.5789388,
              47.2206072
            ]
          }
        },
        {
          "type": "Feature",
          "properties": {
            "id": "4631724713",
            "osm_type": "node",
            "lat": 47.1549299,
            "lon": 14.7381449,
            "addr:city": "Weißkirchen in Steiermark",
            "addr:country": "AT",
            "addr:housenumber": "5",
            "addr:postcode": "8741",
            "addr:street": "Zeltwegerstraße",
            "amenity": "library",
            "description": "Öffentliche Bibliothek im Pfarrhof",
            "opening_hours": "Th 15:00-17:00; Su 09:00-11:00"
          },
          "geometry": {
            "type": "Point",
            "coordinates": [
              14.7381449,
              47.1549299
            ]
          }
        },
        {
          "type": "Feature",
          "properties": {
            "id": "4631728183",
            "osm_type": "node",
            "lat": 47.2687571,
            "lon": 14.8595259,
            "addr:city": "Sankt Marein-Feistritz",
            "addr:country": "AT",
            "addr:housenumber": "2",
            "addr:postcode": "8733",
            "addr:street": "Am Kirchbichl",
            "amenity": "library",
            "description": "Öffentliche Bücherei St. Marein-Feistritz",
            "opening_hours": "Th 15:00-17:00; Su 10:00-11:00"
          },
          "geometry": {
            "type": "Point",
            "coordinates": [
              14.8595259,
              47.2687571
            ]
          }
        },
        {
          "type": "Feature",
          "properties": {
            "id": "4631739930",
            "osm_type": "node",
            "lat": 47.3070299,
            "lon": 14.9352535,
            "addr:city": "Kraubath an der Mur",
            "addr:housenumber": "1",
            "addr:postcode": "8714",
            "addr:street": "Kirchplatz",
            "amenity": "library",
            "description": "Öffentliche Bücherei Kraubath"
          },
          "geometry": {
            "type": "Point",
            "coordinates": [
              14.9352535,
              47.3070299
            ]
          }
        },
        {
          "type": "Feature",
          "properties": {
            "id": "840607067",
            "osm_type": "node",
            "lat": 47.3587524,
            "lon": 15.098634,
            "addr:city": "Leoben",
            "addr:country": "AT",
            "addr:housenumber": "2",
            "addr:postcode": "8700",
            "addr:street": "Erhardigasse",
            "addr:suburb": "Göß",
            "amenity": "library",
            "name": "Bibliothek Göß",
            "opening_hours": "We 15:00-18:00",
            "wheelchair": "limited"
          },
          "geometry": {
            "type": "Point",
            "coordinates": [
              15.098634,
              47.3587524
            ]
          }
        },
        {
          "type": "Feature",
          "properties": {
            "id": "3361720142",
            "osm_type": "node",
            "lat": 47.0498835,
            "lon": 15.152337,
            "addr:city": "Voitsberg",
            "addr:country": "AT",
            "addr:housenumber": "5a",
            "addr:postcode": "8570",
            "addr:street": "Zangtalerstraße",
            "amenity": "library",
            "name": "Stadtbücherei Voitsberg",
            "opening_hours": "Tu 14:00-20:00; We 11:00-15:00; Th 14:00-20:00; Fr 11:00-15:00",
            "phone": "+433142 21315",
            "website": "https://www.voitsberg.bvoe.at/impressum"
          },
          "geometry": {
            "type": "Point",
            "coordinates": [
              15.152337,
              47.0498835
            ]
          }
        },
        {
          "type": "Feature",
          "properties": {
            "id": "4629514987",
            "osm_type": "node",
            "lat": 47.0725043,
            "lon": 15.1252239,
            "addr:city": "Bärnbach",
            "addr:country": "AT",
            "addr:housenumber": "10",
            "addr:postcode": "8572",
            "addr:street": "Rüsthausgasse",
            "amenity": "library",
            "at_bev:addr_date": "2017-10-01",
            "description": "Öffentliche und Zentrale Schulbibliothek Bärnbach"
          },
          "geometry": {
            "type": "Point",
            "coordinates": [
              15.1252239,
              47.0725043
            ]
          }
        },
        {
          "type": "Feature",
          "properties": {
            "id": "4629514988",
            "osm_type": "node",
            "lat": 47.0644778,
            "lon": 15.0827017,
            "addr:city": "Köflach",
            "addr:country": "AT",
            "addr:housenumber": "2",
            "addr:postcode": "8580",
            "addr:street": "Rathausplatz",
            "amenity": "library",
            "contact:phone": "+43 3144 2519 700",
            "email": "bibliothek@koeflach.at",
            "name": "Lipizzanerheimat Bibliothek",
            "opening_hours": "Mo, We, Fr 14:00-18:00; Tu-Fr 09:00-13:00",
            "website": "https://www.kunsthaus-k.at/bibliothek/"
          },
          "geometry": {
            "type": "Point",
            "coordinates": [
              15.0827017,
              47.0644778
            ]
          }
        },
        {
          "type": "Feature",
          "properties": {
            "id": "4631739929",
            "osm_type": "node",
            "lat": 47.1404916,
            "lon": 15.09271,
            "addr:city": "Kainach bei Voitsberg",
            "addr:housenumber": "3",
            "addr:place": "Kainach bei Voitsberg",
            "addr:postcode": "8573",
            "amenity": "library",
            "email": "kainach@bibliotheken.at",
            "name": "Öffentliche Bibliothek Kainach",
            "opening_hours": "We,Fr 16:30-18:00; Th 07:30-12:00; Su 09:30-10:30; SH Th 08:00-12:00",
            "phone": "03148/23108"
          },
          "geometry": {
            "type": "Point",
            "coordinates": [
              15.09271,
              47.1404916
            ]
          }
        },
        {
          "type": "Feature",
          "properties": {
            "id": "4635104151",
            "osm_type": "node",
            "lat": 47.0465336,
            "lon": 15.2171901,
            "addr:housenumber": "1",
            "addr:place": "Stallhofen",
            "addr:postcode": "8152",
            "amenity": "library",
            "description": "Öffentliche Bücherei Stallhofen"
          },
          "geometry": {
            "type": "Point",
            "coordinates": [
              15.2171901,
              47.0465336
            ]
          }
        },
        {
          "type": "Feature",
          "properties": {
            "id": "5926218886",
            "osm_type": "node",
            "lat": 47.1026036,
            "lon": 15.2185397,
            "amenity": "library"
          },
          "geometry": {
            "type": "Point",
            "coordinates": [
              15.2185397,
              47.1026036
            ]
          }
        },
        {
          "type": "Feature",
          "properties": {
            "id": "12099334895",
            "osm_type": "node",
            "lat": 47.062263,
            "lon": 15.078591,
            "amenity": "library",
            "contact:mobile": "+43 664 2528 587",
            "name": "Stadtmuseum Köflach",
            "opening_hours": "Mo-Tu 08:00-14:30; We 08:00-11:00; Th 08:00-14:30; Fr 08:00-11:00",
            "website": "https://www.kunsthaus-k.at/museum/"
          },
          "geometry": {
            "type": "Point",
            "coordinates": [
              15.078591,
              47.062263
            ]
          }
        }
      ],
      "children": []
    },
    {
      "bbox": {
        "south": 47.36431175,
        "west": 13.345766,
        "north": 47.694865,
        "east": 14.2994695
      },
      "poiCount": 9,
      "leafCount": 9,
      "averagePosition": [
        13.8775981,
        47.4552453
      ],
      "data": [
        {
          "type": "Feature",
          "properties": {
            "id": "663273311",
            "osm_type": "node",
            "lat": 47.3720828,
            "lon": 13.3892866,
            "amenity": "library",
            "name": "Stadtbibliothek"
          },
          "geometry": {
            "type": "Point",
            "coordinates": [
              13.3892866,
              47.3720828
            ]
          }
        },
        {
          "type": "Feature",
          "properties": {
            "id": "4599571876",
            "osm_type": "node",
            "lat": 47.3933992,
            "lon": 13.688984,
            "addr:city": "Schladming",
            "addr:housenumber": "411",
            "addr:postcode": "8970",
            "addr:street": "Tutterstraße",
            "amenity": "library",
            "description": "Bücherei Schladming"
          },
          "geometry": {
            "type": "Point",
            "coordinates": [
              13.688984,
              47.3933992
            ]
          }
        },
        {
          "type": "Feature",
          "properties": {
            "id": "4629104321",
            "osm_type": "node",
            "lat": 47.4229455,
            "lon": 13.8753656,
            "addr:city": "Michaelerberg-Pruggern",
            "addr:country": "AT",
            "addr:housenumber": "34",
            "addr:place": "Pruggern",
            "addr:postcode": "8965",
            "amenity": "library",
            "at_bev:addr_date": "2017-10-01",
            "description": "Öffentliche Bücherei der Gemeinde Pruggern"
          },
          "geometry": {
            "type": "Point",
            "coordinates": [
              13.8753656,
              47.4229455
            ]
          }
        },
        {
          "type": "Feature",
          "properties": {
            "id": "4629104322",
            "osm_type": "node",
            "lat": 47.4446199,
            "lon": 13.9038044,
            "addr:city": "Gröbming",
            "addr:housenumber": "15",
            "addr:postcode": "8962",
            "addr:street": "Kirchplatz",
            "amenity": "library",
            "description": "Bücherei der Marktgemeinde Gröbming"
          },
          "geometry": {
            "type": "Point",
            "coordinates": [
              13.9038044,
              47.4446199
            ]
          }
        },
        {
          "type": "Feature",
          "properties": {
            "id": "4803548752",
            "osm_type": "node",
            "lat": 47.4103137,
            "lon": 13.7685834,
            "addr:city": "Haus",
            "addr:housenumber": "189",
            "addr:postcode": "8967",
            "addr:street": "Schloßplatz",
            "amenity": "library",
            "description": "Ehem. Getreidekasten, heute Bücherei",
            "name": "Gemeindebücherei",
            "opening_hours": "Fr 17:00-19:00",
            "related:wikipedia": "de:Liste der denkmalgeschützten Objekte in Haus (Steiermark)"
          },
          "geometry": {
            "type": "Point",
            "coordinates": [
              13.7685834,
              47.4103137
            ]
          }
        },
        {
          "type": "Feature",
          "properties": {
            "id": "10811601706",
            "osm_type": "node",
            "lat": 47.6107722,
            "lon": 13.7835474,
            "amenity": "library",
            "building": "yes",
            "name": "Bücherei und Ludothek",
            "opening_hours": "Tu 08:00-11:00,17:00-19:00; Th 09:00-11:00; Fr 14:00-17:00"
          },
          "geometry": {
            "type": "Point",
            "coordinates": [
              13.7835474,
              47.6107722
            ]
          }
        },
        {
          "type": "Feature",
          "properties": {
            "id": "2255356328",
            "osm_type": "node",
            "lat": 47.3829711,
            "lon": 14.1179216,
            "addr:postcode": "8953",
            "amenity": "library",
            "name": "Bibliothek Donnersbachwald"
          },
          "geometry": {
            "type": "Point",
            "coordinates": [
              14.1179216,
              47.3829711
            ]
          }
        },
        {
          "type": "Feature",
          "properties": {
            "id": "4631920790",
            "osm_type": "node",
            "lat": 47.5261938,
            "lon": 14.2634847,
            "addr:city": "Lassing",
            "addr:country": "AT",
            "addr:housenumber": "5",
            "addr:place": "Lassing",
            "addr:postcode": "8903",
            "amenity": "library",
            "name": "Öffentliche Bücherei Lassing"
          },
          "geometry": {
            "type": "Point",
            "coordinates": [
              14.2634847,
              47.5261938
            ]
          }
        },
        {
          "type": "Feature",
          "properties": {
            "id": "4632085704",
            "osm_type": "node",
            "lat": 47.5339095,
            "lon": 14.1074052,
            "addr:city": "Stainach",
            "addr:housenumber": "27",
            "addr:postcode": "8950",
            "addr:street": "Hauptplatz",
            "amenity": "library",
            "description": "Öffentliche Bücherei Stainach-Pürgg"
          },
          "geometry": {
            "type": "Point",
            "coordinates": [
              14.1074052,
              47.5339095
            ]
          }
        }
      ],
      "children": []
    },
    {
      "bbox": {
        "south": 47.36431175,
        "west": 14.2994695,
        "north": 47.694865,
        "east": 15.253173
      },
      "poiCount": 16,
      "leafCount": 16,
      "averagePosition": [
        14.743212125,
        47.50379411875
      ],
      "data": [
        {
          "type": "Feature",
          "properties": {
            "id": "296452808",
            "osm_type": "node",
            "lat": 47.5744869,
            "lon": 14.4633929,
            "amenity": "library",
            "name": "Stiftsbibliothek Admont",
            "tourism": "museum",
            "website": "https://www.stiftadmont.at/",
            "wheelchair": "yes",
            "wikidata": "Q304668",
            "wikipedia": "de:Stiftsbibliothek Admont"
          },
          "geometry": {
            "type": "Point",
            "coordinates": [
              14.4633929,
              47.5744869
            ]
          }
        },
        {
          "type": "Feature",
          "properties": {
            "id": "4471361140",
            "osm_type": "node",
            "lat": 47.5760454,
            "lon": 14.4608725,
            "addr:city": "Admont",
            "addr:country": "AT",
            "addr:postcode": "8911",
            "amenity": "library",
            "name": "Gemeindebücherei Admont"
          },
          "geometry": {
            "type": "Point",
            "coordinates": [
              14.4608725,
              47.5760454
            ]
          }
        },
        {
          "type": "Feature",
          "properties": {
            "id": "4631920792",
            "osm_type": "node",
            "lat": 47.525468,
            "lon": 14.3580657,
            "addr:city": "Rottenmann",
            "addr:housenumber": "56",
            "addr:postcode": "8786",
            "addr:street": "Hauptstraße",
            "amenity": "library",
            "description": "Stadtbücherei Rottenmann"
          },
          "geometry": {
            "type": "Point",
            "coordinates": [
              14.3580657,
              47.525468
            ]
          }
        },
        {
          "type": "Feature",
          "properties": {
            "id": "6278280095",
            "osm_type": "node",
            "lat": 47.4878893,
            "lon": 14.4872826,
            "amenity": "library",
            "name": "Bücherei Stadtgemeinde Trieben"
          },
          "geometry": {
            "type": "Point",
            "coordinates": [
              14.4872826,
              47.4878893
            ]
          }
        },
        {
          "type": "Feature",
          "properties": {
            "id": "6452706727",
            "osm_type": "node",
            "lat": 47.5486802,
            "lon": 14.310033,
            "addr:city": "Selzthal",
            "addr:country": "AT",
            "addr:housenumber": "7",
            "addr:postcode": "8900",
            "addr:street": "Hauptstraße",
            "amenity": "library",
            "at_bev:addr_date": "2018-10-01",
            "description": "Öffentliche Bücherei der Gemeinde Selzthal",
            "name": "7",
            "was:addr:housenumber": "37",
            "was:addr:place": "Selzthal"
          },
          "geometry": {
            "type": "Point",
            "coordinates": [
              14.310033,
              47.5486802
            ]
          }
        },
        {
          "type": "Feature",
          "properties": {
            "id": "1344333081",
            "osm_type": "node",
            "lat": 47.5415583,
            "lon": 14.8886989,
            "amenity": "library",
            "name": "Stadtbücherei"
          },
          "geometry": {
            "type": "Point",
            "coordinates": [
              14.8886989,
              47.5415583
            ]
          }
        },
        {
          "type": "Feature",
          "properties": {
            "id": "4631764061",
            "osm_type": "node",
            "lat": 47.4268995,
            "lon": 14.7552665,
            "addr:housenumber": "91",
            "addr:place": "Kalwang",
            "addr:postcode": "8775",
            "amenity": "library",
            "description": "Öffentliche Bibliothek der Marktgemeinde und Pfarre Kalwang"
          },
          "geometry": {
            "type": "Point",
            "coordinates": [
              14.7552665,
              47.4268995
            ]
          }
        },
        {
          "type": "Feature",
          "properties": {
            "id": "4631764062",
            "osm_type": "node",
            "lat": 47.398324,
            "lon": 14.8241953,
            "addr:city": "Mautern in Steiermark",
            "addr:housenumber": "7a",
            "addr:postcode": "8774",
            "addr:street": "Klostergasse",
            "amenity": "library",
            "description": "Öffentliche und Schulbücherei Mautern",
            "name": "Öffentliche Bücherei in der MS Mautern"
          },
          "geometry": {
            "type": "Point",
            "coordinates": [
              14.8241953,
              47.398324
            ]
          }
        },
        {
          "type": "Feature",
          "properties": {
            "id": "4631836138",
            "osm_type": "node",
            "lat": 47.6899536,
            "lon": 14.6163624,
            "addr:city": "Sankt Gallen",
            "addr:housenumber": "220",
            "addr:place": "Oberer Markt",
            "addr:postcode": "8933",
            "amenity": "library",
            "name": "Öffentliche Bücherei St.Gallen"
          },
          "geometry": {
            "type": "Point",
            "coordinates": [
              14.6163624,
              47.6899536
            ]
          }
        },
        {
          "type": "Feature",
          "properties": {
            "id": "4631836139",
            "osm_type": "node",
            "lat": 47.6042377,
            "lon": 14.745437,
            "addr:city": "Hieflau",
            "addr:housenumber": "6",
            "addr:postcode": "8920",
            "addr:street": "Gries",
            "amenity": "library",
            "description": "Gemeindebücherei Hieflau"
          },
          "geometry": {
            "type": "Point",
            "coordinates": [
              14.745437,
              47.6042377
            ]
          }
        },
        {
          "type": "Feature",
          "properties": {
            "id": "4631836140",
            "osm_type": "node",
            "lat": 47.4913122,
            "lon": 14.5466322,
            "addr:housenumber": "59",
            "addr:place": "Gaishorn am See",
            "addr:postcode": "8783",
            "amenity": "library",
            "description": "Öffentliche Bücherei der Marktgemeinde Gaishorn",
            "name": "Bücherei",
            "opening_hours": "Tu, Th 16:00-17:00"
          },
          "geometry": {
            "type": "Point",
            "coordinates": [
              14.5466322,
              47.4913122
            ]
          }
        },
        {
          "type": "Feature",
          "properties": {
            "id": "5296314921",
            "osm_type": "node",
            "lat": 47.4259409,
            "lon": 15.00772,
            "addr:city": "Trofaiach",
            "addr:country": "AT",
            "addr:housenumber": "11",
            "addr:postcode": "8793",
            "addr:street": "Luchinettigasse",
            "amenity": "library",
            "at_bev:addr_date": "2019-10-01",
            "contact:phone": "+43 3847 8127",
            "name": "Stadtbücherei Trofaiach",
            "opening_hours": "Mo, We 07:00-12:00; Tu 13:00-18:00; Th 11:00-19:00",
            "wikidata": "Q55469031"
          },
          "geometry": {
            "type": "Point",
            "coordinates": [
              15.00772,
              47.4259409
            ]
          }
        },
        {
          "type": "Feature",
          "properties": {
            "id": "4632247885",
            "osm_type": "node",
            "lat": 47.5330888,
            "lon": 15.0790145,
            "addr:city": "Tragöß-Sankt Katharein",
            "addr:country": "AT",
            "addr:housenumber": "14",
            "addr:place": "Oberort",
            "addr:postcode": "8612",
            "amenity": "library",
            "at_bev:addr_date": "2018-10-01",
            "description": "Öffentliche Bücherei der Pfarre und Gemeinde Tragöß"
          },
          "geometry": {
            "type": "Point",
            "coordinates": [
              15.0790145,
              47.5330888
            ]
          }
        },
        {
          "type": "Feature",
          "properties": {
            "id": "4632250463",
            "osm_type": "node",
            "lat": 47.4713037,
            "lon": 15.1628708,
            "addr:housenumber": "11",
            "addr:place": "Sankt Katharein an der Laming",
            "addr:postcode": "8611",
            "amenity": "library",
            "description": "Gemeindebücherei Hollerbusch"
          },
          "geometry": {
            "type": "Point",
            "coordinates": [
              15.1628708,
              47.4713037
            ]
          }
        },
        {
          "type": "Feature",
          "properties": {
            "id": "6975079576",
            "osm_type": "node",
            "lat": 47.3849232,
            "lon": 15.093806,
            "addr:city": "Leoben",
            "addr:housenumber": "18",
            "addr:postcode": "8700",
            "addr:street": "Franz Josef-Straße",
            "alt_name": "Universitätsbibliothek",
            "amenity": "library",
            "contact:email": "univbibl@unileoben.ac.at",
            "contact:phone": "+43 3842 402 7801",
            "contact:website": "https://bibliothek.unileoben.ac.at/",
            "name": "Hauptbibliothek",
            "name:de": "Hauptbibliothek",
            "name:en": "Main Campus Library",
            "operator": "Montanuniversität Leoben",
            "ref:isil": "AT-UBMUL-HB",
            "short_name": "UB Leoben"
          },
          "geometry": {
            "type": "Point",
            "coordinates": [
              15.093806,
              47.3849232
            ]
          }
        },
        {
          "type": "Feature",
          "properties": {
            "id": "12597006338",
            "osm_type": "node",
            "lat": 47.3805942,
            "lon": 15.0917437,
            "addr:city": "Leoben",
            "addr:housenumber": "1",
            "addr:postcode": "8700",
            "addr:street": "Leopoldine-Pohl-Platz",
            "amenity": "library",
            "email": "stadtbibliothek@leoben.at",
            "name": "Stadt­bi­blio­thek",
            "opening_hours": "Tu-Fr 09:00-17:00; PH off",
            "operator": "Stadtgemeinde Leoben",
            "operator:type": "public",
            "phone": "+43 3842 4062 308",
            "website": "https://kulturquartier.leoben.at/stadtbibliothek/"
          },
          "geometry": {
            "type": "Point",
            "coordinates": [
              15.0917437,
              47.3805942
            ]
          }
        }
      ],
      "children": []
    }
  ]
}