{
  "bbox": {
    "south": 47.694865,
    "west": 9.530952,
    "north": 48.355971499999995,
    "east": 11.438358999999998
  },
  "poiCount": 154,
  "leafCount": 0,
  "averagePosition": [
    10.526671885714288,
    48.04777607662338
  ],
  "data": [],
  "children": [
    {
      "bbox": {
        "south": 47.694865,
        "west": 9.530952,
        "north": 48.02541825,
        "east": 10.484655499999999
      },
      "poiCount": 39,
      "leafCount": 39,
      "averagePosition": [
        10.052512623076924,
        47.84634282820513
      ],
      "data": [
        {
          "type": "Feature",
          "properties": {
            "id": "1600830758",
            "osm_type": "node",
            "lat": 47.7812262,
            "lon": 9.6094198,
            "amenity": "library",
            "description": "Stadtbücherei",
            "email": "stadtbuecherei@ravensburg.de",
            "fax": "+49 751 82 356",
            "internet_access:fee": "no",
            "name": "Stadtbücherei",
            "old_name": "Stadtbücherei im Kornhaus",
            "opening_hours": "Tu-Fr 10:00-18:00; Sa 10:00-14:00",
            "operator": "Stadt Ravensburg",
            "phone": "+49 751 82 340",
            "toilets:wheelchair": "yes",
            "website": "http://www.opac.ravensburg.de",
            "wheelchair": "yes"
          },
          "geometry": {
            "type": "Point",
            "coordinates": [
              9.6094198,
              47.7812262
            ]
          }
        },
        {
          "type": "Feature",
          "properties": {
            "id": "1839850599",
            "osm_type": "node",
            "lat": 47.8546051,
            "lon": 9.896686,
            "amenity": "library",
            "name": "Bücherei",
            "opening_hours": "Mo,Fr 08:00-12:00; We 08:00-13:00; Tu,Th 15:00-18:00"
          },
          "geometry": {
            "type": "Point",
            "coordinates": [
              9.896686,
              47.8546051
            ]
          }
        },
        {
          "type": "Feature",
          "properties": {
            "id": "1845394340",
            "osm_type": "node",
            "lat": 47.7572572,
            "lon": 9.712077,
            "addr:city": "Waldburg",
            "addr:housenumber": "20",
            "addr:postcode": "88289",
            "addr:street": "Hauptstraße",
            "amenity": "library",
            "name": "Gemeindebibliothek",
            "opening_hours": "Mo,We 09:00-12:00; Tu 15:00-18:00; Fr 14:00-17:00",
            "phone": "+49 7529 9717-0",
            "wheelchair": "yes"
          },
          "geometry": {
            "type": "Point",
            "coordinates": [
              9.712077,
              47.7572572
            ]
          }
        },
        {
          "type": "Feature",
          "properties": {
            "id": "3786629377",
            "osm_type": "node",
            "lat": 47.8282137,
            "lon": 9.6503174,
            "amenity": "library",
            "name": "Gemeindebücherei",
            "name:de": "Gemeindebücherei",
            "opening_hours": "Mo,Fr 15:00-18:00",
            "wheelchair": "yes"
          },
          "geometry": {
            "type": "Point",
            "coordinates": [
              9.6503174,
              47.8282137
            ]
          }
        },
        {
          "type": "Feature",
          "properties": {
            "id": "5035713738",
            "osm_type": "node",
            "lat": 47.7792009,
            "lon": 9.5717472,
            "amenity": "library"
          },
          "geometry": {
            "type": "Point",
            "coordinates": [
              9.5717472,
              47.7792009
            ]
          }
        },
        {
          "type": "Feature",
          "properties": {
            "id": "5043327345",
            "osm_type": "node",
            "lat": 47.796585,
            "lon": 9.6308013,
            "addr:city": "Ravensburg",
            "addr:housenumber": "77",
            "addr:postcode": "88212",
            "addr:street": "St.-Martinus-Straße",
            "amenity": "library",
            "level": "1",
            "name": "Kreismedienzentrum",
            "phone": "+49 751 368 400",
            "website": "https://kreismedienzentrum.de/"
          },
          "geometry": {
            "type": "Point",
            "coordinates": [
              9.6308013,
              47.796585
            ]
          }
        },
        {
          "type": "Feature",
          "properties": {
            "id": "5418373203",
            "osm_type": "node",
            "lat": 47.7431378,
            "lon": 9.6534256,
            "addr:city": "Grünkraut",
            "addr:housenumber": "2",
            "addr:postcode": "88287",
            "addr:street": "Scherzachstr.",
            "amenity": "library",
            "link": "https://www.gruenkraut.de/Startseite/Familie+_+Soziales/Buecherei+Online.html",
            "name": "Kath. Öffentliche Bücherei St. Gallus",
            "opening_hours": "Mo 16:00-18:00; We 17:00-19:00; Th 18:00-20:00; Fr 16:00-18:00",
            "wheelchair": "limited"
          },
          "geometry": {
            "type": "Point",
            "coordinates": [
              9.6534256,
              47.7431378
            ]
          }
        },
        {
          "type": "Feature",
          "properties": {
            "id": "5461804013",
            "osm_type": "node",
            "lat": 47.8077601,
            "lon": 9.6452799,
            "addr:city": "Weingarten",
            "addr:housenumber": "2",
            "addr:postcode": "88250",
            "addr:street": "Kirchplatz",
            "amenity": "library",
            "internet_access": "yes",
            "internet_access:fee": "no",
            "name": "Hochschulbiliothek Weingarten",
            "opening_hours": "Mo,Tu,Th,Fr 10:00-15:00; We 13:00-18:00",
            "operator": "Pädagogische Hochschule wWeingarten und Hochschule Ravensburg - Weingarten",
            "website": "http://bibliothek.ph-weingarten.de/",
            "wikidata": "Q28733474"
          },
          "geometry": {
            "type": "Point",
            "coordinates": [
              9.6452799,
              47.8077601
            ]
          }
        },
        {
          "type": "Feature",
          "properties": {
            "id": "10264937186",
            "osm_type": "node",
            "lat": 47.7103603,
            "lon": 9.6924507,
            "addr:city": "Bodnegg",
            "addr:housenumber": "34",
            "addr:postcode": "88285",
            "addr:street": "Dorfstraße",
            "amenity": "library",
            "name": "Bücherei Bodnegg",
            "operator": "Gemeinde Bodnegg und kath.Kirchengemeinde St:Ulrich und Magnus",
            "operator:type": "public",
            "website": "https://www.buecherei-bodnegg.de/"
          },
          "geometry": {
            "type": "Point",
            "coordinates": [
              9.6924507,
              47.7103603
            ]
          }
        },
        {
          "type": "Feature",
          "properties": {
            "id": "310247046",
            "osm_type": "node",
            "lat": 47.7454535,
            "lon": 10.2323236,
            "amenity": "library",
            "check_date:opening_hours": "2025-09-15",
            "name": "Bücherei Wiggensbach",
            "opening_hours": "We,Th 16:00-19:00; Su 09:30-11:30"
          },
          "geometry": {
            "type": "Point",
            "coordinates": [
              10.2323236,
              47.7454535
            ]
          }
        },
        {
          "type": "Feature",
          "properties": {
            "id": "441936515",
            "osm_type": "node",
            "lat": 47.7302758,
            "lon": 10.3133448,
            "amenity": "library",
            "check_date:opening_hours": "2025-05-29",
            "name": "Stadtbibliothek Kempten",
            "opening_hours": "Tu-Fr 10:00-18:00; Sa 10:00-13:00",
            "ref:isil": "DE-145",
            "wikidata": "Q28683522"
          },
          "geometry": {
            "type": "Point",
            "coordinates": [
              10.3133448,
              47.7302758
            ]
          }
        },
        {
          "type": "Feature",
          "properties": {
            "id": "679239729",
            "osm_type": "node",
            "lat": 47.7805339,
            "lon": 10.312259,
            "addr:city": "Lauben",
            "addr:country": "DE",
            "addr:housenumber": "18a",
            "addr:postcode": "87493",
            "addr:street": "Sportplatzstraße",
            "amenity": "library",
            "name": "Gemeindebücherei Lauben"
          },
          "geometry": {
            "type": "Point",
            "coordinates": [
              10.312259,
              47.7805339
            ]
          }
        },
        {
          "type": "Feature",
          "properties": {
            "id": "683397709",
            "osm_type": "node",
            "lat": 47.7274403,
            "lon": 10.3392013,
            "addr:city": "Kempten (Allgäu)",
            "addr:country": "DE",
            "addr:housenumber": "3",
            "addr:postcode": "87437",
            "addr:street": "Franziskanerplatz",
            "amenity": "library",
            "name": "Pfarrbücherei Sankt Magnus"
          },
          "geometry": {
            "type": "Point",
            "coordinates": [
              10.3392013,
              47.7274403
            ]
          }
        },
        {
          "type": "Feature",
          "properties": {
            "id": "849586248",
            "osm_type": "node",
            "lat": 47.7792983,
            "lon": 10.3601617,
            "addr:city": "Haldenwang",
            "addr:country": "DE",
            "addr:housenumber": "6",
            "addr:postcode": "87490",
            "addr:street": "Wagegger Straße",
            "addr:suburb": "Börwang",
            "amenity": "library",
            "name": "Pfarrbücherei Börwang",
            "opening_hours": "Mo 17:00-18:00; Th 16:00-17:00",
            "wikidata": "Q28734649"
          },
          "geometry": {
            "type": "Point",
            "coordinates": [
              10.3601617,
              47.7792983
            ]
          }
        },
        {
          "type": "Feature",
          "properties": {
            "id": "849586251",
            "osm_type": "node",
            "lat": 47.8025424,
            "lon": 10.3457326,
            "addr:city": "Haldenwang",
            "addr:housenumber": "29",
            "addr:postcode": "87490",
            "addr:street": "Hauptstraße",
            "amenity": "library",
            "name": "Gemeindebücherei Haldenwang",
            "opening_hours": "Mo 15:30-19:00; We 15:30-19:00",
            "wheelchair": "no"
          },
          "geometry": {
            "type": "Point",
            "coordinates": [
              10.3457326,
              47.8025424
            ]
          }
        },
        {
          "type": "Feature",
          "properties": {
            "id": "945891112",
            "osm_type": "node",
            "lat": 47.7497541,
            "lon": 10.2830297,
            "amenity": "library",
            "name": "Bücherei Heiligkreuz",
            "website": "http://www.buecherei-heiligkreuz.de",
            "wheelchair": "no"
          },
          "geometry": {
            "type": "Point",
            "coordinates": [
              10.2830297,
              47.7497541
            ]
          }
        },
        {
          "type": "Feature",
          "properties": {
            "id": "985247888",
            "osm_type": "node",
            "lat": 47.7666357,
            "lon": 10.4014357,
            "amenity": "library",
            "email": "buecherei.wildpoldsried@t-online.de",
            "image": "https://commons.wikimedia.org/wiki/File:Wildpoldsried_Pfarrhaus.jpg",
            "name": "Gemeindebücherei Wildpoldsried",
            "opening_hours": "Mo 15:30-17:30; Tu 16:30-18:30; Th 16:30-18:30",
            "phone": "+49 (0)8304 1355",
            "website": "https://www.wildpoldsried.de/index.shtml?buecherei",
            "wikidata": "Q28729529",
            "wikimedia_commons": "File:Wildpoldsried_Pfarrhaus.jpg"
          },
          "geometry": {
            "type": "Point",
            "coordinates": [
              10.4014357,
              47.7666357
            ]
          }
        },
        {
          "type": "Feature",
          "properties": {
            "id": "1730667877",
            "osm_type": "node",
            "lat": 47.6964872,
            "lon": 10.2365168,
            "amenity": "library",
            "name": "Gemeindebücherei Buchenberg",
            "website": "https://www.buchenberg.de/unsere_gemeinde/buecherei.htm"
          },
          "geometry": {
            "type": "Point",
            "coordinates": [
              10.2365168,
              47.6964872
            ]
          }
        },
        {
          "type": "Feature",
          "properties": {
            "id": "1822960334",
            "osm_type": "node",
            "lat": 47.8052039,
            "lon": 10.2893381,
            "amenity": "library",
            "name": "Bücherei Dietmannsried",
            "website": "http://buecherei.dietmannsried.de",
            "wikidata": "Q28739185"
          },
          "geometry": {
            "type": "Point",
            "coordinates": [
              10.2893381,
              47.8052039
            ]
          }
        },
        {
          "type": "Feature",
          "properties": {
            "id": "2434093160",
            "osm_type": "node",
            "lat": 47.803739,
            "lon": 10.2165119,
            "addr:city": "Altusried",
            "addr:housenumber": "15",
            "addr:postcode": "87452",
            "addr:street": "Kemptener Straße",
            "amenity": "library",
            "internet_access": "no",
            "name": "Bücherei Altusried",
            "opening_hours": "Mo 16:00-19:00; We 14:30-16:30; Fr 14:30-16:30",
            "operator": "Markt Altusried",
            "operator:type": "public",
            "website": "https://www.altusried.de/de/freizeit/buecherei"
          },
          "geometry": {
            "type": "Point",
            "coordinates": [
              10.2165119,
              47.803739
            ]
          }
        },
        {
          "type": "Feature",
          "properties": {
            "id": "7512804356",
            "osm_type": "node",
            "lat": 47.8450182,
            "lon": 10.42155,
            "amenity": "library",
            "contact:email": "buecherei.oberguenzburg@t-online.de",
            "contact:fax": "+49 8372 922686",
            "contact:phone": "+49 8372 922676",
            "contact:website": "https://www.buecherei-oberguenzburg.de/",
            "name": "Öffentliche Bücherei",
            "opening_hours": "We,Fr 17:00-18:30; Su 10:00-12:00",
            "wikidata": "Q28734688"
          },
          "geometry": {
            "type": "Point",
            "coordinates": [
              10.42155,
              47.8450182
            ]
          }
        },
        {
          "type": "Feature",
          "properties": {
            "id": "9525074400",
            "osm_type": "node",
            "lat": 47.7136957,
            "lon": 10.3298176,
            "amenity": "library",
            "historic": "castle",
            "name": "Stadtteilbücherei St. Mang",
            "opening_hours": "Mo,We,Fr 14:00-17:30",
            "phone": "+49 831 65394",
            "website": "https://bibliothek.kempten.de/",
            "wikidata": "Q1465951",
            "wikipedia": "de:Rotschlößle"
          },
          "geometry": {
            "type": "Point",
            "coordinates": [
              10.3298176,
              47.7136957
            ]
          }
        },
        {
          "type": "Feature",
          "properties": {
            "id": "11261056031",
            "osm_type": "node",
            "lat": 47.734818,
            "lon": 10.3806659,
            "amenity": "library",
            "name": "Bücherei Betzigau",
            "opening_hours": "Tu 09:00-11:00; We 17:00-19:15; PH unknown; Fr 16:00-18:00; Su 10:00-12:00",
            "operator": "Gemeinde Beetzigau",
            "toilets": "yes",
            "toilets:access": "customers"
          },
          "geometry": {
            "type": "Point",
            "coordinates": [
              10.3806659,
              47.734818
            ]
          }
        },
        {
          "type": "Feature",
          "properties": {
            "id": "1937905508",
            "osm_type": "node",
            "lat": 47.9208685,
            "lon": 9.7558042,
            "addr:city": "Bad Waldsee",
            "addr:country": "DE",
            "addr:housenumber": "2",
            "addr:postcode": "88339",
            "addr:street": "Spitalhof",
            "amenity": "library",
            "email": "mail@stadtbuecherei-bad-waldsee.de",
            "name": "Bücherei",
            "opening_hours": "Tu 09:00-18:00; We,Th 10:00-12:00,14:00-18:00; Fr 10:00-12:00,14:00-19:00; Sa 10:00-13:30",
            "phone": "+49 7524 49857",
            "toilets:wheelchair": "yes",
            "website": "https://stadtbuecherei.bad-waldsee.de/",
            "wheelchair": "yes",
            "wikidata": "Q28662050"
          },
          "geometry": {
            "type": "Point",
            "coordinates": [
              9.7558042,
              47.9208685
            ]
          }
        },
        {
          "type": "Feature",
          "properties": {
            "id": "2181157215",
            "osm_type": "node",
            "lat": 47.954212,
            "lon": 9.6397406,
            "amenity": "library",
            "description": "Katholische öffentliche Bücherei",
            "name": "Kath. öffentliche Bücherei Aulendorf",
            "opening_hours": "We 14:00-17:00; Th 17:00-18:00; Su 10:30-11:30; PH off",
            "wheelchair": "yes"
          },
          "geometry": {
            "type": "Point",
            "coordinates": [
              9.6397406,
              47.954212
            ]
          }
        },
        {
          "type": "Feature",
          "properties": {
            "id": "3029740400",
            "osm_type": "node",
            "lat": 48.007485,
            "lon": 9.6582243,
            "amenity": "library",
            "name": "Klostermuseum und Bibliothekssaal",
            "toilets:wheelchair": "yes",
            "tourism": "museum",
            "website": "https://www.kloster-schussenried.de",
            "wheelchair": "yes"
          },
          "geometry": {
            "type": "Point",
            "coordinates": [
              9.6582243,
              48.007485
            ]
          }
        },
        {
          "type": "Feature",
          "properties": {
            "id": "5322200803",
            "osm_type": "node",
            "lat": 48.0134719,
            "lon": 10.0307236,
            "amenity": "library",
            "name": "Katholische Öffentliche Bücherei St. Verena"
          },
          "geometry": {
            "type": "Point",
            "coordinates": [
              10.0307236,
              48.0134719
            ]
          }
        },
        {
          "type": "Feature",
          "properties": {
            "id": "6937553663",
            "osm_type": "node",
            "lat": 47.9154277,
            "lon": 9.7547539,
            "amenity": "library",
            "name": "Schülerbibliothek"
          },
          "geometry": {
            "type": "Point",
            "coordinates": [
              9.7547539,
              47.9154277
            ]
          }
        },
        {
          "type": "Feature",
          "properties": {
            "id": "9880755235",
            "osm_type": "node",
            "lat": 47.909788,
            "lon": 9.8997422,
            "amenity": "library",
            "name": "Stadtbücherei Bad Wurzach",
            "opening_hours": "Tu 10:00-12:00,14:00-18:00, We 14:00-18:00, Th 10:00-18:00, Fr 14:00-18:00, Sa 10:00-12:00",
            "ref:isil": "DE-1904",
            "website": "https://www.bad-wurzach.de/stadt/de/bildung-betreuung/stadtbuecherei"
          },
          "geometry": {
            "type": "Point",
            "coordinates": [
              9.8997422,
              47.909788
            ]
          }
        },
        {
          "type": "Feature",
          "properties": {
            "id": "9880760506",
            "osm_type": "node",
            "lat": 48.0240695,
            "lon": 9.9531383,
            "amenity": "library",
            "name": "Bücherei Steinhausen",
            "official_name": "Katholische öffentliche Bücherei Steinhausen",
            "opening_hours": "We 15:00-17:00",
            "short_name": "KÖB Steinhausen",
            "website": "https://st-benedikt-ochsenhausen.drs.de/buecherei.html"
          },
          "geometry": {
            "type": "Point",
            "coordinates": [
              9.9531383,
              48.0240695
            ]
          }
        },
        {
          "type": "Feature",
          "properties": {
            "id": "9880861818",
            "osm_type": "node",
            "lat": 47.8911484,
            "lon": 9.9723839,
            "amenity": "library",
            "fee": "no",
            "name": "Bücherei",
            "official_name": "Katholische öffentliche Bücherei",
            "opening_hours": "Tu, Fr 16:00-17:00",
            "website": "https://www.seelsorgeeinheit-badwurzach.de/kirchengemeinden/seibranz/buecherei.php"
          },
          "geometry": {
            "type": "Point",
            "coordinates": [
              9.9723839,
              47.8911484
            ]
          }
        },
        {
          "type": "Feature",
          "properties": {
            "id": "387872259",
            "osm_type": "node",
            "lat": 47.9886311,
            "lon": 10.1591678,
            "amenity": "library",
            "name": "Zweigstelle Stadtbibliothek"
          },
          "geometry": {
            "type": "Point",
            "coordinates": [
              10.1591678,
              47.9886311
            ]
          }
        },
        {
          "type": "Feature",
          "properties": {
            "id": "390512784",
            "osm_type": "node",
            "lat": 47.9850877,
            "lon": 10.1784378,
            "amenity": "library",
            "check_date": "2025-02-08",
            "check_date:opening_hours": "2025-02-08",
            "name": "Stadtbibliothek",
            "opening_hours": "Tu 10:00-17:30; We-Fr 11:00-17:30; Sa 10:00-13:00",
            "wheelchair": "yes"
          },
          "geometry": {
            "type": "Point",
            "coordinates": [
              10.1784378,
              47.9850877
            ]
          }
        },
        {
          "type": "Feature",
          "properties": {
            "id": "479324871",
            "osm_type": "node",
            "lat": 48.0245786,
            "lon": 10.2580395,
            "amenity": "library",
            "name": "Bücherei"
          },
          "geometry": {
            "type": "Point",
            "coordinates": [
              10.2580395,
              48.0245786
            ]
          }
        },
        {
          "type": "Feature",
          "properties": {
            "id": "1902727544",
            "osm_type": "node",
            "lat": 47.8773324,
            "lon": 10.219212,
            "amenity": "library",
            "name": "Gemeinde- und Kurbücherei"
          },
          "geometry": {
            "type": "Point",
            "coordinates": [
              10.219212,
              47.8773324
            ]
          }
        },
        {
          "type": "Feature",
          "properties": {
            "id": "2225460605",
            "osm_type": "node",
            "lat": 47.9505851,
            "lon": 10.3974114,
            "amenity": "library",
            "name": "Gemeindebücherei"
          },
          "geometry": {
            "type": "Point",
            "coordinates": [
              10.3974114,
              47.9505851
            ]
          }
        },
        {
          "type": "Feature",
          "properties": {
            "id": "3694137389",
            "osm_type": "node",
            "lat": 48.0168495,
            "lon": 10.3015003,
            "amenity": "library",
            "check_date": "2024-09-05",
            "name": "Bücherei Westerheim",
            "opening_hours": "Tu 18:30-19:30;Th 15:30-17:00 || \"Sonntag: 1 x im Monat nach dem Kleinkinder-Gottesdienst\"",
            "toilets:wheelchair": "no",
            "website": "https://meine-buecherei.de",
            "wheelchair": "no"
          },
          "geometry": {
            "type": "Point",
            "coordinates": [
              10.3015003,
              48.0168495
            ]
          }
        },
        {
          "type": "Feature",
          "properties": {
            "id": "5180245884",
            "osm_type": "node",
            "lat": 47.8926586,
            "lon": 10.2668498,
            "amenity": "library",
            "name": "Bücherei"
          },
          "geometry": {
            "type": "Point",
            "coordinates": [
              10.2668498,
              47.8926586
            ]
          }
        },
        {
          "type": "Feature",
          "properties": {
            "id": "6190868885",
            "osm_type": "node",
            "lat": 47.895934,
            "lon": 10.0787691,
            "addr:city": "Aichstetten",
            "addr:country": "DE",
            "addr:housenumber": "2",
            "addr:postcode": "88317",
            "addr:street": "Schulstraße",
            "amenity": "library",
            "name": "köb - Kath. öffentliche Bücherei St. Michael Aichstetten",
            "opening_hours": "Th 16:00-18:00; Su 10:30-12:00; Mo-We, Fr, Sa, PH off",
            "operator": "St. Michael"
          },
          "geometry": {
            "type": "Point",
            "coordinates": [
              10.0787691,
              47.895934
            ]
          }
        }
      ],
      "children": []
    },
    {
      "bbox": {
        "south": 47.694865,
        "west": 10.484655499999999,
        "north": 48.02541825,
        "east": 11.438358999999998
      },
      "poiCount": 31,
      "leafCount": 31,
      "averagePosition": [
        11.012013877419355,
        47.88002077096775
      ],
      "data": [
        {
          "type": "Feature",
          "properties": {
            "id": "817288706",
            "osm_type": "node",
            "lat": 47.7772315,
            "lon": 10.6152254,
            "amenity": "library",
            "name": "Stadtbücherei Martoberdorf",
            "wheelchair": "yes"
          },
          "geometry": {
            "type": "Point",
            "coordinates": [
              10.6152254,
              47.7772315
            ]
          }
        },
        {
          "type": "Feature",
          "properties": {
            "id": "4922524655",
            "osm_type": "node",
            "lat": 47.7360568,
            "lon": 10.9656279,
            "amenity": "library",
            "name": "Bücherei und Dorfmuseum",
            "opening_hours": "Mo 09:30-11:00; Tu 18:30-20:00; Su 10:45-11:30"
          },
          "geometry": {
            "type": "Point",
            "coordinates": [
              10.9656279,
              47.7360568
            ]
          }
        },
        {
          "type": "Feature",
          "properties": {
            "id": "5490491908",
            "osm_type": "node",
            "lat": 47.7393955,
            "lon": 10.6894103,
            "amenity": "library",
            "name": "Pfarr- und Gemeindebücherei",
            "opening_hours": "Th 15:30 - 18:00, Su 9:45 - 11:00",
            "operator": "Gemeinde Stötten",
            "wheelchair": "no"
          },
          "geometry": {
            "type": "Point",
            "coordinates": [
              10.6894103,
              47.7393955
            ]
          }
        },
        {
          "type": "Feature",
          "properties": {
            "id": "6150104074",
            "osm_type": "node",
            "lat": 47.8158653,
            "lon": 10.8975095,
            "amenity": "library"
          },
          "geometry": {
            "type": "Point",
            "coordinates": [
              10.8975095,
              47.8158653
            ]
          }
        },
        {
          "type": "Feature",
          "properties": {
            "id": "9379704790",
            "osm_type": "node",
            "lat": 47.7932326,
            "lon": 10.9308426,
            "amenity": "library",
            "email": "buecherei@peiting.de",
            "name": "Gemeinde- und Pfarrbücherei",
            "opening_hours": "Tu-We 09:30-11:00,15:00-18:00; Th 15:00-19:00",
            "phone": "+49 8861 59613",
            "website": "https://opac.winbiap.net/peiting/index.aspx"
          },
          "geometry": {
            "type": "Point",
            "coordinates": [
              10.9308426,
              47.7932326
            ]
          }
        },
        {
          "type": "Feature",
          "properties": {
            "id": "11750048760",
            "osm_type": "node",
            "lat": 47.8175034,
            "lon": 10.5353924,
            "amenity": "library",
            "email": "buecherei.aitrang@web.de",
            "name": "Gemeinde- und Pfarrbücherei Aitrang",
            "opening_hours": "Mo 15:00-19:00; Fr 15:00-17:30; Sa,Su,PH off",
            "phone": "08343 9228242"
          },
          "geometry": {
            "type": "Point",
            "coordinates": [
              10.5353924,
              47.8175034
            ]
          }
        },
        {
          "type": "Feature",
          "properties": {
            "id": "427102933",
            "osm_type": "node",
            "lat": 47.8383677,
            "lon": 11.1443899,
            "amenity": "library",
            "check_date": "2025-09-11",
            "name": "Stadtarchive Weilheim",
            "opening_hours": "Mo-Fr 08:00-12:30; Mo 14:00-18:00; Tu 14:00-16:00; Th 16:00-18:00",
            "ref": "Wel 1"
          },
          "geometry": {
            "type": "Point",
            "coordinates": [
              11.1443899,
              47.8383677
            ]
          }
        },
        {
          "type": "Feature",
          "properties": {
            "id": "1363752685",
            "osm_type": "node",
            "lat": 47.797433,
            "lon": 11.0617491,
            "amenity": "library",
            "designation": "Peißenbergs Public Libary",
            "name": "Bücherei Peißenberg",
            "source": "survey",
            "wikidata": "Q28734557"
          },
          "geometry": {
            "type": "Point",
            "coordinates": [
              11.0617491,
              47.797433
            ]
          }
        },
        {
          "type": "Feature",
          "properties": {
            "id": "1976376815",
            "osm_type": "node",
            "lat": 47.705376,
            "lon": 11.4152661,
            "addr:city": "Benediktbeuern",
            "addr:housenumber": "28",
            "addr:postcode": "83671",
            "addr:street": "Dorfstraße",
            "amenity": "library",
            "name": "Bücherei",
            "opening_hours": "Mo 17:30-18:30; We,Sa 15:00-17:00"
          },
          "geometry": {
            "type": "Point",
            "coordinates": [
              11.4152661,
              47.705376
            ]
          }
        },
        {
          "type": "Feature",
          "properties": {
            "id": "3267711455",
            "osm_type": "node",
            "lat": 47.7713794,
            "lon": 11.3199298,
            "addr:city": "Iffeldorf",
            "addr:housenumber": "9",
            "addr:postcode": "82393",
            "addr:street": "Hofmark",
            "amenity": "library",
            "name": "Gemeindebücherei Iffeldorf",
            "opening_hours": "Tu 09:00-11:00; Th 17:00-19:00",
            "operator": "Gemeinde Iffeldorf",
            "phone": "+49 8856 9019920"
          },
          "geometry": {
            "type": "Point",
            "coordinates": [
              11.3199298,
              47.7713794
            ]
          }
        },
        {
          "type": "Feature",
          "properties": {
            "id": "3410538457",
            "osm_type": "node",
            "lat": 47.7509726,
            "lon": 11.3773563,
            "addr:city": "Penzberg",
            "addr:country": "DE",
            "addr:housenumber": "23",
            "addr:postcode": "82377",
            "addr:street": "Karlstraße",
            "amenity": "library",
            "name": "Bücherei Penzberg",
            "opening_hours": "Tu,Fr 10:30-17:30; We,Sa 09:30-12:30; Th 10:30-19:00; Mo,Su,PH off",
            "operator": "Stadt Penzberg",
            "phone": "+49 8856 813750",
            "website": "https://www.buecherei-penzberg.de/",
            "wikidata": "Q28662235"
          },
          "geometry": {
            "type": "Point",
            "coordinates": [
              11.3773563,
              47.7509726
            ]
          }
        },
        {
          "type": "Feature",
          "properties": {
            "id": "7749827733",
            "osm_type": "node",
            "lat": 47.7064479,
            "lon": 11.2175051,
            "amenity": "library"
          },
          "geometry": {
            "type": "Point",
            "coordinates": [
              11.2175051,
              47.7064479
            ]
          }
        },
        {
          "type": "Feature",
          "properties": {
            "id": "2327919082",
            "osm_type": "node",
            "lat": 48.0014646,
            "lon": 10.5006526,
            "amenity": "library",
            "name": "Gemeindebücherei"
          },
          "geometry": {
            "type": "Point",
            "coordinates": [
              10.5006526,
              48.0014646
            ]
          }
        },
        {
          "type": "Feature",
          "properties": {
            "id": "656071762",
            "osm_type": "node",
            "lat": 47.9977959,
            "lon": 10.7774896,
            "addr:housenumber": "4",
            "addr:street": "Schulstraße",
            "amenity": "library",
            "name": "Gemeindebücherei Waal",
            "wikidata": "Q28729502"
          },
          "geometry": {
            "type": "Point",
            "coordinates": [
              10.7774896,
              47.9977959
            ]
          }
        },
        {
          "type": "Feature",
          "properties": {
            "id": "871088929",
            "osm_type": "node",
            "lat": 47.9137359,
            "lon": 10.6371393,
            "amenity": "library",
            "name": "Stadtbücherei Neugablonz",
            "wheelchair": "limited"
          },
          "geometry": {
            "type": "Point",
            "coordinates": [
              10.6371393,
              47.9137359
            ]
          }
        },
        {
          "type": "Feature",
          "properties": {
            "id": "2195020897",
            "osm_type": "node",
            "lat": 47.8771728,
            "lon": 10.6232603,
            "amenity": "library",
            "name": "Evangelisches Kirchenarchiv",
            "ref:isil": "DE-Kau2",
            "wikidata": "Q7470210"
          },
          "geometry": {
            "type": "Point",
            "coordinates": [
              10.6232603,
              47.8771728
            ]
          }
        },
        {
          "type": "Feature",
          "properties": {
            "id": "3244609557",
            "osm_type": "node",
            "lat": 47.9510036,
            "lon": 10.7155351,
            "amenity": "library",
            "name": "Bücherei Gutenberg"
          },
          "geometry": {
            "type": "Point",
            "coordinates": [
              10.7155351,
              47.9510036
            ]
          }
        },
        {
          "type": "Feature",
          "properties": {
            "id": "5879152358",
            "osm_type": "node",
            "lat": 47.9985415,
            "lon": 10.6755224,
            "amenity": "library",
            "name": "Bücherei St. Vitus Weicht"
          },
          "geometry": {
            "type": "Point",
            "coordinates": [
              10.6755224,
              47.9985415
            ]
          }
        },
        {
          "type": "Feature",
          "properties": {
            "id": "6411261580",
            "osm_type": "node",
            "lat": 47.8782515,
            "lon": 10.6232906,
            "amenity": "library",
            "fax": "+49 8341 43788907",
            "name": "Stadtbücherei Kaufbeuren",
            "opening_hours": "Tu 10:00-19:00; We-Fr 10:00-17:00",
            "phone": "+49 8341 9440 0",
            "ref:isil": "DE-440",
            "website": "https://www.kaufbeuren.de/desktopdefault.aspx/tabid-114",
            "wheelchair": "limited",
            "wikidata": "Q28661888"
          },
          "geometry": {
            "type": "Point",
            "coordinates": [
              10.6232906,
              47.8782515
            ]
          }
        },
        {
          "type": "Feature",
          "properties": {
            "id": "8903706618",
            "osm_type": "node",
            "lat": 48.004222,
            "lon": 10.5953112,
            "amenity": "library",
            "name": "Pfarrbücherei Benefiziat St. Justina",
            "wheelchair": "limited"
          },
          "geometry": {
            "type": "Point",
            "coordinates": [
              10.5953112,
              48.004222
            ]
          }
        },
        {
          "type": "Feature",
          "properties": {
            "id": "10573669739",
            "osm_type": "node",
            "lat": 47.8925635,
            "lon": 10.933093,
            "amenity": "library",
            "name": "Bücherei Apfeldorf-Kinsau"
          },
          "geometry": {
            "type": "Point",
            "coordinates": [
              10.933093,
              47.8925635
            ]
          }
        },
        {
          "type": "Feature",
          "properties": {
            "id": "300988996",
            "osm_type": "node",
            "lat": 47.9105538,
            "lon": 11.2769818,
            "addr:city": "Tutzing",
            "addr:country": "DE",
            "addr:housenumber": "9",
            "addr:postcode": "82327",
            "addr:street": "Kirchenstraße",
            "amenity": "library",
            "email": "mail@buecherei-tutzing.de",
            "name": "Gemeindebücherei Tutzing",
            "name:en": "Bücherei Tutzing",
            "phone": "+49 8158 250247",
            "ref": "DE-1314",
            "toilets:wheelchair": "no",
            "website": "http://www.buecherei-tutzing.de",
            "wheelchair": "limited",
            "wikidata": "Q28729318"
          },
          "geometry": {
            "type": "Point",
            "coordinates": [
              11.2769818,
              47.9105538
            ]
          }
        },
        {
          "type": "Feature",
          "properties": {
            "id": "325681926",
            "osm_type": "node",
            "lat": 47.9147162,
            "lon": 11.4196231,
            "addr:city": "Wolfratshausen",
            "addr:country": "DE",
            "addr:housenumber": "1",
            "addr:postcode": "82515",
            "addr:street": "Loisachufer",
            "amenity": "library",
            "name": "Stadtarchiv"
          },
          "geometry": {
            "type": "Point",
            "coordinates": [
              11.4196231,
              47.9147162
            ]
          }
        },
        {
          "type": "Feature",
          "properties": {
            "id": "330251519",
            "osm_type": "node",
            "lat": 47.914232,
            "lon": 11.4208577,
            "amenity": "library",
            "name": "Stadtbücherei Wolfratshausen",
            "opening_hours": "Tu 10:00-13:00; We 10:00-13:00,15:00-19:00; Th 10:00-13:00; Fr 10:00-18:00; Sa 10:00-12:00",
            "wikidata": "Q28662360"
          },
          "geometry": {
            "type": "Point",
            "coordinates": [
              11.4208577,
              47.914232
            ]
          }
        },
        {
          "type": "Feature",
          "properties": {
            "id": "823489110",
            "osm_type": "node",
            "lat": 47.9981224,
            "lon": 11.1696633,
            "addr:city": "Herrsching am Ammersee",
            "addr:country": "DE",
            "addr:housenumber": "4",
            "addr:postcode": "82211",
            "addr:street": "Madeleine-Ruoff-Straße",
            "amenity": "library",
            "check_date": "2024-10-18",
            "check_date:internet_access": "2024-10-18",
            "internet_access": "wlan",
            "name": "Gemeindebücherei",
            "opening_hours": "Mo,Sa-Su off; Tu 10:00-18:00; We 14:00-19:00; Th 10:00-12:00,14:00-18:00; Fr 14:00-18:00",
            "source": "survey"
          },
          "geometry": {
            "type": "Point",
            "coordinates": [
              11.1696633,
              47.9981224
            ]
          }
        },
        {
          "type": "Feature",
          "properties": {
            "id": "1439128513",
            "osm_type": "node",
            "lat": 47.9484869,
            "lon": 11.0991804,
            "addr:city": "Dießen am Ammersee",
            "addr:country": "DE",
            "addr:housenumber": "5",
            "addr:postcode": "86911",
            "addr:street": "Hofmark",
            "amenity": "library",
            "name": "Albert Teuto Bücherei",
            "opening_hours": "Mo 15:00-19:00; We 15:00-18:00; Fr 17:00-19:00; Sa 10:00-12:00"
          },
          "geometry": {
            "type": "Point",
            "coordinates": [
              11.0991804,
              47.9484869
            ]
          }
        },
        {
          "type": "Feature",
          "properties": {
            "id": "1454749305",
            "osm_type": "node",
            "lat": 47.9569518,
            "lon": 11.3629477,
            "addr:city": "Berg",
            "addr:housenumber": "9",
            "addr:postcode": "82335",
            "addr:street": "Marienstraße",
            "addr:suburb": "Aufkirchen",
            "amenity": "library",
            "email": "buecherei@gemeinde-berg.de",
            "name": "Gemeindebücherei Aufkirchen",
            "opening_hours": "Mo 17:00-20:00; Tu 12:00-17:00; We 10:00-12:00; Th 14:00-20:00; Fr 14:00-17:00",
            "operator": "Gemeinde Berg",
            "phone": "+49 8151 970490",
            "website": "https://www.gemeinde-berg.de/index.php?id"
          },
          "geometry": {
            "type": "Point",
            "coordinates": [
              11.3629477,
              47.9569518
            ]
          }
        },
        {
          "type": "Feature",
          "properties": {
            "id": "2455697925",
            "osm_type": "node",
            "lat": 47.9514192,
            "lon": 11.297323,
            "addr:city": "Feldafing",
            "addr:country": "DE",
            "addr:housenumber": "9b",
            "addr:postcode": "82340",
            "addr:street": "Schluchtweg",
            "amenity": "library",
            "email": "buecherei@feldafing.de",
            "name": "Gemeindebücherei Feldafing",
            "opening_hours": "Tu,Th 15:00-19:00; We 09:00-13:00; Fr 15:00-18:00",
            "phone": "+4981577395",
            "website": "http://www.buecherei-feldafing.de/",
            "wikidata": "Q28729326"
          },
          "geometry": {
            "type": "Point",
            "coordinates": [
              11.297323,
              47.9514192
            ]
          }
        },
        {
          "type": "Feature",
          "properties": {
            "id": "9969337316",
            "osm_type": "node",
            "lat": 47.9672969,
            "lon": 11.3010761,
            "amenity": "library",
            "email": "buecherei@poecking.de",
            "name": "Gemeindebücherei Pöcking",
            "opening_hours": "Tu 14:30-19:00; We 10:00-13:00; Th 10:00-13:00,14:00-18:00; Fr 15:00-20:00",
            "phone": "+49 8157 4871",
            "website": "https://buecherei-poecking.de/"
          },
          "geometry": {
            "type": "Point",
            "coordinates": [
              11.3010761,
              47.9672969
            ]
          }
        },
        {
          "type": "Feature",
          "properties": {
            "id": "11332877894",
            "osm_type": "node",
            "lat": 47.955997,
            "lon": 11.4323061,
            "amenity": "library"
          },
          "geometry": {
            "type": "Point",
            "coordinates": [
              11.4323061,
              47.955997
            ]
          }
        },
        {
          "type": "Feature",
          "properties": {
            "id": "12633424134",
            "osm_type": "node",
            "lat": 47.9988547,
            "lon": 11.3409725,
            "addr:city": "Starnberg",
            "addr:housenumber": "10",
            "addr:postcode": "82319",
            "addr:street": "Hauptstraße",
            "amenity": "library",
            "contact:phone": "+49 8151 3049",
            "name": "Stadtbücherei Starnberg",
            "opening_hours": "Mo off; Tu,Fr 10:00-18:00; We 14:00-18:00; Th 13:00-16:00; Sa 10:00-13:00; Su,PH off",
            "operator": "Stadt Starnberg",
            "operator:type": "public",
            "website": "https://www.starnberg.de/kultur-freizeit/stadtbuecherei/"
          },
          "geometry": {
            "type": "Point",
            "coordinates": [
              11.3409725,
              47.9988547
            ]
          }
        }
      ],
      "children": []
    },
    {
      "bbox": {
        "south": 48.02541825,
        "west": 9.530952,
        "north": 48.355971499999995,
        "east": 10.484655499999999
      },
      "poiCount": 37,
      "leafCount": 37,
      "averagePosition": [
        9.964012135135135,
        48.21922619459459
      ],
      "data": [
        {
          "type": "Feature",
          "properties": {
            "id": "528902168",
            "osm_type": "node",
            "lat": 48.286077,
            "lon": 9.8006769,
            "addr:city": "Öpfingen",
            "addr:housenumber": "12",
            "addr:postcode": "89614",
            "addr:street": "Schloßhofstraße",
            "amenity": "library",
            "email": "gemeindebuecherei.oepfingen@web.de",
            "fax": "+49 7391 7558268",
            "name": "Gemeindebücherei",
            "opening_hours": "Tu, Sa 10:00-11:00; We 16:00-19:00; Th, Fr 15:00-17:00",
            "operator": "Gemeinde Öpfingen",
            "phone": "+49 7391 7558264",
            "toilets:wheelchair": "no",
            "website": "https://www.oepfingen.de/leben-wohnen/gemeindebuecherei",
            "wheelchair": "yes",
            "wikidata": "Q124515874"
          },
          "geometry": {
            "type": "Point",
            "coordinates": [
              9.8006769,
              48.286077
            ]
          }
        },
        {
          "type": "Feature",
          "properties": {
            "id": "595526832",
            "osm_type": "node",
            "lat": 48.2848179,
            "lon": 9.7290919,
            "amenity": "library",
            "contact:email": "stadtbuecherei@ehingen.de",
            "contact:fax": "+49 7391 503 566",
            "contact:phone": "+49 7391 503-560",
            "contact:website": "https://buecherei.ehingen.de/",
            "name": "Stadtbücherei",
            "opening_hours": "Tu 09:00-18:00; We, Fr 14:30-18:00; Th 14:30-19:00",
            "wheelchair": "limited",
            "wikidata": "Q28662416"
          },
          "geometry": {
            "type": "Point",
            "coordinates": [
              9.7290919,
              48.2848179
            ]
          }
        },
        {
          "type": "Feature",
          "properties": {
            "id": "811602814",
            "osm_type": "node",
            "lat": 48.2003066,
            "lon": 9.7715938,
            "amenity": "library",
            "denomination": "catholic",
            "fixme": "genauer Standort?",
            "name": "Katholische öffentliche Bücherei",
            "note": "im Gemeindehaus",
            "opening_hours": "We 16:00-18:00; PH off",
            "religion": "christian",
            "website": "https://se-schemmerhofen.drs.de/gemeindeleben-spirituelles-leben/katholische-buecherei-ingerkingen.html"
          },
          "geometry": {
            "type": "Point",
            "coordinates": [
              9.7715938,
              48.2003066
            ]
          }
        },
        {
          "type": "Feature",
          "properties": {
            "id": "1383366520",
            "osm_type": "node",
            "lat": 48.1857367,
            "lon": 9.6909196,
            "amenity": "library",
            "name": "Bücherei"
          },
          "geometry": {
            "type": "Point",
            "coordinates": [
              9.6909196,
              48.1857367
            ]
          }
        },
        {
          "type": "Feature",
          "properties": {
            "id": "1447890118",
            "osm_type": "node",
            "lat": 48.337543,
            "lon": 10.003298,
            "addr:city": "Illerkirchberg",
            "addr:country": "DE",
            "addr:housename": "Schultheißenhof",
            "addr:housenumber": "1",
            "addr:postcode": "89171",
            "addr:street": "Place Brives-Charensac",
            "addr:suburb": "Unterkirchberg",
            "amenity": "library",
            "name": "Kath. Öff. Bücherei",
            "opening_hours": "Mo 18:30-19:30; We,Fr 16:00-17:30",
            "operator": "Kirchengemeinde St. Martinus Unterkirchberg",
            "phone": "+49 7346 96 09 72",
            "url": "https://www.st-martin-unterkirchberg.de/index.php/einrichtungen/buecherei-unterkirchberg",
            "website": "https://www.st-martin-unterkirchberg.de/index.php/einrichtungen/buecherei-unterkirchberg"
          },
          "geometry": {
            "type": "Point",
            "coordinates": [
              10.003298,
              48.337543
            ]
          }
        },
        {
          "type": "Feature",
          "properties": {
            "id": "2201530027",
            "osm_type": "node",
            "lat": 48.3530912,
            "lon": 9.9754517,
            "amenity": "library",
            "name": "Stadtteilbibliothek Wiblingen",
            "opening_hours": "Tu,We 14:30-17:30; Th 13:00-17:30; Fr 10:00-12:00,14:30-17:30",
            "operator": "Stadtbibliothek Ulm",
            "website": "https://stadtbibliothek.ulm.de/vor-ort/wiblingen",
            "wheelchair": "limited"
          },
          "geometry": {
            "type": "Point",
            "coordinates": [
              9.9754517,
              48.3530912
            ]
          }
        },
        {
          "type": "Feature",
          "properties": {
            "id": "2400174180",
            "osm_type": "node",
            "lat": 48.3206547,
            "lon": 10.0177542,
            "amenity": "library",
            "name": "Bücherei",
            "official_name": "Katholisch-öffentliche Bücherei Oberkirchberg",
            "opening_hours": "Tu 18:00 - 19:00 ; Fr 16:00 - 18:00",
            "operator": "Kirchengemeinde St. Sebastian",
            "website": "https://www.st-sebastian-oberkirchberg.de/index.php/einrichtungen/2014-02-16-14-51-57",
            "wheelchair": "limited"
          },
          "geometry": {
            "type": "Point",
            "coordinates": [
              10.0177542,
              48.3206547
            ]
          }
        },
        {
          "type": "Feature",
          "properties": {
            "id": "2659364670",
            "osm_type": "node",
            "lat": 48.3274427,
            "lon": 9.8922165,
            "amenity": "library",
            "name": "Stadtbücherei Erbach",
            "opening_hours": "Tu-Th 10:00-18:00; Fr 08:00-18:00; Sa 10:00-13:00"
          },
          "geometry": {
            "type": "Point",
            "coordinates": [
              9.8922165,
              48.3274427
            ]
          }
        },
        {
          "type": "Feature",
          "properties": {
            "id": "3112678102",
            "osm_type": "node",
            "lat": 48.2303004,
            "lon": 9.8824993,
            "amenity": "library",
            "contact:email": "bibliothek@laupheim.de",
            "contact:phone": "+49 7392 704205",
            "contact:website": "https://www.laupheim.de/kultur-freizeit/stadtbibliothek",
            "name": "Stadtbibliothek Laupheim",
            "opening_hours": "Tu,We,Fr 14:00-18:00; Th 09:30-12:00,14:00-18:00; Sa 09:30-12:30",
            "wheelchair": "yes",
            "wikidata": "Q28682558"
          },
          "geometry": {
            "type": "Point",
            "coordinates": [
              9.8824993,
              48.2303004
            ]
          }
        },
        {
          "type": "Feature",
          "properties": {
            "id": "3497071362",
            "osm_type": "node",
            "lat": 48.2366963,
            "lon": 9.6427167,
            "amenity": "library",
            "name": "Mediathek",
            "opening_hours": "Tu 10:00-12:00,15:15-19:00; We,Th 11:00-13:00; Fr 09:00-12:00,15:00-18:00; Sa 09:00-12:00",
            "operator": "Stadt Munderkigen",
            "phone": "+49 7393 9534580",
            "toilets:wheelchair": "yes",
            "wheelchair": "yes",
            "wikidata": "Q28734969"
          },
          "geometry": {
            "type": "Point",
            "coordinates": [
              9.6427167,
              48.2366963
            ]
          }
        },
        {
          "type": "Feature",
          "properties": {
            "id": "4241434497",
            "osm_type": "node",
            "lat": 48.299652,
            "lon": 9.9880112,
            "amenity": "library",
            "level": "1",
            "name": "Gemeindebücherei Staig",
            "opening_hours": "Tu 15:00-19:00; Th 14:00-17:00",
            "operator": "Gemeinde Staig"
          },
          "geometry": {
            "type": "Point",
            "coordinates": [
              9.9880112,
              48.299652
            ]
          }
        },
        {
          "type": "Feature",
          "properties": {
            "id": "8309654152",
            "osm_type": "node",
            "lat": 48.2271359,
            "lon": 9.8819346,
            "amenity": "library",
            "email": "bibliothek@laupheim.de",
            "name": "Schulmediothek",
            "note": "In den Schulferien geschlossen",
            "opening_hours": "Mo-Fr 09:30-14:00",
            "operator": "Stadt Laupheim",
            "phone": "+49 7392 704205",
            "website": "https://www.laupheim.de/kultur-freizeit/stadtbibliothek/schulmediothek",
            "wheelchair": "yes"
          },
          "geometry": {
            "type": "Point",
            "coordinates": [
              9.8819346,
              48.2271359
            ]
          }
        },
        {
          "type": "Feature",
          "properties": {
            "id": "8772336515",
            "osm_type": "node",
            "lat": 48.094069,
            "lon": 9.7876687,
            "addr:city": "Biberach an der Riß",
            "addr:housenumber": "9",
            "addr:postcode": "88400",
            "addr:street": "Karlstraße",
            "amenity": "library",
            "internet_access": "wlan",
            "internet_access:fee": "customers",
            "internet_access:ssid": "eduroam",
            "name": "Bibliothek der Hochschule Biberach",
            "operator": "Hochschule Biberach",
            "wikidata": "Q28738416"
          },
          "geometry": {
            "type": "Point",
            "coordinates": [
              9.7876687,
              48.094069
            ]
          }
        },
        {
          "type": "Feature",
          "properties": {
            "id": "8983777506",
            "osm_type": "node",
            "lat": 48.2282767,
            "lon": 9.8803742,
            "amenity": "library",
            "name": "Katholische öffentliche Bücherei",
            "opening_hours": "Mo 16:00-18:30",
            "operator": "Katholische Kirchengemeinde Sankt Petrus und Paulus Laupheim",
            "website": "https://stpetruspaulus-laupheim.drs.de/gruppendummie/katholische-oeffentliche-buecherei-koeb.html"
          },
          "geometry": {
            "type": "Point",
            "coordinates": [
              9.8803742,
              48.2282767
            ]
          }
        },
        {
          "type": "Feature",
          "properties": {
            "id": "9873776933",
            "osm_type": "node",
            "lat": 48.292802,
            "lon": 9.8554514,
            "amenity": "library",
            "level": "-1",
            "name": "Gemeindebücherei",
            "opening_hours": "Tu 16:00-18:00, Fr 16:00-18:00",
            "operator": "Evangelische Kirchengemeinde Ersingen",
            "website": "https://www.evkirche-ersingen.de/gruppen-und-kreise/evang-gemeindebuecherei-ersingen"
          },
          "geometry": {
            "type": "Point",
            "coordinates": [
              9.8554514,
              48.292802
            ]
          }
        },
        {
          "type": "Feature",
          "properties": {
            "id": "9873784842",
            "osm_type": "node",
            "lat": 48.32853,
            "lon": 9.7695246,
            "amenity": "library",
            "name": "Bücherei Altheim",
            "opening_hours": "We 17:00-19:00",
            "website": "https://altheim-info.de/freizeittipps/einrichtungen/buecherei-altheim/"
          },
          "geometry": {
            "type": "Point",
            "coordinates": [
              9.7695246,
              48.32853
            ]
          }
        },
        {
          "type": "Feature",
          "properties": {
            "id": "9873785833",
            "osm_type": "node",
            "lat": 48.2380175,
            "lon": 9.6093512,
            "amenity": "library",
            "name": "Pfarrbücherei Untermarchtal",
            "website": "https://se-marchtal.drs.de/kirchengemeinden/untermarchtal/pfarrbuecherei.html"
          },
          "geometry": {
            "type": "Point",
            "coordinates": [
              9.6093512,
              48.2380175
            ]
          }
        },
        {
          "type": "Feature",
          "properties": {
            "id": "9880404056",
            "osm_type": "node",
            "lat": 48.2736295,
            "lon": 9.6291909,
            "addr:city": "Ehingen (Donau)",
            "addr:country": "DE",
            "addr:housenumber": "34",
            "addr:postcode": "89584",
            "addr:street": "Brunnenstraße",
            "addr:suburb": "Kirchen",
            "amenity": "library",
            "contact:email": "koeb.st.martinus.kirchen@web.de",
            "contact:mobile": "+49 176 94884580",
            "name": "KöB St. Martinus Kirchen",
            "opening_hours": "We 16:00-17:00; Su 09:45-10:45; Mo,Tu,Th-Sa,PH off",
            "website": "https://www.bibkat.de/kob-kirchen"
          },
          "geometry": {
            "type": "Point",
            "coordinates": [
              9.6291909,
              48.2736295
            ]
          }
        },
        {
          "type": "Feature",
          "properties": {
            "id": "9880746131",
            "osm_type": "node",
            "lat": 48.0708492,
            "lon": 9.9485107,
            "amenity": "library",
            "name": "Bücherei St. Georg Ochsenhausen",
            "official_name": "Katholische öffentliche Bücherei St. Georg Ochsenhausen",
            "opening_hours": "Tu 15:00-18:00, We 16:30-18:30, Th 16:30-18:30, Fr 9:00-10:00 Uhr",
            "short_name": "KÖB St. Georg Ochsenhausen",
            "website": "http://www.buecherei-ochsenhausen.de/"
          },
          "geometry": {
            "type": "Point",
            "coordinates": [
              9.9485107,
              48.0708492
            ]
          }
        },
        {
          "type": "Feature",
          "properties": {
            "id": "9880776740",
            "osm_type": "node",
            "lat": 48.0647734,
            "lon": 9.9507649,
            "amenity": "library",
            "name": "Musikbibliothek",
            "official_name": "Landesakademie für die musizierende Jugend in BW, Musikbibliothek",
            "opening_hours": "Mo 13:00-16:00, Tu  8:30-10:00, 13:00-16:00, We 8:30-10:00, 13:00-14:00, Th 8:30-10:00, 13:00-15:30, Fr 8:30-12.00",
            "ref:isil": "DE-Osn1",
            "website": "https://www.landesakademie-ochsenhausen.de/de/akademie/musikbibliothek",
            "wikidata": "Q28739329"
          },
          "geometry": {
            "type": "Point",
            "coordinates": [
              9.9507649,
              48.0647734
            ]
          }
        },
        {
          "type": "Feature",
          "properties": {
            "id": "9880787238",
            "osm_type": "node",
            "lat": 48.0662515,
            "lon": 9.6122492,
            "amenity": "library",
            "fee": "no",
            "name": "Bücherei Bad Buchau",
            "official_name": "Öffentliche Bücherei der Evangelischen Kirchengemeinde",
            "opening_hours": "Mo-Fr 09:30-16:30",
            "website": "https://www.evkirche-badbuchau.de/gruppen-kreise-und-angebote/buecherei"
          },
          "geometry": {
            "type": "Point",
            "coordinates": [
              9.6122492,
              48.0662515
            ]
          }
        },
        {
          "type": "Feature",
          "properties": {
            "id": "9990373595",
            "osm_type": "node",
            "lat": 48.1745087,
            "lon": 9.7942641,
            "amenity": "library",
            "name": "Bücherei Schemmerhofen",
            "website": "https://www.schemmerhofen.de/Home/Leben+_+Wohnen/Buecherei.html"
          },
          "geometry": {
            "type": "Point",
            "coordinates": [
              9.7942641,
              48.1745087
            ]
          }
        },
        {
          "type": "Feature",
          "properties": {
            "id": "11672273812",
            "osm_type": "node",
            "lat": 48.3446257,
            "lon": 9.813279,
            "amenity": "library",
            "name": "Bücherei",
            "opening_hours": "Th 16:30-18:30",
            "operator": "Seelsorgeeinheit Erbach",
            "start_date": "1987",
            "website": "https://se-erbach.drs.de/ringingen-mariae-himmelfahrt/gruppen.html"
          },
          "geometry": {
            "type": "Point",
            "coordinates": [
              9.813279,
              48.3446257
            ]
          }
        },
        {
          "type": "Feature",
          "properties": {
            "id": "11672291743",
            "osm_type": "node",
            "lat": 48.2247281,
            "lon": 9.9514911,
            "amenity": "library",
            "level": "1",
            "name": "Bücherstube",
            "operator": "Lebensqualität Burgrieden e.V.",
            "website": "https://lebensqualitaet-burgrieden.de/lq/buecherkarussell/"
          },
          "geometry": {
            "type": "Point",
            "coordinates": [
              9.9514911,
              48.2247281
            ]
          }
        },
        {
          "type": "Feature",
          "properties": {
            "id": "300600440",
            "osm_type": "node",
            "lat": 48.2419954,
            "lon": 10.3639066,
            "addr:city": "Krumbach (Schwaben)",
            "addr:country": "DE",
            "addr:housenumber": "8",
            "addr:postcode": "86381",
            "addr:street": "Nassauer Straße",
            "amenity": "library",
            "email": "info@stadtbuecherei.krumbach.de",
            "fax": "+49 8282 82099",
            "name": "Stadtbücherei Krumbach",
            "opening_hours": "Mo 09:00-12:00,15:00-17:00, Tu 12:00-17:00; We 09:00-12:00,15:00-18:00; Th 09:00-12:00,15:00-19:00; Sa[1] 09:00-12:00",
            "phone": "+49 8282 82097",
            "wheelchair": "no",
            "wikidata": "Q28662231"
          },
          "geometry": {
            "type": "Point",
            "coordinates": [
              10.3639066,
              48.2419954
            ]
          }
        },
        {
          "type": "Feature",
          "properties": {
            "id": "366284384",
            "osm_type": "node",
            "lat": 48.2825138,
            "lon": 10.469933,
            "addr:city": "Thannhausen",
            "addr:country": "DE",
            "addr:housenumber": "1",
            "addr:postcode": "86470",
            "addr:street": "Bahnhofstraße",
            "amenity": "library",
            "email": "buecherei@thannhausen.de",
            "name": "Stadtbücherei",
            "opening_hours": "Tu 13:15-14:15,15:30-18:30; Fr 15:30-18:30",
            "phone": "+49 8281 999304",
            "website": "http://www.buecherei.thannhausen.de/",
            "wikidata": "Q28662364"
          },
          "geometry": {
            "type": "Point",
            "coordinates": [
              10.469933,
              48.2825138
            ]
          }
        },
        {
          "type": "Feature",
          "properties": {
            "id": "676201084",
            "osm_type": "node",
            "lat": 48.0374637,
            "lon": 10.3362743,
            "amenity": "library",
            "name": "Bücherei"
          },
          "geometry": {
            "type": "Point",
            "coordinates": [
              10.3362743,
              48.0374637
            ]
          }
        },
        {
          "type": "Feature",
          "properties": {
            "id": "723986674",
            "osm_type": "node",
            "lat": 48.2566094,
            "lon": 10.0904233,
            "amenity": "library",
            "name": "kath. Pfarrbücherei",
            "opening_hours": "Mo 16:00-17:00; We 17:30-19:00; Th 08:30-10:00; Sa 15:00-16:00"
          },
          "geometry": {
            "type": "Point",
            "coordinates": [
              10.0904233,
              48.2566094
            ]
          }
        },
        {
          "type": "Feature",
          "properties": {
            "id": "1821188352",
            "osm_type": "node",
            "lat": 48.223654,
            "lon": 10.1058667,
            "amenity": "library",
            "name": "Stadtbücherei Sankt Martin",
            "opening_hours": "Mo,Th 15:00-17:00; We 10:00-11:30,15:00-19:00; Sa 10:00-11:30",
            "wheelchair": "yes"
          },
          "geometry": {
            "type": "Point",
            "coordinates": [
              10.1058667,
              48.223654
            ]
          }
        },
        {
          "type": "Feature",
          "properties": {
            "id": "4564916000",
            "osm_type": "node",
            "lat": 48.2709568,
            "lon": 10.0450994,
            "amenity": "library",
            "check_date:opening_hours": "2021-05-03",
            "name": "Gemeindebücherei Illerrieden",
            "opening_hours": "Mo 15:00-17:00; We 17:00-19:00"
          },
          "geometry": {
            "type": "Point",
            "coordinates": [
              10.0450994,
              48.2709568
            ]
          }
        },
        {
          "type": "Feature",
          "properties": {
            "id": "5264674458",
            "osm_type": "node",
            "lat": 48.1438048,
            "lon": 10.2551534,
            "amenity": "library",
            "name": "Gemeindebücherei Babenhausen",
            "operator": "Markt Babenhausen",
            "wikidata": "Q28729375"
          },
          "geometry": {
            "type": "Point",
            "coordinates": [
              10.2551534,
              48.1438048
            ]
          }
        },
        {
          "type": "Feature",
          "properties": {
            "id": "7004713950",
            "osm_type": "node",
            "lat": 48.0710299,
            "lon": 10.1519823,
            "addr:city": "Fellheim",
            "addr:housenumber": "17",
            "addr:postcode": "87748",
            "addr:street": "Memminger Straße",
            "amenity": "library",
            "name": "Gemeindebücherei Fellheim",
            "opening_hours": "We 17:00-19:00",
            "operator": "Zweigstelle der Stadtbibliothek Memmingen"
          },
          "geometry": {
            "type": "Point",
            "coordinates": [
              10.1519823,
              48.0710299
            ]
          }
        },
        {
          "type": "Feature",
          "properties": {
            "id": "7604880537",
            "osm_type": "node",
            "lat": 48.2306,
            "lon": 10.4458965,
            "amenity": "library"
          },
          "geometry": {
            "type": "Point",
            "coordinates": [
              10.4458965,
              48.2306
            ]
          }
        },
        {
          "type": "Feature",
          "properties": {
            "id": "9880673298",
            "osm_type": "node",
            "lat": 48.2757976,
            "lon": 10.0754641,
            "amenity": "library",
            "name": "Stadtbücherei Vöhringen",
            "opening_hours": "Tu 10:00-12:00,15:00-18:00, We 15:00-17:00, Th 15:00-17:00",
            "website": "https://opac.winbiap.net/voehringen/"
          },
          "geometry": {
            "type": "Point",
            "coordinates": [
              10.0754641,
              48.2757976
            ]
          }
        },
        {
          "type": "Feature",
          "properties": {
            "id": "10073582373",
            "osm_type": "node",
            "lat": 48.1205803,
            "lon": 10.224997,
            "addr:housenumber": "9",
            "addr:street": "Hauptstraße",
            "amenity": "library",
            "name": "Bücherei"
          },
          "geometry": {
            "type": "Point",
            "coordinates": [
              10.224997,
              48.1205803
            ]
          }
        },
        {
          "type": "Feature",
          "properties": {
            "id": "10672542021",
            "osm_type": "node",
            "lat": 48.1057582,
            "lon": 10.1144036,
            "amenity": "library"
          },
          "geometry": {
            "type": "Point",
            "coordinates": [
              10.1144036,
              48.1057582
            ]
          }
        },
        {
          "type": "Feature",
          "properties": {
            "id": "13018885468",
            "osm_type": "node",
            "lat": 48.1600896,
            "lon": 10.1107644,
            "addr:city": "Altenstadt",
            "addr:housenumber": "5",
            "addr:postcode": "89281",
            "addr:street": "Gut-Hirten-Weg",
            "amenity": "library",
            "level": "-1",
            "name": "Markt- und Pfarrbücherei Altenstadt",
            "phone": "+49 8337 900790",
            "ref:isil": "DE-1644",
            "website": "https://www.buecherei-altenstadt.de/",
            "wikimedia_commons": "File:2025 Altenstadt (Iller) Markt- und Pfarrbücherei.jpg"
          },
          "geometry": {
            "type": "Point",
            "coordinates": [
              10.1107644,
              48.1600896
            ]
          }
        }
      ],
      "children": []
    },
    {
      "bbox": {
        "south": 48.02541825,
        "west": 10.484655499999999,
        "north": 48.355971499999995,
        "east": 11.438358999999998
      },
      "poiCount": 47,
      "leafCount": 47,
      "averagePosition": [
        11.042948912765958,
        48.19059856170213
      ],
      "data": [
        {
          "type": "Feature",
          "properties": {
            "id": "2110689802",
            "osm_type": "node",
            "lat": 48.293471,
            "lon": 10.5304198,
            "amenity": "library"
          },
          "geometry": {
            "type": "Point",
            "coordinates": [
              10.5304198,
              48.293471
            ]
          }
        },
        {
          "type": "Feature",
          "properties": {
            "id": "9966639164",
            "osm_type": "node",
            "lat": 48.2011432,
            "lon": 10.5105326,
            "amenity": "library",
            "name": "Pfarrbibliothek St. Stefan",
            "opening_hours": "Th 17:00-19:00",
            "operator": "Pfarrei St. Stefan",
            "operator:type": "public"
          },
          "geometry": {
            "type": "Point",
            "coordinates": [
              10.5105326,
              48.2011432
            ]
          }
        },
        {
          "type": "Feature",
          "properties": {
            "id": "271123022",
            "osm_type": "node",
            "lat": 48.2693194,
            "lon": 10.8338584,
            "addr:city": "Bobingen",
            "addr:housenumber": "1",
            "addr:postcode": "86399",
            "addr:street": "Pestalozzistraße",
            "amenity": "library",
            "name": "Stadtbücherei",
            "opening_hours": "Tu 10:00-18:00; We 15:00-19:00; Th 10:00-12:00, 15:00-18:00; Fr 09:00-12:00, 15:00-18:00",
            "website": "https://www.stadt-bobingen.de/index.php?id=0,137",
            "wheelchair": "no",
            "wikidata": "Q28662248"
          },
          "geometry": {
            "type": "Point",
            "coordinates": [
              10.8338584,
              48.2693194
            ]
          }
        },
        {
          "type": "Feature",
          "properties": {
            "id": "323730455",
            "osm_type": "node",
            "lat": 48.2146136,
            "lon": 10.9636634,
            "addr:city": "Schmiechen",
            "addr:country": "DE",
            "addr:housenumber": "42",
            "addr:postcode": "86511",
            "addr:street": "Ringstraße",
            "amenity": "library",
            "name": "Gemeindebücherei",
            "opening_hours": "Tu 18:00-20:00"
          },
          "geometry": {
            "type": "Point",
            "coordinates": [
              10.9636634,
              48.2146136
            ]
          }
        },
        {
          "type": "Feature",
          "properties": {
            "id": "560014636",
            "osm_type": "node",
            "lat": 48.3080196,
            "lon": 10.9074519,
            "addr:housenumber": "15",
            "addr:street": "Tattenbachstraße",
            "amenity": "library",
            "name": "Stadtbücherei Zweigstelle Haunstetten",
            "opening_hours": "Mo 13:00-18:00, We 10:00-14:00, Th 13:00-19:00",
            "phone": "+49 821 3242726",
            "wheelchair": "limited"
          },
          "geometry": {
            "type": "Point",
            "coordinates": [
              10.9074519,
              48.3080196
            ]
          }
        },
        {
          "type": "Feature",
          "properties": {
            "id": "1051236953",
            "osm_type": "node",
            "lat": 48.3449481,
            "lon": 10.5886772,
            "amenity": "library",
            "name": "Bücherstube",
            "opening_hours": "Tu,Th,Fr 10:00-18:00; We,Sa 09:00-12:30",
            "wheelchair": "no"
          },
          "geometry": {
            "type": "Point",
            "coordinates": [
              10.5886772,
              48.3449481
            ]
          }
        },
        {
          "type": "Feature",
          "properties": {
            "id": "1150650487",
            "osm_type": "node",
            "lat": 48.2677083,
            "lon": 10.9846452,
            "amenity": "library",
            "internet_access": "wlan",
            "name": "Bücherei Mering",
            "opening_hours": "Mo,We 15:00-18:00; Tu 10:30-13:00; Th 15:00-20:00; Fr 10:30-18:00",
            "operator": "Kath. Pfarrei und Gemeinde Mering",
            "phone": "+49 8233 7395025",
            "website": "https://mering.de/unsere-marktgemeinde/einrichtungen/i601-buecherei",
            "wheelchair": "limited",
            "wikidata": "Q28734715"
          },
          "geometry": {
            "type": "Point",
            "coordinates": [
              10.9846452,
              48.2677083
            ]
          }
        },
        {
          "type": "Feature",
          "properties": {
            "id": "1177237613",
            "osm_type": "node",
            "lat": 48.1808207,
            "lon": 10.7618581,
            "addr:city": "Schwabmünchen",
            "addr:country": "DE",
            "addr:housenumber": "18",
            "addr:postcode": "86830",
            "addr:street": "Holzheystraße",
            "amenity": "library",
            "name": "Stadtbücherei Schwabmünchen",
            "opening_hours": "Tu 09:00-13:00,14:00-18:00; We 14:00-17:00; Th 14:00-18:00; Fr 14:00-17:00; Sa 10:00-13:00",
            "website": "http://www.stadtbuecherei-schwabmuenchen.de/",
            "wheelchair": "yes",
            "wikidata": "Q28662245"
          },
          "geometry": {
            "type": "Point",
            "coordinates": [
              10.7618581,
              48.1808207
            ]
          }
        },
        {
          "type": "Feature",
          "properties": {
            "id": "2710683748",
            "osm_type": "node",
            "lat": 48.3509442,
            "lon": 10.8409853,
            "addr:city": "Stadtbergen",
            "addr:country": "DE",
            "addr:housenumber": "1",
            "addr:postcode": "86391",
            "addr:street": "Laubenweg",
            "amenity": "library",
            "check_date:opening_hours": "2024-08-26",
            "name": "Bücherei Leitershofen",
            "opening_hours": "Tu 10:00-12:00,16:00-18:00; Fr 16:00-18:00; PH off",
            "phone": "+49 821 4508915",
            "website": "https://www2.winbiap.de/Stadtbergen/"
          },
          "geometry": {
            "type": "Point",
            "coordinates": [
              10.8409853,
              48.3509442
            ]
          }
        },
        {
          "type": "Feature",
          "properties": {
            "id": "3322021087",
            "osm_type": "node",
            "lat": 48.3542692,
            "lon": 10.7825409,
            "addr:city": "Diedorf",
            "addr:country": "DE",
            "addr:housenumber": "3",
            "addr:postcode": "86420",
            "addr:street": "Marienplatz",
            "amenity": "library",
            "name": "Gemeinde Bücherei Diedorf",
            "opening_hours": "Tu 08:30-11:00; We 15:00-18:00; Fr 15:00-18:30",
            "phone": "+49 8238 1699",
            "website": "https://www.gemeindebuecherei-diedorf.de/",
            "wheelchair": "yes",
            "wikidata": "Q28729451"
          },
          "geometry": {
            "type": "Point",
            "coordinates": [
              10.7825409,
              48.3542692
            ]
          }
        },
        {
          "type": "Feature",
          "properties": {
            "id": "3428256312",
            "osm_type": "node",
            "lat": 48.2885973,
            "lon": 10.6558185,
            "addr:city": "Fischach",
            "addr:housenumber": "12",
            "addr:postcode": "86850",
            "addr:street": "Hauptstraße",
            "amenity": "library",
            "name": "Gemeindebücherei St. Michael",
            "opening_hours": "We 15:00-16:30, Fr 16:30-18:30, Su 10:00-11:30, PH off",
            "operator": "Markt Fischach und Kath. Kirchenstiftung St. Michael Fischach",
            "website": "https://www.buecherei-fischach.de/",
            "wheelchair": "no",
            "wikidata": "Q28729449"
          },
          "geometry": {
            "type": "Point",
            "coordinates": [
              10.6558185,
              48.2885973
            ]
          }
        },
        {
          "type": "Feature",
          "properties": {
            "id": "4162791520",
            "osm_type": "node",
            "lat": 48.1048961,
            "lon": 10.6527169,
            "amenity": "library",
            "name": "Gemeindebücherei",
            "opening_hours": "Tu 16:30-18:30, We 7:00-8:00; SH off"
          },
          "geometry": {
            "type": "Point",
            "coordinates": [
              10.6527169,
              48.1048961
            ]
          }
        },
        {
          "type": "Feature",
          "properties": {
            "id": "4442419280",
            "osm_type": "node",
            "lat": 48.3556044,
            "lon": 10.9799626,
            "addr:city": "Friedberg",
            "addr:housenumber": "1",
            "addr:postcode": "86316",
            "addr:street": "Pfarrstraße",
            "amenity": "library",
            "check_date": "2024-12-18",
            "contact:website": "https://www.friedberg.de/leben-in-friedberg/stadtbuecherei-st-jakob/",
            "name": "Stadtbücherei Friedberg",
            "opening_hours": "Tu 16:30-19:00; We 13:00-17:00; Th 14:00-19:00; Fr 10:00-12:00; Su 09:00-12:00",
            "wheelchair": "limited",
            "wikidata": "Q28662337"
          },
          "geometry": {
            "type": "Point",
            "coordinates": [
              10.9799626,
              48.3556044
            ]
          }
        },
        {
          "type": "Feature",
          "properties": {
            "id": "5359291336",
            "osm_type": "node",
            "lat": 48.0511637,
            "lon": 10.8744283,
            "alt_name": "Bibliothek",
            "amenity": "library",
            "email": "stadtbuecherei@landsberg.de",
            "fax": "+49 8191 945329",
            "name": "Stadtbücherei",
            "opening_hours": "Mo,Tu,Fr 11:00-18:00; We 10:00-13:00; Th 13:00-19:00",
            "phone": "+49 8191 94530",
            "ref:isil": "DE-1303",
            "source": "local knowledge",
            "website": "http://www.stadtbuecherei-landsberg.de/",
            "website:OPAC": "http://www.datronic.de/cgi-bin/findus.pl?customer=landsberg",
            "wheelchair": "no"
          },
          "geometry": {
            "type": "Point",
            "coordinates": [
              10.8744283,
              48.0511637
            ]
          }
        },
        {
          "type": "Feature",
          "properties": {
            "id": "5723223454",
            "osm_type": "node",
            "lat": 48.1888461,
            "lon": 10.8285382,
            "addr:city": "Graben",
            "addr:housenumber": "4",
            "addr:postcode": "86836",
            "addr:street": "Via-Claudia-Weg",
            "amenity": "library",
            "email": "buecherei@graben.de",
            "name": "Gemeindebücherei Graben",
            "opening_hours": "Mo 10:30-13:30; Tu 17:30-19:30; We 15:00-17:00; Th 17:00-19:00",
            "operator": "Gemeinde Graben",
            "phone": "+49 8232 964614",
            "website": "http://www.graben.de/index.php?id=162,10",
            "wikidata": "Q28729497"
          },
          "geometry": {
            "type": "Point",
            "coordinates": [
              10.8285382,
              48.1888461
            ]
          }
        },
        {
          "type": "Feature",
          "properties": {
            "id": "6629429002",
            "osm_type": "node",
            "lat": 48.2700814,
            "lon": 10.8918397,
            "addr:city": "Königsbrunn",
            "addr:housenumber": "43",
            "addr:postcode": "86343",
            "addr:street": "Schwabenstraße",
            "amenity": "library",
            "name": "Stadtbücherei Königsbrunn",
            "phone": "+49 8231 606 255",
            "website": "https://cloudopac.winbiap.de/koenigsbrunn",
            "wikidata": "Q28662265"
          },
          "geometry": {
            "type": "Point",
            "coordinates": [
              10.8918397,
              48.2700814
            ]
          }
        },
        {
          "type": "Feature",
          "properties": {
            "id": "7015622416",
            "osm_type": "node",
            "lat": 48.1614836,
            "lon": 10.8086173,
            "air_conditioning": "no",
            "amenity": "library",
            "name": "Bücherei im Von Imhof Haus",
            "opening_hours": "Tu,Th 15:00-19:00",
            "wheelchair": "limited"
          },
          "geometry": {
            "type": "Point",
            "coordinates": [
              10.8086173,
              48.1614836
            ]
          }
        },
        {
          "type": "Feature",
          "properties": {
            "id": "7176713427",
            "osm_type": "node",
            "lat": 48.2292935,
            "lon": 10.782242,
            "addr:city": "Großaitingen",
            "addr:housenumber": "1",
            "addr:postcode": "86845",
            "addr:street": "Augsburger Straße",
            "amenity": "library",
            "name": "Bücherei St. Nikolaus",
            "opening_hours": "Mo off; Tu 16:00-19:00; We off; Th 15:00-17:00; Fr-Su off",
            "phone": "+49 8203 5761",
            "website": "https://www.vg-grossaitingen.de/seite/vg/verwaltungsgemeinschaft/480/-/Buecherei_St_Nikolaus.html"
          },
          "geometry": {
            "type": "Point",
            "coordinates": [
              10.782242,
              48.2292935
            ]
          }
        },
        {
          "type": "Feature",
          "properties": {
            "id": "8208091794",
            "osm_type": "node",
            "lat": 48.0339945,
            "lon": 10.71709,
            "addr:city": "Buchloe",
            "addr:country": "DE",
            "addr:housenumber": "60",
            "addr:postcode": "86807",
            "addr:street": "Bahnhofstraße",
            "amenity": "library",
            "internet_access": "wlan",
            "name": "Stadtbücherei",
            "opening_hours": "Mo-Tu 14:00-19:00; Th 09:00-11:00,14:00-19:00; Fr 14:00-19:00",
            "operator": "Stadt Buchlohe",
            "website": "https://www.buchloe.de/bildung-betreuung/stadtbuecherei/"
          },
          "geometry": {
            "type": "Point",
            "coordinates": [
              10.71709,
              48.0339945
            ]
          }
        },
        {
          "type": "Feature",
          "properties": {
            "id": "10853783648",
            "osm_type": "node",
            "lat": 48.3552448,
            "lon": 10.9032013,
            "amenity": "library",
            "level": "1",
            "name": "Bibliothek",
            "website": "https://www.tha.de/Bibliothek.html"
          },
          "geometry": {
            "type": "Point",
            "coordinates": [
              10.9032013,
              48.3552448
            ]
          }
        },
        {
          "type": "Feature",
          "properties": {
            "id": "11987416790",
            "osm_type": "node",
            "lat": 48.3423191,
            "lon": 10.8684338,
            "addr:city": "Augsburg",
            "addr:country": "DE",
            "addr:housenumber": "1",
            "addr:postcode": "86199",
            "addr:street": "Von-Cobres-Straße",
            "amenity": "library",
            "name": "Stadtteilbücherei Göggingen",
            "opening_hours": "Tu,Fr 14:00-18:00; We 10:00-13:00; ",
            "operator": "Stadt Augsburg",
            "source": "Stadtvermessungsamt Augsburg, mit Genehmigung",
            "source:url": "http://wiki.openstreetmap.org/wiki/Augsburg/Datenspende_%C3%B6ffentliche_Geb%C3%A4ude_der_Stadt_mit_Publikumsverkehr"
          },
          "geometry": {
            "type": "Point",
            "coordinates": [
              10.8684338,
              48.3423191
            ]
          }
        },
        {
          "type": "Feature",
          "properties": {
            "id": "12147940547",
            "osm_type": "node",
            "lat": 48.0778902,
            "lon": 10.8134441,
            "amenity": "library",
            "name": "Bücherei Igling"
          },
          "geometry": {
            "type": "Point",
            "coordinates": [
              10.8134441,
              48.0778902
            ]
          }
        },
        {
          "type": "Feature",
          "properties": {
            "id": "12343506846",
            "osm_type": "node",
            "lat": 48.0508731,
            "lon": 10.8691901,
            "addr:city": "Landsberg am Lech",
            "addr:country": "DE",
            "addr:housenumber": "11",
            "addr:postcode": "86899",
            "addr:street": "An der Schmiede",
            "amenity": "library",
            "description": "Bibliothek der Dinge, es werden Dinge verliehen, Betrieb von Ehrenamtlichen. Eröffnung am Freitag 07.02.2025",
            "library:type": "tool_library",
            "name": "Bibliothek der Dinge",
            "opening_hours": "Fr 15:00-18:00",
            "operator": "AWO MGH Landsberg",
            "phone": "+49 8191 30522791",
            "website": "https://ejsll.de/bddll/"
          },
          "geometry": {
            "type": "Point",
            "coordinates": [
              10.8691901,
              48.0508731
            ]
          }
        },
        {
          "type": "Feature",
          "properties": {
            "id": "60394475",
            "osm_type": "node",
            "lat": 48.1839248,
            "lon": 11.2797484,
            "amenity": "library",
            "check_date": "2021-05-19",
            "name": "Gemeindebücherei Emmering",
            "phone": "+49-8141-42888",
            "ref": "DE-1409",
            "website": "https://www.emmering.de/freizeit-kultur/gemeindebuecherei/",
            "wikidata": "Q28729325"
          },
          "geometry": {
            "type": "Point",
            "coordinates": [
              11.2797484,
              48.1839248
            ]
          }
        },
        {
          "type": "Feature",
          "properties": {
            "id": "157422353",
            "osm_type": "node",
            "lat": 48.0669708,
            "lon": 11.3791666,
            "amenity": "library",
            "check_date": "2024-11-11",
            "contact:email": "buecherei@gauting.de",
            "contact:phone": "+49 89 89337132",
            "name": "Gemeindebücherei Gauting",
            "opening_hours": "Tu-Th 10:00-13:00,15:00-19:00; Fr 12:00-16:00; Sa 10:00-12:00; SH Sa off",
            "ref:isil": "DE-1297",
            "website": "http://www.gauting.de/buecherei",
            "wheelchair": "yes",
            "wikidata": "Q28729314"
          },
          "geometry": {
            "type": "Point",
            "coordinates": [
              11.3791666,
              48.0669708
            ]
          }
        },
        {
          "type": "Feature",
          "properties": {
            "id": "279589777",
            "osm_type": "node",
            "lat": 48.1306469,
            "lon": 11.3659171,
            "addr:city": "Germering",
            "addr:country": "DE",
            "addr:housenumber": "41",
            "addr:postcode": "82110",
            "addr:street": "Landsberger Straße",
            "amenity": "library",
            "name": "Stadtbibliothek Germering",
            "opening_hours": "Tu,We,Fr 10:00-19:00; Th 15:00-19:00; Sa 10:00-13:00; Su,Mo,PH off",
            "phone": "+49-89-8944510",
            "website": "https://www.germering.de/bibliothek/",
            "wheelchair": "yes",
            "wikidata": "Q28681967"
          },
          "geometry": {
            "type": "Point",
            "coordinates": [
              11.3659171,
              48.1306469
            ]
          }
        },
        {
          "type": "Feature",
          "properties": {
            "id": "312408594",
            "osm_type": "node",
            "lat": 48.1751535,
            "lon": 11.2532558,
            "addr:city": "Fürstenfeldbruck",
            "addr:country": "DE",
            "addr:housenumber": "26",
            "addr:postcode": "82256",
            "addr:street": "Bullachstraße",
            "amenity": "library",
            "check_date:opening_hours": "2025-09-03",
            "name": "Stadtbibliothek in der Aumühle",
            "opening_hours": "Tu-Fr 10:00-18:00, Mo 14:00-20:00",
            "ref": "DE-908",
            "website": "https://www.stadtbibliothek-fuerstenfeldbruck.de/ffb-stadtbibliothek/web.nsf/id/pa_de_startseite.html",
            "wheelchair": "yes",
            "wikidata": "Q28681636"
          },
          "geometry": {
            "type": "Point",
            "coordinates": [
              11.2532558,
              48.1751535
            ]
          }
        },
        {
          "type": "Feature",
          "properties": {
            "id": "350462275",
            "osm_type": "node",
            "lat": 48.1734719,
            "lon": 11.3233606,
            "addr:city": "Eichenau",
            "addr:housenumber": "1",
            "addr:place": "Johanna-Oppenheimer-Platz",
            "addr:postcode": "82223",
            "amenity": "library",
            "check_date": "2025-04-12",
            "email": "buecherei@eichenau.de",
            "name": "Gemeindebücherei",
            "phone": "+49 8141 82183",
            "website": "https://www.eichenau.org/index.php?id=0,168",
            "wheelchair": "yes",
            "wikidata": "Q28729348"
          },
          "geometry": {
            "type": "Point",
            "coordinates": [
              11.3233606,
              48.1734719
            ]
          }
        },
        {
          "type": "Feature",
          "properties": {
            "id": "667746493",
            "osm_type": "node",
            "lat": 48.2077223,
            "lon": 11.3285225,
            "addr:city": "Olching",
            "addr:housenumber": "37",
            "addr:postcode": "82140",
            "addr:street": "Hauptstraße",
            "amenity": "library",
            "email": "buecherei@olching.de",
            "internet_access": "yes",
            "name": "Gemeindebücherei Olching",
            "phone": "+49 8142 18776",
            "website": "https://www.olching.de/bildung-and-freizeit/bildung/buechereien",
            "wheelchair": "yes"
          },
          "geometry": {
            "type": "Point",
            "coordinates": [
              11.3285225,
              48.2077223
            ]
          }
        },
        {
          "type": "Feature",
          "properties": {
            "id": "831424807",
            "osm_type": "node",
            "lat": 48.2347121,
            "lon": 11.0614953,
            "amenity": "library",
            "name": "Bücherei Althegnenberg",
            "opening_hours": "Tu 16:00-18:00",
            "wheelchair": "no"
          },
          "geometry": {
            "type": "Point",
            "coordinates": [
              11.0614953,
              48.2347121
            ]
          }
        },
        {
          "type": "Feature",
          "properties": {
            "id": "997031433",
            "osm_type": "node",
            "lat": 48.0770399,
            "lon": 11.2508869,
            "amenity": "library",
            "check_date:opening_hours": "2025-09-03",
            "name": "Gemeindebücherei",
            "opening_hours": "Tu 15:00-17:00; We 10:00-12:00; Th 17:00-19:00",
            "toilets:wheelchair": "no",
            "wheelchair": "no"
          },
          "geometry": {
            "type": "Point",
            "coordinates": [
              11.2508869,
              48.0770399
            ]
          }
        },
        {
          "type": "Feature",
          "properties": {
            "id": "1131226349",
            "osm_type": "node",
            "lat": 48.0528187,
            "lon": 11.0904567,
            "amenity": "library",
            "contact:email": "buecherei@schondorf.de",
            "contact:fax": "+49 8192 933540",
            "contact:phone": "+49 8192 933528",
            "contact:website": "http://webopac.winbiap.net/schondorf",
            "name": "Bücherei Schondorf",
            "opening_hours": "Tu 10:00-13:00, We 15:00-18:00, Th 15:00-19:00, Fr 15:00-17:00; PH off",
            "wikidata": "Q28729340"
          },
          "geometry": {
            "type": "Point",
            "coordinates": [
              11.0904567,
              48.0528187
            ]
          }
        },
        {
          "type": "Feature",
          "properties": {
            "id": "1334349158",
            "osm_type": "node",
            "lat": 48.2083762,
            "lon": 11.1613505,
            "amenity": "library",
            "name": "Gemeindebücherei Mammendorf",
            "wheelchair": "no"
          },
          "geometry": {
            "type": "Point",
            "coordinates": [
              11.1613505,
              48.2083762
            ]
          }
        },
        {
          "type": "Feature",
          "properties": {
            "id": "1912687802",
            "osm_type": "node",
            "lat": 48.1887832,
            "lon": 11.2964138,
            "amenity": "library"
          },
          "geometry": {
            "type": "Point",
            "coordinates": [
              11.2964138,
              48.1887832
            ]
          }
        },
        {
          "type": "Feature",
          "properties": {
            "id": "2045155220",
            "osm_type": "node",
            "lat": 48.0971393,
            "lon": 11.4121877,
            "addr:city": "Krailling",
            "addr:housenumber": "53 a",
            "addr:postcode": "82152",
            "addr:street": "Margaretenstraße",
            "alt_name": "Bücherei Krailling;Bibliothek Krailling;Gemeindebücherei Krailling",
            "amenity": "library",
            "check_date": "2024-12-29",
            "check_date:opening_hours": "2024-12-29",
            "contact:email": "bibliothek@krailling.de",
            "contact:facebook": "https://www.facebook.com/GemeindebibliothekKrailling/",
            "contact:phone": "+49 89 55060518",
            "image": "https://commons.wikimedia.org/wiki/File:Bibliothek_Krailling.jpg",
            "name": "Gemeindebibliothek Krailling",
            "opening_hours": "Tu-We 10:00-18:00; Th 15:00-19:00; Fr 10:00-18:00; Sa 10:00-14:00; PH off",
            "ref:isil": "DE-1550",
            "website": "https://www.bibliothek-krailling.de/",
            "wikidata": "Q28729492"
          },
          "geometry": {
            "type": "Point",
            "coordinates": [
              11.4121877,
              48.0971393
            ]
          }
        },
        {
          "type": "Feature",
          "properties": {
            "id": "2134702724",
            "osm_type": "node",
            "lat": 48.1076354,
            "lon": 11.0898738,
            "amenity": "library",
            "name": "Gemeindebücherei",
            "opening_hours": "Mo-Tu 18:00-20:00",
            "operator": "Gemeinde Türkenfeld",
            "operator:type": "public",
            "wheelchair": "yes"
          },
          "geometry": {
            "type": "Point",
            "coordinates": [
              11.0898738,
              48.1076354
            ]
          }
        },
        {
          "type": "Feature",
          "properties": {
            "id": "2315780034",
            "osm_type": "node",
            "lat": 48.1181677,
            "lon": 11.1320681,
            "addr:housenumber": "3",
            "addr:postcode": "82288",
            "addr:street": "Ammerseestraße",
            "amenity": "library",
            "name": "Bücherei",
            "opening_hours": "Th 18:00-19:00; Su 10:00-11:00",
            "website": "https://www.kottgeisering.de/Gemeindebuecherei-Kottgeisering"
          },
          "geometry": {
            "type": "Point",
            "coordinates": [
              11.1320681,
              48.1181677
            ]
          }
        },
        {
          "type": "Feature",
          "properties": {
            "id": "2896564201",
            "osm_type": "node",
            "lat": 48.0683985,
            "lon": 11.2011969,
            "addr:city": "Wörthsee",
            "addr:housenumber": "20",
            "addr:postcode": "82237",
            "addr:street": "Seestraße",
            "amenity": "library",
            "name": "Gemeindebücherei Wörthsee",
            "phone": "+49 8153 985828",
            "toilets:wheelchair": "yes",
            "website": "https://www.gemeindebuecherei-woerthsee.de/",
            "wheelchair": "limited",
            "wheelchair:description": "Bücherei befindet sich im Untergeschoss des Rathauses. Behindertentoilette im Rathaus (1. Stock) vorh. . Es fährt ein Aufzug in die Bücherei, allerdings muss der von unten \"angefordert\" werden. Die Abteilung Kinderbücher ist nur über Treppen erreichbar."
          },
          "geometry": {
            "type": "Point",
            "coordinates": [
              11.2011969,
              48.0683985
            ]
          }
        },
        {
          "type": "Feature",
          "properties": {
            "id": "5061588045",
            "osm_type": "node",
            "lat": 48.1938347,
            "lon": 11.3709887,
            "amenity": "library",
            "name": "Gemeindebücherei Gröbenzell"
          },
          "geometry": {
            "type": "Point",
            "coordinates": [
              11.3709887,
              48.1938347
            ]
          }
        },
        {
          "type": "Feature",
          "properties": {
            "id": "7131937595",
            "osm_type": "node",
            "lat": 48.107966,
            "lon": 11.2978739,
            "amenity": "library",
            "name": "Gemeindebücherei",
            "opening_hours": "Mo 15:00-18:00; Tu,Th 08:00-12:00,15:00-19:00; Sa[1] 10:00-13:00"
          },
          "geometry": {
            "type": "Point",
            "coordinates": [
              11.2978739,
              48.107966
            ]
          }
        },
        {
          "type": "Feature",
          "properties": {
            "id": "7666997575",
            "osm_type": "node",
            "lat": 48.1389651,
            "lon": 11.2063963,
            "addr:city": "Schöngeising",
            "addr:housenumber": "28",
            "addr:postcode": "82296",
            "addr:street": "Amperstraße",
            "amenity": "library",
            "email": "buecherei-schoengeising@web.de",
            "name": "Gemeindebücherei Schöngeising",
            "opening_hours": "Tu 15:00-17:00; Th 15:00-17:30",
            "operator": "Gemeinde Schöngeisind",
            "operator:type": "public",
            "phone": "+49 8141 2257830",
            "website": "https://www.schoengeising.de/buecherei"
          },
          "geometry": {
            "type": "Point",
            "coordinates": [
              11.2063963,
              48.1389651
            ]
          }
        },
        {
          "type": "Feature",
          "properties": {
            "id": "7835392698",
            "osm_type": "node",
            "lat": 48.3024124,
            "lon": 11.3588333,
            "addr:city": "Schwabhausen",
            "addr:country": "DE",
            "addr:housenumber": "2",
            "addr:postcode": "85247",
            "addr:street": "Ludwig-Thoma-Straße",
            "amenity": "library",
            "name": "Gemeindebücherei",
            "operator": "Gemeinde Schwabhausen",
            "ref:isil": "DE-1636",
            "website": "https://www.buecherei-schwabhausen.de/"
          },
          "geometry": {
            "type": "Point",
            "coordinates": [
              11.3588333,
              48.3024124
            ]
          }
        },
        {
          "type": "Feature",
          "properties": {
            "id": "9648148204",
            "osm_type": "node",
            "lat": 48.2163914,
            "lon": 11.2580279,
            "amenity": "library",
            "name": "Gemeindebücherei Maisach",
            "opening_hours": "Tu,Th 14:00-19:00; We 09:00-14:00; Fr 14:00-20:00; Sa-Mo,PH off"
          },
          "geometry": {
            "type": "Point",
            "coordinates": [
              11.2580279,
              48.2163914
            ]
          }
        },
        {
          "type": "Feature",
          "properties": {
            "id": "9995680302",
            "osm_type": "node",
            "lat": 48.1493147,
            "lon": 11.4352562,
            "addr:city": "München",
            "addr:country": "DE",
            "addr:housenumber": "13",
            "addr:postcode": "81243",
            "addr:street": "Radolfzeller Straße",
            "amenity": "library",
            "email": "stb.amwestkreuz.kult@muenchen.de",
            "name": "Münchner Stadtbibliothek Am Westkreuz",
            "opening_hours": "Tu-Sa 8:00-22:00; Su,PH 10:00-20:00",
            "operator": "Münchner Stadtbibliothek",
            "operator:type": "public",
            "operator:wikidata": "Q1518519",
            "phone": "+49 89 233 772427",
            "website": "https://www.muenchner-stadtbibliothek.de/stadtbibliothek-am-westkreuz"
          },
          "geometry": {
            "type": "Point",
            "coordinates": [
              11.4352562,
              48.1493147
            ]
          }
        },
        {
          "type": "Feature",
          "properties": {
            "id": "10734246839",
            "osm_type": "node",
            "lat": 48.2128603,
            "lon": 11.3189758,
            "addr:city": "Olching",
            "addr:country": "DE",
            "addr:housenumber": "3",
            "addr:postcode": "82140",
            "addr:street": "Dachauer Straße",
            "amenity": "library",
            "name": "Erlebnisbücherei Esting",
            "operator": "Stadt Olching"
          },
          "geometry": {
            "type": "Point",
            "coordinates": [
              11.3189758,
              48.2128603
            ]
          }
        },
        {
          "type": "Feature",
          "properties": {
            "id": "10758482521",
            "osm_type": "node",
            "lat": 48.134814,
            "lon": 11.3610091,
            "amenity": "library",
            "name": "Pfarrbücherei St. Martin",
            "opening_hours": "Tu, Th 16:00-18:00",
            "phone": "+49 89 89438716",
            "website": "https://www.stadtkirche-germering.de/sm/buecherei"
          },
          "geometry": {
            "type": "Point",
            "coordinates": [
              11.3610091,
              48.134814
            ]
          }
        },
        {
          "type": "Feature",
          "properties": {
            "id": "11290446376",
            "osm_type": "node",
            "lat": 48.1150675,
            "lon": 11.4351814,
            "addr:city": "Gräfelfing",
            "addr:housenumber": "8",
            "addr:postcode": "82166",
            "addr:street": "Stefanusstraße",
            "alt_name": "Bücherei Gräfelfing;Bibliothek Gräfelfing;Gemeindebibliothek Gräfelfing",
            "amenity": "library",
            "check_date": "2023-10-25",
            "contact:email": "buecherei@graefelfing.de",
            "contact:facebook": "https://www.facebook.com/buecherei.graefelfing",
            "contact:phone": "+49 89 85821073",
            "internet_access": "wlan",
            "internet_access:fee": "no",
            "level": "1",
            "name": "Gemeindebücherei Gräfelfing",
            "opening_hours": "Tu,Th,Fr 11:00-19:00; We 14:00-19:00; Sa 11:00-14:30; Mo,PH off",
            "website": "https://www.buecherei-graefelfing.de/rund-um-die-buecherei/startseite-aktuelles-veranstaltungen-fuer-erwachsene/",
            "wheelchair": "yes",
            "wikidata": "Q28729329"
          },
          "geometry": {
            "type": "Point",
            "coordinates": [
              11.4351814,
              48.1150675
            ]
          }
        }
      ],
      "children": []
    }
  ]
}