{
  "bbox": {
    "south": 48.355971499999995,
    "west": 13.345766,
    "north": 49.017078,
    "east": 15.253173
  },
  "poiCount": 75,
  "leafCount": 0,
  "averagePosition": [
    14.329010499999997,
    48.70048683466667
  ],
  "data": [],
  "children": [
    {
      "bbox": {
        "south": 48.355971499999995,
        "west": 13.345766,
        "north": 48.68652475,
        "east": 14.2994695
      },
      "poiCount": 22,
      "leafCount": 22,
      "averagePosition": [
        13.902178413636364,
        48.5307115
      ],
      "data": [
        {
          "type": "Feature",
          "properties": {
            "id": "2487638746",
            "osm_type": "node",
            "lat": 48.4566223,
            "lon": 13.4298553,
            "addr:city": "Schärding",
            "addr:housenumber": "3",
            "addr:postcode": "4780",
            "addr:street": "Schloßgasse",
            "amenity": "library",
            "name": "Stadtbücherei"
          },
          "geometry": {
            "type": "Point",
            "coordinates": [
              13.4298553,
              48.4566223
            ]
          }
        },
        {
          "type": "Feature",
          "properties": {
            "id": "3775374618",
            "osm_type": "node",
            "lat": 48.6352286,
            "lon": 13.4790796,
            "amenity": "library"
          },
          "geometry": {
            "type": "Point",
            "coordinates": [
              13.4790796,
              48.6352286
            ]
          }
        },
        {
          "type": "Feature",
          "properties": {
            "id": "309963436",
            "osm_type": "node",
            "lat": 48.6156442,
            "lon": 13.5411421,
            "amenity": "library",
            "name": "Gemeindebücherei",
            "wheelchair": "yes"
          },
          "geometry": {
            "type": "Point",
            "coordinates": [
              13.5411421,
              48.6156442
            ]
          }
        },
        {
          "type": "Feature",
          "properties": {
            "id": "331602808",
            "osm_type": "node",
            "lat": 48.6370409,
            "lon": 13.9672681,
            "amenity": "library",
            "name": "Gemeindebücherei"
          },
          "geometry": {
            "type": "Point",
            "coordinates": [
              13.9672681,
              48.6370409
            ]
          }
        },
        {
          "type": "Feature",
          "properties": {
            "id": "1717617373",
            "osm_type": "node",
            "lat": 48.410322,
            "lon": 13.5351216,
            "amenity": "library",
            "name": "Pfarrbücherei",
            "wikidata": "Q56238140"
          },
          "geometry": {
            "type": "Point",
            "coordinates": [
              13.5351216,
              48.410322
            ]
          }
        },
        {
          "type": "Feature",
          "properties": {
            "id": "1927321879",
            "osm_type": "node",
            "lat": 48.5445936,
            "lon": 13.5707182,
            "amenity": "library",
            "name": "Pfarrbibliothek Esternberg",
            "wheelchair": "no"
          },
          "geometry": {
            "type": "Point",
            "coordinates": [
              13.5707182,
              48.5445936
            ]
          }
        },
        {
          "type": "Feature",
          "properties": {
            "id": "2168932898",
            "osm_type": "node",
            "lat": 48.4564429,
            "lon": 13.9912227,
            "addr:city": "Kleinzell im Mühlkreis",
            "addr:country": "AT",
            "addr:postcode": "4115",
            "amenity": "library",
            "email": "buecherei.kleinzell@gmail.com",
            "name": "Pfarr- und Gemeindebücherei",
            "opening_hours": "Tu 18:00-20:00; Th 16:00-18:00; Su 08:30-10:30",
            "phone": "+436803069991",
            "website": "https://www.buchtreff-kleinzell.at/",
            "wikidata": "Q56238518"
          },
          "geometry": {
            "type": "Point",
            "coordinates": [
              13.9912227,
              48.4564429
            ]
          }
        },
        {
          "type": "Feature",
          "properties": {
            "id": "2331005045",
            "osm_type": "node",
            "lat": 48.5730493,
            "lon": 13.9912581,
            "amenity": "library",
            "name": "Stadtbücherei Rohrbach",
            "opening_hours": "We, Fr 15:00-19:00; Su 08:30-11:45",
            "wikidata": "Q56238788"
          },
          "geometry": {
            "type": "Point",
            "coordinates": [
              13.9912581,
              48.5730493
            ]
          }
        },
        {
          "type": "Feature",
          "properties": {
            "id": "3245145505",
            "osm_type": "node",
            "lat": 48.443944,
            "lon": 13.9353281,
            "addr:city": "Kirchberg ob der Donau",
            "addr:country": "AT",
            "addr:housenumber": "1",
            "addr:postcode": "4131",
            "addr:street": "Ortsplatz",
            "amenity": "library",
            "name": "Bücherei",
            "operator": "Pfarre und Gemeinde Kirchberg ob der Donau",
            "website": "https://www.biblioweb.at/kirchberg"
          },
          "geometry": {
            "type": "Point",
            "coordinates": [
              13.9353281,
              48.443944
            ]
          }
        },
        {
          "type": "Feature",
          "properties": {
            "id": "3715764730",
            "osm_type": "node",
            "lat": 48.484609,
            "lon": 13.5701461,
            "addr:city": "Münzkirchen",
            "addr:country": "AT",
            "addr:housenumber": "16",
            "addr:postcode": "4792",
            "addr:street": "Hofmark",
            "amenity": "library",
            "at_bev:addr_date": "2018-04-02",
            "check_date": "2023-07-22",
            "name": "Öffentliche Bücherei der Pfarre / Gemeinde Münzkirchen",
            "opening_hours": "Sa,Su \"nach den Gottesdiensten je eine halbe Stunde\""
          },
          "geometry": {
            "type": "Point",
            "coordinates": [
              13.5701461,
              48.484609
            ]
          }
        },
        {
          "type": "Feature",
          "properties": {
            "id": "5334758138",
            "osm_type": "node",
            "lat": 48.5159635,
            "lon": 13.8731909,
            "amenity": "library",
            "email": "buecherei.putzleinsdorf@aon.at",
            "name": "Öffentliche Bibliothek Pfarre Putzleinsdorf",
            "opening_hours": "We 18:30-20:00; Su 08:30-11:30",
            "phone": "Maria Zinöcker: +4372867272",
            "website": "https://www.dioezese-linz.at/institution/430603"
          },
          "geometry": {
            "type": "Point",
            "coordinates": [
              13.8731909,
              48.5159635
            ]
          }
        },
        {
          "type": "Feature",
          "properties": {
            "id": "5907579222",
            "osm_type": "node",
            "lat": 48.6455332,
            "lon": 13.9716776,
            "amenity": "library",
            "name": "Öffentliche Bücherei Aigen-Schlägl",
            "name:en": "Public library Aigen-Schlägl"
          },
          "geometry": {
            "type": "Point",
            "coordinates": [
              13.9716776,
              48.6455332
            ]
          }
        },
        {
          "type": "Feature",
          "properties": {
            "id": "9047035278",
            "osm_type": "node",
            "lat": 48.4831798,
            "lon": 14.0009956,
            "amenity": "library"
          },
          "geometry": {
            "type": "Point",
            "coordinates": [
              14.0009956,
              48.4831798
            ]
          }
        },
        {
          "type": "Feature",
          "properties": {
            "id": "9956458500",
            "osm_type": "node",
            "lat": 48.5546719,
            "lon": 13.6367476,
            "amenity": "library",
            "name": "Gemeindebücherei Obernzell",
            "opening_hours": "Tu 18:00-19:00; Fr 16:00-18:00"
          },
          "geometry": {
            "type": "Point",
            "coordinates": [
              13.6367476,
              48.5546719
            ]
          }
        },
        {
          "type": "Feature",
          "properties": {
            "id": "11117720238",
            "osm_type": "node",
            "lat": 48.5460033,
            "lon": 13.9045788,
            "addr:city": "Sarleinsbach",
            "addr:housenumber": "6",
            "addr:postcode": "4152",
            "addr:street": "Marktplatz",
            "amenity": "library",
            "name": "Pfarrbücherei Sarleinsbach",
            "opening_hours": "Tu 17:30-19:00; Th 16:00-17:30; Su 8:30-11:30",
            "ref:isil": "none",
            "website": "https://www.biblioweb.at/sarleinsbach"
          },
          "geometry": {
            "type": "Point",
            "coordinates": [
              13.9045788,
              48.5460033
            ]
          }
        },
        {
          "type": "Feature",
          "properties": {
            "id": "1458543811",
            "osm_type": "node",
            "lat": 48.4507376,
            "lon": 14.084806,
            "amenity": "library",
            "name": "Öffentliche Bücherei der Pfarre und Gemeinde Niederwaldkirchen"
          },
          "geometry": {
            "type": "Point",
            "coordinates": [
              14.084806,
              48.4507376
            ]
          }
        },
        {
          "type": "Feature",
          "properties": {
            "id": "1465642666",
            "osm_type": "node",
            "lat": 48.4127365,
            "lon": 14.2774289,
            "amenity": "library",
            "check_date:opening_hours": "2025-02-12",
            "name": "Pfarrbibliothek Kirchschlag",
            "opening_hours": "We 09:30-11:30; Su 17:00-19:00"
          },
          "geometry": {
            "type": "Point",
            "coordinates": [
              14.2774289,
              48.4127365
            ]
          }
        },
        {
          "type": "Feature",
          "properties": {
            "id": "1764578344",
            "osm_type": "node",
            "lat": 48.5678909,
            "lon": 14.1028075,
            "amenity": "library",
            "email": "buecherei@st-stefan.ooe.gv.at",
            "name": "Bücherei St. Stefan am Walde",
            "opening_hours": "We 09:00-11:00; Th 17:00-19:00; Su 10:00-11:00",
            "phone": "+43 7216 7010-20",
            "wikidata": "Q56238398"
          },
          "geometry": {
            "type": "Point",
            "coordinates": [
              14.1028075,
              48.5678909
            ]
          }
        },
        {
          "type": "Feature",
          "properties": {
            "id": "4154848593",
            "osm_type": "node",
            "lat": 48.6308063,
            "lon": 14.1656697,
            "amenity": "library"
          },
          "geometry": {
            "type": "Point",
            "coordinates": [
              14.1656697,
              48.6308063
            ]
          }
        },
        {
          "type": "Feature",
          "properties": {
            "id": "9656827726",
            "osm_type": "node",
            "lat": 48.4663642,
            "lon": 14.2702074,
            "addr:city": "Zwettl an der Rodl",
            "addr:housenumber": "1",
            "addr:postcode": "4180",
            "addr:street": "Marktplatz",
            "amenity": "library",
            "name": "Bibliothek Zwettl",
            "website": "http://www.bibliozwettl.at/"
          },
          "geometry": {
            "type": "Point",
            "coordinates": [
              14.2702074,
              48.4663642
            ]
          }
        },
        {
          "type": "Feature",
          "properties": {
            "id": "10314814713",
            "osm_type": "node",
            "lat": 48.6213295,
            "lon": 14.2562604,
            "addr:city": "Loučovice",
            "addr:housenumber": "279",
            "addr:postcode": "38276",
            "amenity": "library",
            "name": "Obecní knihovna"
          },
          "geometry": {
            "type": "Point",
            "coordinates": [
              14.2562604,
              48.6213295
            ]
          }
        },
        {
          "type": "Feature",
          "properties": {
            "id": "13022884481",
            "osm_type": "node",
            "lat": 48.5229395,
            "lon": 14.2924148,
            "addr:city": "Bad Leonfelden",
            "addr:country": "AT",
            "addr:housenumber": "1a",
            "addr:postcode": "4190",
            "addr:street": "Hauptplatz",
            "amenity": "library",
            "contact:phone": "+43 721 320637",
            "name": "Bibliothek Bad Leonfelden",
            "website": "https://www5.biblioweb.at/login.htm"
          },
          "geometry": {
            "type": "Point",
            "coordinates": [
              14.2924148,
              48.5229395
            ]
          }
        }
      ],
      "children": []
    },
    {
      "bbox": {
        "south": 48.355971499999995,
        "west": 14.2994695,
        "north": 48.68652475,
        "east": 15.253173
      },
      "poiCount": 15,
      "leafCount": 15,
      "averagePosition": [
        14.717611413333334,
        48.54985619333333
      ],
      "data": [
        {
          "type": "Feature",
          "properties": {
            "id": "1373799834",
            "osm_type": "node",
            "lat": 48.3673582,
            "lon": 14.5176537,
            "addr:city": "Hagenberg im Mühlkreis",
            "addr:housenumber": "88",
            "addr:postcode": "4232",
            "addr:street": "Hauptstraße",
            "amenity": "library",
            "name": "Öffentliche Bibliothek der Pfarre und Gemeinde Hagenberg",
            "phone": "+43 681 20429678",
            "website": "https://www.hagenberg.bvoe.at/",
            "wheelchair": "yes",
            "wikidata": "Q56238149"
          },
          "geometry": {
            "type": "Point",
            "coordinates": [
              14.5176537,
              48.3673582
            ]
          }
        },
        {
          "type": "Feature",
          "properties": {
            "id": "4412947658",
            "osm_type": "node",
            "lat": 48.6172598,
            "lon": 14.3113262,
            "addr:city": "Vyšší Brod",
            "addr:conscriptionnumber": "250",
            "addr:country": "CZ",
            "addr:housenumber": "250",
            "addr:place": "Vyšší Brod",
            "addr:postcode": "38273",
            "addr:street": "Míru",
            "amenity": "library",
            "internet_access": "yes",
            "internet_access:fee": "yes",
            "name": "Městská knihovna Vyšší Brod",
            "phone": "+420 380 746 611",
            "source:addr": "cuzk:ruian",
            "website": "https://www.knihovnavbrod.cz/"
          },
          "geometry": {
            "type": "Point",
            "coordinates": [
              14.3113262,
              48.6172598
            ]
          }
        },
        {
          "type": "Feature",
          "properties": {
            "id": "9939523130",
            "osm_type": "node",
            "lat": 48.6204705,
            "lon": 14.3066979,
            "amenity": "library",
            "name": "Knihovna Cisterciáckého opatství Vyšší Brod"
          },
          "geometry": {
            "type": "Point",
            "coordinates": [
              14.3066979,
              48.6204705
            ]
          }
        },
        {
          "type": "Feature",
          "properties": {
            "id": "11215378836",
            "osm_type": "node",
            "lat": 48.6045701,
            "lon": 14.4050257,
            "amenity": "library"
          },
          "geometry": {
            "type": "Point",
            "coordinates": [
              14.4050257,
              48.6045701
            ]
          }
        },
        {
          "type": "Feature",
          "properties": {
            "id": "13086225797",
            "osm_type": "node",
            "lat": 48.510188,
            "lon": 14.503864,
            "addr:city": "Freistadt",
            "addr:housenumber": "1",
            "addr:postcode": "4240",
            "addr:street": "Dechanthofplatz",
            "amenity": "library",
            "name": "Pfarrbücherei Freistadt",
            "operator": "Pfarre Freistadt",
            "operator:type": "public"
          },
          "geometry": {
            "type": "Point",
            "coordinates": [
              14.503864,
              48.510188
            ]
          }
        },
        {
          "type": "Feature",
          "properties": {
            "id": "1198120560",
            "osm_type": "node",
            "lat": 48.4428465,
            "lon": 14.5376412,
            "addr:city": "Kefermarkt",
            "addr:housenumber": "15",
            "addr:postcode": "4292",
            "addr:street": "Oberer Markt",
            "amenity": "library",
            "contact:phone": "+43 7947 6255 30",
            "contact:website": "http://www.bvoe.at/~kefermarkt/",
            "name": "Öffentliche Bibliothek",
            "opening_hours": "Tu 17:00-19:00; Su 08:15-11:00",
            "source": "local_knowledge",
            "website": "http://www.bvoe.at/~kefermarkt/"
          },
          "geometry": {
            "type": "Point",
            "coordinates": [
              14.5376412,
              48.4428465
            ]
          }
        },
        {
          "type": "Feature",
          "properties": {
            "id": "1604801816",
            "osm_type": "node",
            "lat": 48.4447405,
            "lon": 14.6793046,
            "amenity": "library",
            "name": "Pfarrbücherrei St.Leonhard"
          },
          "geometry": {
            "type": "Point",
            "coordinates": [
              14.6793046,
              48.4447405
            ]
          }
        },
        {
          "type": "Feature",
          "properties": {
            "id": "1950727178",
            "osm_type": "node",
            "lat": 48.6516926,
            "lon": 14.9421533,
            "amenity": "library",
            "email": "buecherei@gross.schoenau.at",
            "name": "Volks- und Ferienbücherei",
            "opening_hours": "Th 17:00-18:30; Su 8:45-10:45",
            "phone": "0043 664 9511070",
            "website": "http://www.2.bvoe.at/~gross.schoenau"
          },
          "geometry": {
            "type": "Point",
            "coordinates": [
              14.9421533,
              48.6516926
            ]
          }
        },
        {
          "type": "Feature",
          "properties": {
            "id": "2076891565",
            "osm_type": "node",
            "lat": 48.5856824,
            "lon": 14.561316,
            "amenity": "library"
          },
          "geometry": {
            "type": "Point",
            "coordinates": [
              14.561316,
              48.5856824
            ]
          }
        },
        {
          "type": "Feature",
          "properties": {
            "id": "4374273486",
            "osm_type": "node",
            "lat": 48.629081,
            "lon": 14.8243376,
            "amenity": "library",
            "name": "Bücherei Bad Großpertholz"
          },
          "geometry": {
            "type": "Point",
            "coordinates": [
              14.8243376,
              48.629081
            ]
          }
        },
        {
          "type": "Feature",
          "properties": {
            "id": "6635100897",
            "osm_type": "node",
            "lat": 48.5379626,
            "lon": 14.5332299,
            "amenity": "library"
          },
          "geometry": {
            "type": "Point",
            "coordinates": [
              14.5332299,
              48.5379626
            ]
          }
        },
        {
          "type": "Feature",
          "properties": {
            "id": "3013878885",
            "osm_type": "node",
            "lat": 48.6673937,
            "lon": 15.0632162,
            "addr:city": "Schweiggers",
            "addr:housenumber": "25",
            "addr:postcode": "3931",
            "addr:street": "Hauptplatz",
            "amenity": "library",
            "name": "Buch-Media Schweiggers",
            "opening_hours": "Fr 07:00-07:30, 16:00-19:00"
          },
          "geometry": {
            "type": "Point",
            "coordinates": [
              15.0632162,
              48.6673937
            ]
          }
        },
        {
          "type": "Feature",
          "properties": {
            "id": "5890735821",
            "osm_type": "node",
            "lat": 48.539351,
            "lon": 15.1891634,
            "addr:city": "Großgöttfritz",
            "addr:country": "AT",
            "addr:housenumber": "100",
            "addr:place": "Großgöttfritz",
            "addr:postcode": "3913",
            "amenity": "library",
            "opening_hours": "Fr 15:00-18:00",
            "wheelchair": "yes"
          },
          "geometry": {
            "type": "Point",
            "coordinates": [
              15.1891634,
              48.539351
            ]
          }
        },
        {
          "type": "Feature",
          "properties": {
            "id": "5909493063",
            "osm_type": "node",
            "lat": 48.4224882,
            "lon": 15.2209001,
            "addr:city": "Ottenschlag",
            "addr:housenumber": "2a",
            "addr:postcode": "3631",
            "addr:street": "Michael-Jank-Gasse",
            "amenity": "library",
            "name": "Gemeindebücherei Ottenschlag"
          },
          "geometry": {
            "type": "Point",
            "coordinates": [
              15.2209001,
              48.4224882
            ]
          }
        },
        {
          "type": "Feature",
          "properties": {
            "id": "11708675174",
            "osm_type": "node",
            "lat": 48.6067578,
            "lon": 15.1683414,
            "addr:housenumber": "15",
            "addr:street": "Neuer Markt",
            "amenity": "library",
            "check_date": "2024-03-09",
            "name": "Stadtbücherei",
            "opening_hours": "Mo,Th 10:00-12:00,14:30-18:00",
            "operator:type": "government"
          },
          "geometry": {
            "type": "Point",
            "coordinates": [
              15.1683414,
              48.6067578
            ]
          }
        }
      ],
      "children": []
    },
    {
      "bbox": {
        "south": 48.68652475,
        "west": 13.345766,
        "north": 49.017078,
        "east": 14.2994695
      },
      "poiCount": 10,
      "leafCount": 10,
      "averagePosition": [
        14.03450795,
        48.86161904
      ],
      "data": [
        {
          "type": "Feature",
          "properties": {
            "id": "9174100249",
            "osm_type": "node",
            "lat": 48.8559092,
            "lon": 13.3981594,
            "addr:city": "Grafenau",
            "addr:country": "DE",
            "addr:housenumber": "1",
            "addr:postcode": "94481",
            "addr:street": "Rathausgasse",
            "amenity": "library",
            "description": "Eigener Eingang für Rollstuhlfahrer",
            "name": "Stadtbücherei",
            "operator": "Stadt Grafenau"
          },
          "geometry": {
            "type": "Point",
            "coordinates": [
              13.3981594,
              48.8559092
            ]
          }
        },
        {
          "type": "Feature",
          "properties": {
            "id": "5873325814",
            "osm_type": "node",
            "lat": 48.8228954,
            "lon": 13.6013696,
            "addr:housenumber": "36",
            "addr:street": "Dorfplatz",
            "amenity": "library",
            "name": "Gemeindebücherei Hinterschmiding",
            "opening_hours": "Mo 18:00-19:00; Fr 15:30-16:30",
            "phone": "+49-8551-4385"
          },
          "geometry": {
            "type": "Point",
            "coordinates": [
              13.6013696,
              48.8228954
            ]
          }
        },
        {
          "type": "Feature",
          "properties": {
            "id": "3577569569",
            "osm_type": "node",
            "lat": 48.7307198,
            "lon": 14.2099254,
            "amenity": "library",
            "source": "survey"
          },
          "geometry": {
            "type": "Point",
            "coordinates": [
              14.2099254,
              48.7307198
            ]
          }
        },
        {
          "type": "Feature",
          "properties": {
            "id": "7760795518",
            "osm_type": "node",
            "lat": 48.8112759,
            "lon": 14.2588668,
            "addr:city": "Kájov",
            "addr:housenumber": "100",
            "addr:postcode": "38221",
            "addr:street": "Kájovská",
            "amenity": "library",
            "name": "Veřejná knihovna",
            "wikidata": "Q114619753"
          },
          "geometry": {
            "type": "Point",
            "coordinates": [
              14.2588668,
              48.8112759
            ]
          }
        },
        {
          "type": "Feature",
          "properties": {
            "id": "8677714035",
            "osm_type": "node",
            "lat": 48.7741736,
            "lon": 14.2896885,
            "amenity": "library",
            "name": "Městská knihovna Větřní",
            "website": "https://www.knihovnavetrni.cz",
            "wikidata": "Q114626028"
          },
          "geometry": {
            "type": "Point",
            "coordinates": [
              14.2896885,
              48.7741736
            ]
          }
        },
        {
          "type": "Feature",
          "properties": {
            "id": "8685975926",
            "osm_type": "node",
            "lat": 48.8528386,
            "lon": 14.2145095,
            "addr:city": "Chvalšiny",
            "addr:postcode": "38208",
            "amenity": "library",
            "name": "Obecní knihovna Chvalšiny",
            "website": "https://www.chvalsiny.cz/obec/knihovna"
          },
          "geometry": {
            "type": "Point",
            "coordinates": [
              14.2145095,
              48.8528386
            ]
          }
        },
        {
          "type": "Feature",
          "properties": {
            "id": "6641049413",
            "osm_type": "node",
            "lat": 48.9091454,
            "lon": 14.0203162,
            "amenity": "library"
          },
          "geometry": {
            "type": "Point",
            "coordinates": [
              14.0203162,
              48.9091454
            ]
          }
        },
        {
          "type": "Feature",
          "properties": {
            "id": "10134743470",
            "osm_type": "node",
            "lat": 49.0122004,
            "lon": 13.9994386,
            "amenity": "library",
            "name": "Městská knihovna",
            "website": "https://www.knih-pt.cz/"
          },
          "geometry": {
            "type": "Point",
            "coordinates": [
              13.9994386,
              49.0122004
            ]
          }
        },
        {
          "type": "Feature",
          "properties": {
            "id": "11220046724",
            "osm_type": "node",
            "lat": 48.9293215,
            "lon": 14.2215155,
            "amenity": "library",
            "name": "Obecní Knihovna Brloh",
            "opening_hours": "Mo 07:30-11:30, 12:30-17:00; Tu 07:30-11:30; We 12:30-17:00"
          },
          "geometry": {
            "type": "Point",
            "coordinates": [
              14.2215155,
              48.9293215
            ]
          }
        },
        {
          "type": "Feature",
          "properties": {
            "id": "12900532864",
            "osm_type": "node",
            "lat": 48.9177106,
            "lon": 14.13129,
            "addr:city": "Ktiš",
            "addr:housenumber": "11",
            "addr:postcode": "38403",
            "amenity": "library",
            "name": "Obecní knihova Ktiš"
          },
          "geometry": {
            "type": "Point",
            "coordinates": [
              14.13129,
              48.9177106
            ]
          }
        }
      ],
      "children": []
    },
    {
      "bbox": {
        "south": 48.68652475,
        "west": 14.2994695,
        "north": 49.017078,
        "east": 15.253173
      },
      "poiCount": 28,
      "leafCount": 28,
      "averagePosition": [
        14.561378989285714,
        48.85702951071429
      ],
      "data": [
        {
          "type": "Feature",
          "properties": {
            "id": "455553842",
            "osm_type": "node",
            "lat": 48.8103805,
            "lon": 14.3167151,
            "addr:city": "Český Krumlov",
            "addr:conscriptionnumber": "155",
            "addr:country": "CZ",
            "addr:housenumber": "155",
            "addr:postcode": "38101",
            "addr:street": "Horní",
            "amenity": "library",
            "internet_access": "yes",
            "internet_access:fee": "customers",
            "level": "1",
            "name": "Městská knihovna",
            "opening_hours": "Mo-Fr 08:00-18:00; We off open \"Oddělení pro dospělé\" || Mo 13:00-18:00; Tu,Th 13:00-17:00; Fr 09:00-12:00,13:00-16:00 open \"Oddělení pro děti\" || Mo,Fr 13:00-18:00; Tu,Th 09:00-11:30,13:00-18:00 open \"Studovna a čítárna\"",
            "operator": "Český Krumlov",
            "operator:type": "public",
            "payment:cash": "yes",
            "payment:credit_cards": "yes",
            "ref:ruian:addr": "8762074",
            "source:addr": "cuzk:ruian",
            "website": "https://www.knih-ck.cz/",
            "wheelchair": "no",
            "wikidata": "Q41633219",
            "wikipedia": "cs:Městská knihovna v Českém Krumlově"
          },
          "geometry": {
            "type": "Point",
            "coordinates": [
              14.3167151,
              48.8103805
            ]
          }
        },
        {
          "type": "Feature",
          "properties": {
            "id": "4866774923",
            "osm_type": "node",
            "lat": 48.8242071,
            "lon": 14.5276678,
            "amenity": "library",
            "name": "Knihovna"
          },
          "geometry": {
            "type": "Point",
            "coordinates": [
              14.5276678,
              48.8242071
            ]
          }
        },
        {
          "type": "Feature",
          "properties": {
            "id": "7017216150",
            "osm_type": "node",
            "lat": 48.801149,
            "lon": 14.3107057,
            "addr:city": "Český Krumlov",
            "addr:housenumber": "366",
            "addr:postcode": "38101",
            "addr:street": "Sídliště Plešivec",
            "amenity": "library",
            "name": "Městská knihovna",
            "website": "https://www.knih-ck.cz/"
          },
          "geometry": {
            "type": "Point",
            "coordinates": [
              14.3107057,
              48.801149
            ]
          }
        },
        {
          "type": "Feature",
          "properties": {
            "id": "7069696472",
            "osm_type": "node",
            "lat": 48.8237992,
            "lon": 14.3291548,
            "addr:city": "Český Krumlov",
            "addr:housenumber": "187",
            "addr:postcode": "38101",
            "addr:street": "Urbinská",
            "amenity": "library",
            "internet_access": "wlan",
            "internet_access:fee": "no",
            "name": "Městská knihovna Mír",
            "opening_hours": "Tu 09:00-12:00,13:00-18:00, We 09:00-12:00, Th 09:00-12:30,13:00-18:00, We 13:00-15:00",
            "operator": "Městská knihovna Český Krumlov",
            "phone": "+420 380 726 119",
            "wikimedia_commons": "File:Pobočka Mír.jpg"
          },
          "geometry": {
            "type": "Point",
            "coordinates": [
              14.3291548,
              48.8237992
            ]
          }
        },
        {
          "type": "Feature",
          "properties": {
            "id": "7968471385",
            "osm_type": "node",
            "lat": 48.7376224,
            "lon": 14.4907614,
            "addr:city": "Kaplice",
            "addr:housenumber": "305",
            "addr:postcode": "38241",
            "addr:street": "Linecká",
            "amenity": "library",
            "email": "knihovna@mestokaplice.cz",
            "name": "Městská knihovna Kaplice",
            "payment:cash": "yes",
            "payment:credit_cards": "yes",
            "website": "https://www.kapliceknihovna.estranky.cz"
          },
          "geometry": {
            "type": "Point",
            "coordinates": [
              14.4907614,
              48.7376224
            ]
          }
        },
        {
          "type": "Feature",
          "properties": {
            "id": "8703183030",
            "osm_type": "node",
            "lat": 48.7814351,
            "lon": 14.3504443,
            "addr:city": "Přídolí",
            "addr:postcode": "38101",
            "amenity": "library",
            "name": "Knihovna Přídolí"
          },
          "geometry": {
            "type": "Point",
            "coordinates": [
              14.3504443,
              48.7814351
            ]
          }
        },
        {
          "type": "Feature",
          "properties": {
            "id": "9824753531",
            "osm_type": "node",
            "lat": 48.8447929,
            "lon": 14.3433,
            "addr:city": "Srnín",
            "addr:postcode": "38101",
            "amenity": "library",
            "wikidata": "Q114619771"
          },
          "geometry": {
            "type": "Point",
            "coordinates": [
              14.3433,
              48.8447929
            ]
          }
        },
        {
          "type": "Feature",
          "properties": {
            "id": "9913468224",
            "osm_type": "node",
            "lat": 48.7933794,
            "lon": 14.4072777,
            "amenity": "library",
            "name": "Obecní knihovna Zubčice"
          },
          "geometry": {
            "type": "Point",
            "coordinates": [
              14.4072777,
              48.7933794
            ]
          }
        },
        {
          "type": "Feature",
          "properties": {
            "id": "11616871319",
            "osm_type": "node",
            "lat": 48.8327249,
            "lon": 14.3425737,
            "addr:city": "Přísečná",
            "amenity": "library",
            "email": "knihovna@obecprisecna.cz",
            "name": "Knihovna Přísečná",
            "opening_hours": "Tu[1] 18:00-19:00",
            "phone": "+420 602 689 213",
            "website": "https://www.obecprisecna.cz/obec/obecni-knihovna/",
            "wikidata": "Q114619773"
          },
          "geometry": {
            "type": "Point",
            "coordinates": [
              14.3425737,
              48.8327249
            ]
          }
        },
        {
          "type": "Feature",
          "properties": {
            "id": "11764695958",
            "osm_type": "node",
            "lat": 48.8127834,
            "lon": 14.3898346,
            "amenity": "library",
            "name": "Obecní knihovna",
            "wikidata": "Q114619757"
          },
          "geometry": {
            "type": "Point",
            "coordinates": [
              14.3898346,
              48.8127834
            ]
          }
        },
        {
          "type": "Feature",
          "properties": {
            "id": "13141476073",
            "osm_type": "node",
            "lat": 48.7355966,
            "lon": 14.4431613,
            "addr:city": "Omlenička",
            "amenity": "library",
            "name": "Obecní knihovna",
            "operator": "Omlenička",
            "operator:type": "public"
          },
          "geometry": {
            "type": "Point",
            "coordinates": [
              14.4431613,
              48.7355966
            ]
          }
        },
        {
          "type": "Feature",
          "properties": {
            "id": "4338988522",
            "osm_type": "node",
            "lat": 48.7718362,
            "lon": 15.0256139,
            "amenity": "library",
            "name": "Gemeindebücherei",
            "opening_hours": "Tu 14:00-18:00; Fr 16:00-20:00",
            "wikidata": "Q56215496"
          },
          "geometry": {
            "type": "Point",
            "coordinates": [
              15.0256139,
              48.7718362
            ]
          }
        },
        {
          "type": "Feature",
          "properties": {
            "id": "11846618133",
            "osm_type": "node",
            "lat": 48.6867352,
            "lon": 14.5791779,
            "amenity": "library"
          },
          "geometry": {
            "type": "Point",
            "coordinates": [
              14.5791779,
              48.6867352
            ]
          }
        },
        {
          "type": "Feature",
          "properties": {
            "id": "12523225028",
            "osm_type": "node",
            "lat": 48.729322,
            "lon": 14.6253879,
            "addr:city": "Benešov nad Černou",
            "addr:housenumber": "125",
            "addr:postcode": "38282",
            "amenity": "library"
          },
          "geometry": {
            "type": "Point",
            "coordinates": [
              14.6253879,
              48.729322
            ]
          }
        },
        {
          "type": "Feature",
          "properties": {
            "id": "1363519562",
            "osm_type": "node",
            "lat": 48.8663694,
            "lon": 15.1218559,
            "amenity": "library",
            "name": "Bücherei Heidenreichstein"
          },
          "geometry": {
            "type": "Point",
            "coordinates": [
              15.1218559,
              48.8663694
            ]
          }
        },
        {
          "type": "Feature",
          "properties": {
            "id": "1933418847",
            "osm_type": "node",
            "lat": 48.7568024,
            "lon": 15.186144,
            "amenity": "library",
            "name": "Bibliothek Vitis"
          },
          "geometry": {
            "type": "Point",
            "coordinates": [
              15.186144,
              48.7568024
            ]
          }
        },
        {
          "type": "Feature",
          "properties": {
            "id": "8852624154",
            "osm_type": "node",
            "lat": 48.7932101,
            "lon": 15.0689104,
            "amenity": "library",
            "name": "Stadtbücherei Schrems",
            "wikidata": "Q56238790"
          },
          "geometry": {
            "type": "Point",
            "coordinates": [
              15.0689104,
              48.7932101
            ]
          }
        },
        {
          "type": "Feature",
          "properties": {
            "id": "4387190891",
            "osm_type": "node",
            "lat": 48.9803329,
            "lon": 14.4465506,
            "amenity": "library",
            "name": "Jihočeská vědecká knihovna",
            "source": "http://www.cbvk.cz/index.php?lang=CZ&s=ctenari&pg=sluzby#cdvory"
          },
          "geometry": {
            "type": "Point",
            "coordinates": [
              14.4465506,
              48.9803329
            ]
          }
        },
        {
          "type": "Feature",
          "properties": {
            "id": "4409711089",
            "osm_type": "node",
            "lat": 49.0122193,
            "lon": 14.506384,
            "amenity": "library",
            "name": "Obecní knihovna",
            "opening_hours": "Mo 17:00-19:00"
          },
          "geometry": {
            "type": "Point",
            "coordinates": [
              14.506384,
              49.0122193
            ]
          }
        },
        {
          "type": "Feature",
          "properties": {
            "id": "5397771728",
            "osm_type": "node",
            "lat": 48.9741374,
            "lon": 14.5030002,
            "addr:city": "České Budějovice",
            "addr:housenumber": "12",
            "addr:postcode": "37059",
            "addr:street": "Železničářská",
            "amenity": "library",
            "internet_access": "yes",
            "name": "Jihočeská vědecká knihovna v Českých Budějovicích"
          },
          "geometry": {
            "type": "Point",
            "coordinates": [
              14.5030002,
              48.9741374
            ]
          }
        },
        {
          "type": "Feature",
          "properties": {
            "id": "7941194818",
            "osm_type": "node",
            "lat": 48.9906908,
            "lon": 14.4551528,
            "addr:city": "České Budějovice",
            "addr:housenumber": "1243/46",
            "addr:postcode": "370 59",
            "addr:street": "Fr. Ondříčka 46 (Kulturní dům Vltava)",
            "amenity": "library",
            "email": "vltava@cbvk.cz",
            "internet_access": "wlan",
            "internet_access:fee": "no",
            "name": "Jihočeská vědecká knihovna",
            "opening_hours": "Mo-We 08:30-18:00, Th 12:00-18:00, Fr 8:30-15:00",
            "phone": "+420 386 111 284",
            "website": "https://www.cbvk.cz/pobocky.html?pg=vltava",
            "wheelchair": "yes"
          },
          "geometry": {
            "type": "Point",
            "coordinates": [
              14.4551528,
              48.9906908
            ]
          }
        },
        {
          "type": "Feature",
          "properties": {
            "id": "10939571292",
            "osm_type": "node",
            "lat": 48.9831108,
            "lon": 14.4419379,
            "amenity": "library",
            "level": "0",
            "name": "Luxor",
            "wheelchair": "yes"
          },
          "geometry": {
            "type": "Point",
            "coordinates": [
              14.4419379,
              48.9831108
            ]
          }
        },
        {
          "type": "Feature",
          "properties": {
            "id": "13099141896",
            "osm_type": "node",
            "lat": 48.9041301,
            "lon": 14.3048133,
            "amenity": "library"
          },
          "geometry": {
            "type": "Point",
            "coordinates": [
              14.3048133,
              48.9041301
            ]
          }
        },
        {
          "type": "Feature",
          "properties": {
            "id": "1335828495",
            "osm_type": "node",
            "lat": 49.0157785,
            "lon": 14.6087553,
            "amenity": "library",
            "name": "Městská knihovna Lišov"
          },
          "geometry": {
            "type": "Point",
            "coordinates": [
              14.6087553,
              49.0157785
            ]
          }
        },
        {
          "type": "Feature",
          "properties": {
            "id": "1553111536",
            "osm_type": "node",
            "lat": 48.9339803,
            "lon": 14.6162094,
            "amenity": "library"
          },
          "geometry": {
            "type": "Point",
            "coordinates": [
              14.6162094,
              48.9339803
            ]
          }
        },
        {
          "type": "Feature",
          "properties": {
            "id": "2404901817",
            "osm_type": "node",
            "lat": 49.0035272,
            "lon": 14.7662282,
            "addr:housenumber": "2",
            "addr:postcode": "379 01",
            "addr:street": "Chelčického",
            "amenity": "library",
            "email": "info@knihovnatrebon.cz",
            "internet_access": "wlan",
            "name": "Městská knihovna Třeboň",
            "opening_hours": "Mo-Th 09:00-17:00",
            "phone": "+420 384 722 575",
            "website": "https://www.knihovnatrebon.cz/"
          },
          "geometry": {
            "type": "Point",
            "coordinates": [
              14.7662282,
              49.0035272
            ]
          }
        },
        {
          "type": "Feature",
          "properties": {
            "id": "2509394685",
            "osm_type": "node",
            "lat": 48.8984232,
            "lon": 14.6417096,
            "amenity": "library",
            "name": "Knihovna Augustina Dubenského",
            "source": "survey"
          },
          "geometry": {
            "type": "Point",
            "coordinates": [
              14.6417096,
              48.8984232
            ]
          }
        },
        {
          "type": "Feature",
          "properties": {
            "id": "5861491976",
            "osm_type": "node",
            "lat": 48.89835,
            "lon": 14.569184,
            "amenity": "library"
          },
          "geometry": {
            "type": "Point",
            "coordinates": [
              14.569184,
              48.89835
            ]
          }
        }
      ],
      "children": []
    }
  ]
}