{
  "bbox": {
    "south": 46.372652,
    "west": 11.438358999999998,
    "north": 47.033758500000005,
    "east": 13.345766
  },
  "poiCount": 86,
  "leafCount": 0,
  "averagePosition": [
    12.053444365116277,
    46.677651398837206
  ],
  "data": [],
  "children": [
    {
      "bbox": {
        "south": 46.372652,
        "west": 11.438358999999998,
        "north": 46.70320525,
        "east": 12.392062499999998
      },
      "poiCount": 24,
      "leafCount": 24,
      "averagePosition": [
        11.6731626,
        46.55615845
      ],
      "data": [
        {
          "type": "Feature",
          "properties": {
            "id": "751963092",
            "osm_type": "node",
            "lat": 46.5388654,
            "lon": 11.4594839,
            "amenity": "library"
          },
          "geometry": {
            "type": "Point",
            "coordinates": [
              11.4594839,
              46.5388654
            ]
          }
        },
        {
          "type": "Feature",
          "properties": {
            "id": "2481731604",
            "osm_type": "node",
            "lat": 46.4670676,
            "lon": 11.5271344,
            "amenity": "library",
            "opening_hours": "Tu 08:30-10:00; Th 15:30-16:30; Sa 18:00-19:00; Su 10:00-11:30"
          },
          "geometry": {
            "type": "Point",
            "coordinates": [
              11.5271344,
              46.4670676
            ]
          }
        },
        {
          "type": "Feature",
          "properties": {
            "id": "2517124691",
            "osm_type": "node",
            "lat": 46.6036612,
            "lon": 11.5198905,
            "amenity": "library",
            "name": "Öffentliche Bibliothek Barbian - Biblioteca di Barbiano",
            "name:de": "Öffentliche Bibliothek Barbian",
            "name:it": "Biblioteca di Barbiano"
          },
          "geometry": {
            "type": "Point",
            "coordinates": [
              11.5198905,
              46.6036612
            ]
          }
        },
        {
          "type": "Feature",
          "properties": {
            "id": "2584237949",
            "osm_type": "node",
            "lat": 46.4851584,
            "lon": 11.4555376,
            "amenity": "library",
            "name": "Bibliothek Steinegg - Biblioteca Collepietra",
            "name:de": "Bibliothek Steinegg",
            "name:it": "Biblioteca Collepietra"
          },
          "geometry": {
            "type": "Point",
            "coordinates": [
              11.4555376,
              46.4851584
            ]
          }
        },
        {
          "type": "Feature",
          "properties": {
            "id": "3801004057",
            "osm_type": "node",
            "lat": 46.5966618,
            "lon": 11.5299149,
            "amenity": "library",
            "name": "Bibliothek Waidbruck - Biblioteca Ponte Gardena"
          },
          "geometry": {
            "type": "Point",
            "coordinates": [
              11.5299149,
              46.5966618
            ]
          }
        },
        {
          "type": "Feature",
          "properties": {
            "id": "6009279130",
            "osm_type": "node",
            "lat": 46.4386863,
            "lon": 11.4751571,
            "addr:city": "Gummer - San Valentino in Campo",
            "addr:city:de": "Gummer",
            "addr:housenumber": "11",
            "addr:place": "Gummer",
            "addr:place:de": "Gummer",
            "addr:postcode": "39053",
            "addr:street": "Gummer Dorf - Via San Valentino in Campo Paese",
            "addr:street:de": "Gummer Dorf",
            "amenity": "library",
            "name": "Dorfbibliothek",
            "name:de": "Dorfbibliothek"
          },
          "geometry": {
            "type": "Point",
            "coordinates": [
              11.4751571,
              46.4386863
            ]
          }
        },
        {
          "type": "Feature",
          "properties": {
            "id": "1358284999",
            "osm_type": "node",
            "lat": 46.476649,
            "lon": 11.7730044,
            "amenity": "library"
          },
          "geometry": {
            "type": "Point",
            "coordinates": [
              11.7730044,
              46.476649
            ]
          }
        },
        {
          "type": "Feature",
          "properties": {
            "id": "1659078560",
            "osm_type": "node",
            "lat": 46.631611,
            "lon": 11.5402537,
            "amenity": "library",
            "name": "Pfarr-Bibliothek - Biblioteca parrocchiale",
            "name:de": "Pfarr-Bibliothek",
            "name:it": "Biblioteca parrocchiale",
            "opening_hours": "Tu,Fr 14:30-16:30; We 08:30-10:30"
          },
          "geometry": {
            "type": "Point",
            "coordinates": [
              11.5402537,
              46.631611
            ]
          }
        },
        {
          "type": "Feature",
          "properties": {
            "id": "2296280015",
            "osm_type": "node",
            "lat": 46.5748108,
            "lon": 11.671583,
            "addr:housenumber": "9",
            "amenity": "library",
            "name": "Bibliotech San Durich",
            "name:lld": "Bibliotech San Durich",
            "opening_hours": "Mo 14:30-19:00; Tu-Fr 09:00-12:00, 14:30-19:00; Sa 09:00-12:00; Su 10:00-12:00",
            "wikidata": "Q112944391"
          },
          "geometry": {
            "type": "Point",
            "coordinates": [
              11.671583,
              46.5748108
            ]
          }
        },
        {
          "type": "Feature",
          "properties": {
            "id": "2352648815",
            "osm_type": "node",
            "lat": 46.5444801,
            "lon": 11.5641884,
            "amenity": "library"
          },
          "geometry": {
            "type": "Point",
            "coordinates": [
              11.5641884,
              46.5444801
            ]
          }
        },
        {
          "type": "Feature",
          "properties": {
            "id": "2423633505",
            "osm_type": "node",
            "lat": 46.6415066,
            "lon": 11.6810504,
            "amenity": "library",
            "check_date": "2025-08-08",
            "name": "Öffentliche Bibliothek Villnöß",
            "opening_hours": "We 08:00-11:00,14:30-17:30; Fr 08:00-10:00,15:00-18:00; Su 09:30-11:30; Sep-May Tu 15:00-17:00; Sep-May,Jun-Aug We,Fr,Su off; Jun-Aug Tu 18:00-20:00",
            "phone": "+39 0472 840410",
            "website": "http://bibo.villnoess.eu/",
            "wheelchair": "limited"
          },
          "geometry": {
            "type": "Point",
            "coordinates": [
              11.6810504,
              46.6415066
            ]
          }
        },
        {
          "type": "Feature",
          "properties": {
            "id": "2480642747",
            "osm_type": "node",
            "lat": 46.5544565,
            "lon": 11.8559079,
            "amenity": "library"
          },
          "geometry": {
            "type": "Point",
            "coordinates": [
              11.8559079,
              46.5544565
            ]
          }
        },
        {
          "type": "Feature",
          "properties": {
            "id": "2755954102",
            "osm_type": "node",
            "lat": 46.5591731,
            "lon": 11.7158876,
            "addr:city": "Santa Cristina Gherdëina - Santa Cristina Valgardena - St. Christina in Gröden",
            "addr:city:de": "St. Christina in Gröden",
            "addr:city:it": "Santa Cristina Valgardena",
            "addr:city:lld": "Santa Cristina Gherdëina",
            "addr:housenumber": "35",
            "addr:postcode": "39047",
            "addr:street": "Streda Chemun",
            "addr:street:de": "Straße Chemun",
            "addr:street:it": "Strada Chemun",
            "addr:street:lld": "Streda Chemun",
            "amenity": "library",
            "internet_access": "wlan",
            "name": "Tresl Gruber",
            "opening_hours": "Tu-Fr 15:00-18:00; We-Th 08:30-11:30; Sa 19:30-21:00; Su 09:45-11:30",
            "wikidata": "Q109588109"
          },
          "geometry": {
            "type": "Point",
            "coordinates": [
              11.7158876,
              46.5591731
            ]
          }
        },
        {
          "type": "Feature",
          "properties": {
            "id": "4371772323",
            "osm_type": "node",
            "lat": 46.6522925,
            "lon": 11.6215122,
            "amenity": "library",
            "name": "Öffentliche Bibliothek Villnöß",
            "opening_hours": "Tu 19:00-20:00; Th 14:30-17:30; Fr 09:00-10:00; Su 09:15-10:15; PH,Mo,We,Sa off",
            "phone": "+39 0472 847224",
            "website": "http://bibo.villnoess.eu/"
          },
          "geometry": {
            "type": "Point",
            "coordinates": [
              11.6215122,
              46.6522925
            ]
          }
        },
        {
          "type": "Feature",
          "properties": {
            "id": "4492464471",
            "osm_type": "node",
            "lat": 46.6680942,
            "lon": 11.5996021,
            "amenity": "library",
            "name": "Öffentliche Bibliothek Feldthurns"
          },
          "geometry": {
            "type": "Point",
            "coordinates": [
              11.5996021,
              46.6680942
            ]
          }
        },
        {
          "type": "Feature",
          "properties": {
            "id": "4644617287",
            "osm_type": "node",
            "lat": 46.6087707,
            "lon": 11.5646074,
            "addr:street": "Walther-von-der-Vogelweide-Straße",
            "amenity": "library",
            "email": "bibliothek.lajen@rolmail.net",
            "name": "Öffentliche Bibliothek Lajen - Biblioteca pubblica Laion",
            "name:de": "Öffentliche Bibliothek Lajen",
            "name:it": "Biblioteca pubblica Laion",
            "opening_hours": "Tu 14:00-18:00; We 08:00-11:00; Th 08:00-11:00, 18:00-20:00; Fr 15:00-17:00; Su 09:30-11:30",
            "phone": "+39 0471 655518",
            "wikidata": "Q112944441"
          },
          "geometry": {
            "type": "Point",
            "coordinates": [
              11.5646074,
              46.6087707
            ]
          }
        },
        {
          "type": "Feature",
          "properties": {
            "id": "4758085075",
            "osm_type": "node",
            "lat": 46.4299554,
            "lon": 11.5355852,
            "addr:housenumber": "75",
            "addr:street": "Romstraße - Via Roma",
            "amenity": "library",
            "name": "Öffentliche Bibliothek Welschnofen - Biblioteca Civica di Nova Levante",
            "name:de": "Öffentliche Bibliothek Welschnofen",
            "name:it": "Biblioteca Civica di Nova Levante"
          },
          "geometry": {
            "type": "Point",
            "coordinates": [
              11.5355852,
              46.4299554
            ]
          }
        },
        {
          "type": "Feature",
          "properties": {
            "id": "6532233390",
            "osm_type": "node",
            "lat": 46.5557491,
            "lon": 11.7587524,
            "addr:city": "Sëlva - Wolkenstein - Selva di Val Gardena",
            "addr:housenumber": "16/3",
            "addr:postcode": "39048",
            "addr:street": "Streda Nives",
            "amenity": "library",
            "name": "Bibliotech Oswald von Wolkenstein",
            "wikidata": "Q112944413"
          },
          "geometry": {
            "type": "Point",
            "coordinates": [
              11.7587524,
              46.5557491
            ]
          }
        },
        {
          "type": "Feature",
          "properties": {
            "id": "6665543861",
            "osm_type": "node",
            "lat": 46.5834247,
            "lon": 11.904826,
            "addr:city": "Badia - Abtei",
            "addr:housenumber": "75",
            "addr:postcode": "39036",
            "addr:street": "Strada Colz",
            "addr:unit": "B",
            "amenity": "library",
            "name": "Bibl. Sas dla Crusc",
            "opening_hours": "Mo-Fr 09:00-12:00, 15:00-18:00"
          },
          "geometry": {
            "type": "Point",
            "coordinates": [
              11.904826,
              46.5834247
            ]
          }
        },
        {
          "type": "Feature",
          "properties": {
            "id": "8626852104",
            "osm_type": "node",
            "lat": 46.6993951,
            "lon": 11.6752552,
            "amenity": "library",
            "name": "Bibliothekszweigstelle St. Andrä - Biblioteca succursale S. Andrea"
          },
          "geometry": {
            "type": "Point",
            "coordinates": [
              11.6752552,
              46.6993951
            ]
          }
        },
        {
          "type": "Feature",
          "properties": {
            "id": "9896044192",
            "osm_type": "node",
            "lat": 46.5442864,
            "lon": 11.559999,
            "addr:housenumber": "6",
            "addr:postcode": "39040",
            "addr:street": "Oswald von Wolkenstein-Platz - Piazza Oswald von Wolkenstein",
            "addr:street:de": "Oswald von Wolkenstein-Platz",
            "addr:street:it": "Piazza Oswald von Wolkenstein",
            "amenity": "library",
            "name": "Bibliothek Seis am Schlern",
            "website": "https://www.seiseralm.it/de/erleben-geniessen/erleben/geschaefte-dienstleister-handwerker/rid-9B256E6C67635A77F19C0E50B76F860D-p-bibliothek-seis-am-schlern.html",
            "wheelchair": "yes"
          },
          "geometry": {
            "type": "Point",
            "coordinates": [
              11.559999,
              46.5442864
            ]
          }
        },
        {
          "type": "Feature",
          "properties": {
            "id": "12150143886",
            "osm_type": "node",
            "lat": 46.4216741,
            "lon": 11.6804111,
            "addr:housenumber": "7",
            "addr:state": "32",
            "addr:street": "Strada de la Pieif",
            "air_conditioning": "yes",
            "amenity": "library",
            "contact:email": "biblioteca@istladin.net",
            "contact:phone": "+39 0462 764267",
            "kids_area": "yes",
            "name": "Biblioteca Ladina \"Père Frumenzio Ghetta\"",
            "opening_hours": "Mo-Th 09:00-12:00,14:00-16:00; Fr-Su closed; PH closed",
            "toilets": "yes",
            "toilets:access": "customers",
            "toilets:wheelchair": "yes",
            "wheelchair": "yes"
          },
          "geometry": {
            "type": "Point",
            "coordinates": [
              11.6804111,
              46.4216741
            ]
          }
        },
        {
          "type": "Feature",
          "properties": {
            "id": "9984101388",
            "osm_type": "node",
            "lat": 46.373805,
            "lon": 12.1303783,
            "amenity": "library"
          },
          "geometry": {
            "type": "Point",
            "coordinates": [
              12.1303783,
              46.373805
            ]
          }
        },
        {
          "type": "Feature",
          "properties": {
            "id": "12956113602",
            "osm_type": "node",
            "lat": 46.6975678,
            "lon": 12.3559797,
            "alt_name": "Öffentliche Bibliothek Sexten - Biblioteca pubblica di Sesto",
            "alt_name:de": "Öffentliche Bibliothek Sexten",
            "alt_name:it": "Biblioteca pubblica di Sesto",
            "amenity": "library",
            "contact:city": "Sexten - Sesto",
            "contact:city:de": "Sexten",
            "contact:city:it": "Sesto",
            "contact:email": "bibliothek@sexten.eu",
            "contact:housenumber": "45",
            "contact:instagram": "https://www.instagram.com/bibliothek_claus.gatterer/",
            "contact:phone": "+39 0474 710107",
            "contact:postcode": "39030",
            "contact:street": "Dolomitenstraße - Via Dolomiti",
            "contact:street:de": "Dolomitenstraße",
            "contact:street:it": "Via Dolomiti",
            "contact:website": "https://biblio.bz.it/sesto/",
            "name": "Bibliothek Claus Gatterer - Biblioteca Claus Gatterer",
            "name:de": "Bibliothek Claus Gatterer",
            "name:it": "Biblioteca Claus Gatterer",
            "opening_hours": "Mo 09:00-12:00,16:00-18:00; Tu 16:00-18:00; We 09:00-12:00,14:00-16:00; Th 09:00-12:00,16:00-18:00; Fr 09:00-12:00; Sa,Su,PH off",
            "operator:type": "public",
            "ref:ISTAT": "TRBZX036",
            "ref:isil": "IT-BZ0091",
            "ref:vatin": "IT00436290217",
            "start_date": "1960",
            "wheelchair": "limited",
            "wifi": "free"
          },
          "geometry": {
            "type": "Point",
            "coordinates": [
              12.3559797,
              46.6975678
            ]
          }
        }
      ],
      "children": []
    },
    {
      "bbox": {
        "south": 46.372652,
        "west": 12.392062499999998,
        "north": 46.70320525,
        "east": 13.345766
      },
      "poiCount": 17,
      "leafCount": 17,
      "averagePosition": [
        12.834541523529412,
        46.47130650588235
      ],
      "data": [
        {
          "type": "Feature",
          "properties": {
            "id": "2112565895",
            "osm_type": "node",
            "lat": 46.5983364,
            "lon": 12.492331,
            "amenity": "library",
            "name": "Biblioteca Comunale"
          },
          "geometry": {
            "type": "Point",
            "coordinates": [
              12.492331,
              46.5983364
            ]
          }
        },
        {
          "type": "Feature",
          "properties": {
            "id": "4801957077",
            "osm_type": "node",
            "lat": 46.4847784,
            "lon": 12.4423287,
            "amenity": "library",
            "check_date": "2025-01-18",
            "name": "Biblioteca comunale"
          },
          "geometry": {
            "type": "Point",
            "coordinates": [
              12.4423287,
              46.4847784
            ]
          }
        },
        {
          "type": "Feature",
          "properties": {
            "id": "2599764362",
            "osm_type": "node",
            "lat": 46.466126,
            "lon": 12.7077781,
            "addr:city": "Sauris",
            "addr:country": "IT",
            "addr:hamlet": "Sauris di Sotto",
            "addr:postcode": "33020",
            "amenity": "library",
            "name": "Biblioteca Comunale \"Padre Luigi Lucchini\""
          },
          "geometry": {
            "type": "Point",
            "coordinates": [
              12.7077781,
              46.466126
            ]
          }
        },
        {
          "type": "Feature",
          "properties": {
            "id": "3725878027",
            "osm_type": "node",
            "lat": 46.4245234,
            "lon": 12.5762068,
            "addr:city": "Forni di Sopra",
            "addr:housenumber": "84",
            "addr:postcode": "33024",
            "addr:street": "Via Nazionale",
            "amenity": "library",
            "fax": "+39 0433 88580",
            "name": "Biblioteca comunale",
            "phone": "+39 0433 88056",
            "ref:ISIL": "IT-UD0224",
            "source": "ICCU"
          },
          "geometry": {
            "type": "Point",
            "coordinates": [
              12.5762068,
              46.4245234
            ]
          }
        },
        {
          "type": "Feature",
          "properties": {
            "id": "3734156198",
            "osm_type": "node",
            "lat": 46.4165545,
            "lon": 12.7945745,
            "addr:city": "Ampezzo",
            "addr:housenumber": "28",
            "addr:postcode": "33021",
            "addr:street": "Piazza Zona Libera 1944",
            "amenity": "library",
            "email": "giulia.colle@com-ampezzo.regione.fvg.it",
            "name": "Biblioteca comunale",
            "phone": "+39 0433 80639",
            "ref:ISIL": "IT-UD0219",
            "ref:isil": "IT-UD0219",
            "ref:sbn": "FRIAZ",
            "source": "ICCU",
            "website": "https://www.comune.ampezzo.ud.it/"
          },
          "geometry": {
            "type": "Point",
            "coordinates": [
              12.7945745,
              46.4165545
            ]
          }
        },
        {
          "type": "Feature",
          "properties": {
            "id": "3788748786",
            "osm_type": "node",
            "lat": 46.5848188,
            "lon": 12.7782647,
            "addr:city": "Forni Avoltri",
            "addr:country": "IT",
            "addr:housenumber": "22",
            "addr:postcode": "33020",
            "addr:street": "Corso Italia",
            "amenity": "library",
            "fax": "+39 0433 72351",
            "name": "Biblioteca civica",
            "phone": "+39 0433 72052",
            "ref:ISIL": "IT-UD0145",
            "source": "ICCU"
          },
          "geometry": {
            "type": "Point",
            "coordinates": [
              12.7782647,
              46.5848188
            ]
          }
        },
        {
          "type": "Feature",
          "properties": {
            "id": "3818512157",
            "osm_type": "node",
            "lat": 46.4053772,
            "lon": 13.0148964,
            "addr:city": "Tolmezzo",
            "addr:housenumber": "3",
            "addr:postcode": "33028",
            "addr:street": "Via Renato Del Din",
            "amenity": "library",
            "height": "8 m",
            "internet_access": "wlan",
            "internet_access:fee": "no",
            "it:fvg:ctrn:code": "4AED",
            "it:fvg:ctrn:revision": "1A0",
            "name": "Biblioteca Civica \"Adriana Pittoni\"",
            "opening_hours": "Mo 09:00-12:30,14:00-19:00; Tu-Fr 14:00-19:00; Sa 09:00-12:30; PH off",
            "phone": "+39 0433 487950",
            "ref:isil": "IT-UD0157",
            "website": "https://www.comune.tolmezzo.ud.it/altofriuli/tolmezzo/uffici.nsf/$$OpenDominoDocument.xsp?documentId=86F6DD6084E275A1C125798800500310&action=openDocument",
            "wheelchair": "yes"
          },
          "geometry": {
            "type": "Point",
            "coordinates": [
              13.0148964,
              46.4053772
            ]
          }
        },
        {
          "type": "Feature",
          "properties": {
            "id": "3838833081",
            "osm_type": "node",
            "lat": 46.4844777,
            "lon": 12.8649212,
            "addr:city": "Ovaro",
            "addr:housenumber": "195",
            "addr:postcode": "33025",
            "addr:street": "Via Caduti Due Maggio",
            "amenity": "library",
            "email": "biblioteca@comunediovaro.191.it",
            "fax": "+39 0433 67636",
            "name": "Biblioteca comunale Italo Guidetti",
            "phone": "+39 0433 67202",
            "ref:isil": "IT-UD0046",
            "website": "https://www.comune.ovaro.ud.it/index.php?id=2816"
          },
          "geometry": {
            "type": "Point",
            "coordinates": [
              12.8649212,
              46.4844777
            ]
          }
        },
        {
          "type": "Feature",
          "properties": {
            "id": "3846448995",
            "osm_type": "node",
            "lat": 46.397664,
            "lon": 12.8498034,
            "addr:city": "Socchieve",
            "addr:housenumber": "37",
            "addr:postcode": "33020",
            "addr:street": "Via Nazionale",
            "alt_name": "Biblioteca comunale Romualdo Fachin",
            "amenity": "library",
            "email": "bibliosocc@libero.it",
            "name": "Biblioteca comunale",
            "phone": "+39 0433 819902",
            "ref:ISIL": "IT-UD0087",
            "ref:isil": "IT-UD0087",
            "ref:sbn": "FRISV",
            "source": "ICCU",
            "website": "https://www.comune.socchieve.ud.it/index.php?id=4212"
          },
          "geometry": {
            "type": "Point",
            "coordinates": [
              12.8498034,
              46.397664
            ]
          }
        },
        {
          "type": "Feature",
          "properties": {
            "id": "3896644133",
            "osm_type": "node",
            "lat": 46.5201391,
            "lon": 12.8033113,
            "addr:city": "Prato Carnico",
            "addr:housenumber": "95",
            "addr:place": "Frazione Pieria",
            "addr:postcode": "33020",
            "amenity": "library",
            "email": "bibliopratocarnico@tiscali.it",
            "fax": "+39 0433 69001",
            "name": "Biblioteca comunale",
            "phone": "+39 0433 69123",
            "ref:ISIL": "IT-UD0227",
            "source": "ICCU"
          },
          "geometry": {
            "type": "Point",
            "coordinates": [
              12.8033113,
              46.5201391
            ]
          }
        },
        {
          "type": "Feature",
          "properties": {
            "id": "3970696370",
            "osm_type": "node",
            "lat": 46.383368,
            "lon": 12.992202,
            "amenity": "library",
            "name": "Biblioteca comunale \"Giso Fior\"",
            "ref:ISIL": "IT-UD0231",
            "source": "ICCU"
          },
          "geometry": {
            "type": "Point",
            "coordinates": [
              12.992202,
              46.383368
            ]
          }
        },
        {
          "type": "Feature",
          "properties": {
            "id": "5073071812",
            "osm_type": "node",
            "lat": 46.5660352,
            "lon": 12.6840518,
            "amenity": "library",
            "operator": "Comune di Sappada - Plodn"
          },
          "geometry": {
            "type": "Point",
            "coordinates": [
              12.6840518,
              46.5660352
            ]
          }
        },
        {
          "type": "Feature",
          "properties": {
            "id": "8647409851",
            "osm_type": "node",
            "lat": 46.5524177,
            "lon": 12.8534849,
            "amenity": "library",
            "email": "biblioteca@com-rigolato.regione.fvg.it",
            "name": "Biblioteca Comunale",
            "phone": "+39 0433 618806",
            "ref:isil": "IT-UD0410"
          },
          "geometry": {
            "type": "Point",
            "coordinates": [
              12.8534849,
              46.5524177
            ]
          }
        },
        {
          "type": "Feature",
          "properties": {
            "id": "8647424919",
            "osm_type": "node",
            "lat": 46.4100105,
            "lon": 12.8819624,
            "amenity": "library",
            "email": "biblioteca.enemonzo@gmail.com",
            "name": "Biblioteca comunale",
            "phone": "+39 0433 750509",
            "ref:isil": "IT-UD0022",
            "ref:sbn": "FRIEZ"
          },
          "geometry": {
            "type": "Point",
            "coordinates": [
              12.8819624,
              46.4100105
            ]
          }
        },
        {
          "type": "Feature",
          "properties": {
            "id": "3783095593",
            "osm_type": "node",
            "lat": 46.3752578,
            "lon": 13.0969515,
            "addr:city": "Amaro",
            "addr:housenumber": "1",
            "addr:postcode": "33020",
            "addr:street": "Via Centro Studi",
            "amenity": "library",
            "name": "Biblioteca comunale",
            "ref:ISIL": "IT-UD0218",
            "source": "ICCU"
          },
          "geometry": {
            "type": "Point",
            "coordinates": [
              13.0969515,
              46.3752578
            ]
          }
        },
        {
          "type": "Feature",
          "properties": {
            "id": "3833994633",
            "osm_type": "node",
            "lat": 46.5340109,
            "lon": 13.0435252,
            "addr:city": "Treppo Ligosullo",
            "addr:housenumber": "15",
            "addr:place": "Treppo Carnico",
            "addr:postcode": "33020",
            "addr:street": "Via Giacomo Matteotti",
            "amenity": "library",
            "email": "biblioteca.treppocarnico@virgilio.it",
            "fax": "+39 0433777331",
            "name": "Biblioteca comunale E. Cortolezzis",
            "phone": "+39 0433777307",
            "ref:isil": "IT-UD0159"
          },
          "geometry": {
            "type": "Point",
            "coordinates": [
              13.0435252,
              46.5340109
            ]
          }
        },
        {
          "type": "Feature",
          "properties": {
            "id": "3958466053",
            "osm_type": "node",
            "lat": 46.408315,
            "lon": 13.310612,
            "addr:housenumber": "1",
            "addr:street": "Piazza Pieroni",
            "amenity": "library",
            "email": "protocollo@com-chiusaforte.regione.fvg.it",
            "fax": "+39 0433 52243",
            "name": "Biblioteca civica",
            "phone": "+39 0433 52030",
            "ref:ISIL": "IT-UD0014",
            "source": "ICCU"
          },
          "geometry": {
            "type": "Point",
            "coordinates": [
              13.310612,
              46.408315
            ]
          }
        }
      ],
      "children": []
    },
    {
      "bbox": {
        "south": 46.70320525,
        "west": 11.438358999999998,
        "north": 47.033758500000005,
        "east": 12.392062499999998
      },
      "poiCount": 39,
      "leafCount": 39,
      "averagePosition": [
        11.848185738461538,
        46.814209789743586
      ],
      "data": [
        {
          "type": "Feature",
          "properties": {
            "id": "2296807336",
            "osm_type": "node",
            "lat": 46.9004091,
            "lon": 11.4602622,
            "addr:city": "Pfitsch - Val di Vizze",
            "addr:housenumber": "100c",
            "addr:postcode": "39049",
            "addr:street": "Wiesen",
            "amenity": "library",
            "email": "bibliothek.wiesen@yahoo.de",
            "fax": "+39 0472 760385",
            "name": "Bibliothek Wiesen - Biblioteca Prati di Vizze",
            "name:de": "Bibliothek Wiesen",
            "name:it": "Biblioteca Prati di Vizze",
            "phone": "+39 0472 760385",
            "source": "local_knowledge"
          },
          "geometry": {
            "type": "Point",
            "coordinates": [
              11.4602622,
              46.9004091
            ]
          }
        },
        {
          "type": "Feature",
          "properties": {
            "id": "423131200",
            "osm_type": "node",
            "lat": 47.0113485,
            "lon": 12.0122341,
            "access": "yes",
            "amenity": "library",
            "description": "öffentliche Bibliothek"
          },
          "geometry": {
            "type": "Point",
            "coordinates": [
              12.0122341,
              47.0113485
            ]
          }
        },
        {
          "type": "Feature",
          "properties": {
            "id": "2565532086",
            "osm_type": "node",
            "lat": 46.9196789,
            "lon": 11.9525503,
            "amenity": "library"
          },
          "geometry": {
            "type": "Point",
            "coordinates": [
              11.9525503,
              46.9196789
            ]
          }
        },
        {
          "type": "Feature",
          "properties": {
            "id": "4685249621",
            "osm_type": "node",
            "lat": 46.8909415,
            "lon": 11.8570786,
            "amenity": "library",
            "name": "Öffentliche Bibliothek Mühlwald - Biblioteca pubblica di Selva dei Molini",
            "name:de": "Öffentliche Bibliothek Mühlwald",
            "name:it": "Biblioteca pubblica di Selva dei Molini"
          },
          "geometry": {
            "type": "Point",
            "coordinates": [
              11.8570786,
              46.8909415
            ]
          }
        },
        {
          "type": "Feature",
          "properties": {
            "id": "4876699731",
            "osm_type": "node",
            "lat": 46.9589754,
            "lon": 11.544335,
            "addr:city": "Pfitsch - Val di Vizze",
            "addr:housenumber": "63",
            "addr:postcode": "39049",
            "addr:street": "Kematen - Caminata",
            "amenity": "library",
            "name": "Bibliothek Kematen"
          },
          "geometry": {
            "type": "Point",
            "coordinates": [
              11.544335,
              46.9589754
            ]
          }
        },
        {
          "type": "Feature",
          "properties": {
            "id": "1535297172",
            "osm_type": "node",
            "lat": 47.0170881,
            "lon": 12.3755094,
            "amenity": "library",
            "name": "Bücherei Prägraten"
          },
          "geometry": {
            "type": "Point",
            "coordinates": [
              12.3755094,
              47.0170881
            ]
          }
        },
        {
          "type": "Feature",
          "properties": {
            "id": "1536399153",
            "osm_type": "node",
            "lat": 47.017811,
            "lon": 12.3770214,
            "addr:city": "Prägraten",
            "addr:country": "AT",
            "addr:housenumber": "19b",
            "addr:place": "St. Andrä",
            "addr:postcode": "9974",
            "amenity": "library",
            "name": "Pfarrbücherei"
          },
          "geometry": {
            "type": "Point",
            "coordinates": [
              12.3770214,
              47.017811
            ]
          }
        },
        {
          "type": "Feature",
          "properties": {
            "id": "5149777648",
            "osm_type": "node",
            "lat": 46.8664896,
            "lon": 11.4783102,
            "amenity": "library",
            "name": "Öffentliche Bibliothek Stilfes"
          },
          "geometry": {
            "type": "Point",
            "coordinates": [
              11.4783102,
              46.8664896
            ]
          }
        },
        {
          "type": "Feature",
          "properties": {
            "id": "5517917021",
            "osm_type": "node",
            "lat": 46.8542081,
            "lon": 11.522324,
            "addr:city": "Freienfeld - Campo di Trens",
            "addr:city:de": "Freienfeld",
            "addr:city:it": "Campo di Trens",
            "addr:housenumber": "26f",
            "addr:place": "Mauls - Mules",
            "addr:place:de": "Mauls",
            "addr:place:it": "Mules",
            "addr:postcode": "39040",
            "alt_name:de": "Volksbibliothek Mauls",
            "amenity": "library",
            "contact:email": "volksbibliothek.mauls@rolmail.net",
            "contact:facebook": "https://www.facebook.com/biblio.mauls/",
            "contact:website": "https://biblio.bz.it/freienfeld/%C3%96B-Mauls",
            "name": "Öffentliche Bibliothek Mauls - Biblioteca pubblica di Mules",
            "name:de": "Öffentliche Bibliothek Mauls",
            "name:it": "Biblioteca pubblica di Mules",
            "opening_hours": "Tu 14:30-16:30; Th 17:00-19:00; Sa 09:00-11:00",
            "operator:type": "public"
          },
          "geometry": {
            "type": "Point",
            "coordinates": [
              11.522324,
              46.8542081
            ]
          }
        },
        {
          "type": "Feature",
          "properties": {
            "id": "343748483",
            "osm_type": "node",
            "lat": 46.7835533,
            "lon": 11.9020508,
            "amenity": "library",
            "name": "Öffentliche Bibliothek",
            "wikidata": "Q112944407"
          },
          "geometry": {
            "type": "Point",
            "coordinates": [
              11.9020508,
              46.7835533
            ]
          }
        },
        {
          "type": "Feature",
          "properties": {
            "id": "496093975",
            "osm_type": "node",
            "lat": 46.7152351,
            "lon": 11.6571354,
            "amenity": "library",
            "email": "biblio@brixen.it",
            "name": "Stadtbibliothek Kathi Trojer - Biblioteca Civica Kathi Trojer",
            "name:de": "Stadtbibliothek Kathi Trojer",
            "name:it": "Biblioteca Civica Kathi Trojer",
            "opening_hours": "Mo-Sa 08:30-18:30",
            "operator": "Gemeinde Brixen - Comune di Bressanone",
            "phone": "+39 0472 062190",
            "website": "https://www.brixen.it/de/kultur/stadtbibliothek",
            "wheelchair": "yes"
          },
          "geometry": {
            "type": "Point",
            "coordinates": [
              11.6571354,
              46.7152351
            ]
          }
        },
        {
          "type": "Feature",
          "properties": {
            "id": "767946649",
            "osm_type": "node",
            "lat": 46.7080271,
            "lon": 11.6629831,
            "amenity": "library",
            "name": "Millander Dorfbibliothek"
          },
          "geometry": {
            "type": "Point",
            "coordinates": [
              11.6629831,
              46.7080271
            ]
          }
        },
        {
          "type": "Feature",
          "properties": {
            "id": "944652054",
            "osm_type": "node",
            "lat": 46.8135301,
            "lon": 11.754987,
            "amenity": "library",
            "wheelchair": "yes"
          },
          "geometry": {
            "type": "Point",
            "coordinates": [
              11.754987,
              46.8135301
            ]
          }
        },
        {
          "type": "Feature",
          "properties": {
            "id": "1136360642",
            "osm_type": "node",
            "lat": 46.8398437,
            "lon": 11.6270949,
            "amenity": "library",
            "opening_hours": "Tu 19:00-20:30; Sa 16:00-17:30"
          },
          "geometry": {
            "type": "Point",
            "coordinates": [
              11.6270949,
              46.8398437
            ]
          }
        },
        {
          "type": "Feature",
          "properties": {
            "id": "1190256663",
            "osm_type": "node",
            "lat": 46.796189,
            "lon": 11.6672623,
            "amenity": "library"
          },
          "geometry": {
            "type": "Point",
            "coordinates": [
              11.6672623,
              46.796189
            ]
          }
        },
        {
          "type": "Feature",
          "properties": {
            "id": "1275837502",
            "osm_type": "node",
            "lat": 46.7960688,
            "lon": 11.9345023,
            "amenity": "library",
            "check_date": "2024-03-09",
            "email": "bibliothek@gemeinde.bruneck.bz.it",
            "internet_access": "no",
            "name": "LibriKa Stadtbibliothek und Universitätsbibliothek - Biblioteca civica ed universitaria",
            "name:de": "LibriKa Stadtbibliothek und Universitätsbibliothek",
            "name:it": "Biblioteca civica ed universitaria LibriKa",
            "opening_hours": "Mo-Fr 10:00-18:30; Sa 09:00-12:00",
            "operator:type": "public",
            "phone": "+39 0474 545400",
            "website": "https://biblio.bz.it/bruneck"
          },
          "geometry": {
            "type": "Point",
            "coordinates": [
              11.9345023,
              46.7960688
            ]
          }
        },
        {
          "type": "Feature",
          "properties": {
            "id": "2022775212",
            "osm_type": "node",
            "lat": 46.7409873,
            "lon": 11.6518993,
            "amenity": "library",
            "name": "Öffentliche Bibliothek Neustift"
          },
          "geometry": {
            "type": "Point",
            "coordinates": [
              11.6518993,
              46.7409873
            ]
          }
        },
        {
          "type": "Feature",
          "properties": {
            "id": "2294709869",
            "osm_type": "node",
            "lat": 46.8159799,
            "lon": 11.7195501,
            "amenity": "library"
          },
          "geometry": {
            "type": "Point",
            "coordinates": [
              11.7195501,
              46.8159799
            ]
          }
        },
        {
          "type": "Feature",
          "properties": {
            "id": "2440274882",
            "osm_type": "node",
            "lat": 46.7394321,
            "lon": 11.635786,
            "amenity": "library",
            "bench": "no",
            "bin": "yes",
            "bus": "yes",
            "highway": "bus_stop",
            "lit": "yes",
            "name": "Kindergarten - Scuola Materna",
            "name:de": "Kindergarten",
            "name:it": "Scuola Materna",
            "official_name": "Vahrn, Kindergarten - Varna, Scuola Materna",
            "official_name:de": "Vahrn, Kindergarten",
            "official_name:it": "Varna, Scuola Materna",
            "public_transport": "platform",
            "shelter": "no",
            "tactile_paving": "no"
          },
          "geometry": {
            "type": "Point",
            "coordinates": [
              11.635786,
              46.7394321
            ]
          }
        },
        {
          "type": "Feature",
          "properties": {
            "id": "2755894900",
            "osm_type": "node",
            "lat": 46.7500143,
            "lon": 11.6584548,
            "addr:city": "Natz-Schabs - Naz-Sciaves",
            "addr:city:de": "Natz-Schabs",
            "addr:city:it": "Naz-Sciaves",
            "addr:hamlet": "Raas - Rasa",
            "addr:hamlet:de": "Raas",
            "addr:hamlet:it": "Rasa",
            "addr:housenumber": "38",
            "addr:postcode": "39040",
            "addr:street": "Michael-Pacher-Straße - Via Michael Pacher",
            "addr:street:de": "Michael-Pacher-Straße",
            "addr:street:it": "Via Michael Pacher",
            "amenity": "library",
            "name": "Öffentliche Bibliothek Raas",
            "name:it": "Biblioteca pubblica di Rasa"
          },
          "geometry": {
            "type": "Point",
            "coordinates": [
              11.6584548,
              46.7500143
            ]
          }
        },
        {
          "type": "Feature",
          "properties": {
            "id": "4477117790",
            "osm_type": "node",
            "lat": 46.8354016,
            "lon": 11.9480943,
            "amenity": "library",
            "check_date": "2025-08-10",
            "contact:city": "Gais",
            "contact:email": "info@bibliogais.ch",
            "contact:housenumber": "5",
            "contact:phone": "+41 71 790 07 09",
            "contact:postcode": "39030",
            "contact:street": "Schulhausstrasse",
            "contact:website": "http://www.bibliogais.ch/index.html",
            "name": "Öffentliche Bibliothek Gais",
            "name:it": "Bibliotheca pubblica di Gais",
            "opening_hours": "Mo,Sa-Su off; Tu 09:00-12:00,14:30-17:00; We 10:00-12:00,17:00-18:30; Th-Fr 10:00-12:00,14:30-16:30",
            "wheelchair": "yes"
          },
          "geometry": {
            "type": "Point",
            "coordinates": [
              11.9480943,
              46.8354016
            ]
          }
        },
        {
          "type": "Feature",
          "properties": {
            "id": "4477117791",
            "osm_type": "node",
            "lat": 46.8356318,
            "lon": 11.94746,
            "amenity": "library",
            "check_date": "2025-08-10",
            "fixme": "Ist im Gebäude nordwestlich, zusammenführen zu älterer Node"
          },
          "geometry": {
            "type": "Point",
            "coordinates": [
              11.94746,
              46.8356318
            ]
          }
        },
        {
          "type": "Feature",
          "properties": {
            "id": "4477227064",
            "osm_type": "node",
            "lat": 46.7460856,
            "lon": 11.7611573,
            "addr:city": "Lüsen - Luson",
            "addr:city:de": "Lüsen",
            "addr:city:it": "Luson",
            "addr:housenumber": "21",
            "addr:postcode": "39040",
            "addr:street": "Dorfgasse - Vicolo Dorf",
            "addr:street:de": "Dorfgasse",
            "addr:street:it": "Vicolo Dorf",
            "amenity": "library",
            "name": "Öffentliche Bibliothek Lüsen",
            "name:it": "Biblioteca pubblica di Luson"
          },
          "geometry": {
            "type": "Point",
            "coordinates": [
              11.7611573,
              46.7460856
            ]
          }
        },
        {
          "type": "Feature",
          "properties": {
            "id": "4492484165",
            "osm_type": "node",
            "lat": 46.8128649,
            "lon": 11.8807613,
            "amenity": "library",
            "name": "Öffentliche Bibliothek Pfalzen - Biblioteca Pubblica Falzes",
            "name:de": "Öffentliche Bibliothek Pfalzen",
            "name:it": "Biblioteca Pubblica Falzes"
          },
          "geometry": {
            "type": "Point",
            "coordinates": [
              11.8807613,
              46.8128649
            ]
          }
        },
        {
          "type": "Feature",
          "properties": {
            "id": "4506156946",
            "osm_type": "node",
            "lat": 46.8290785,
            "lon": 11.7772977,
            "amenity": "library",
            "name": "Öffentliche Bibliothek Terenten - Biblioteca Pubblica Terento",
            "name:de": "Öffentliche Bibliothek Terenten",
            "name:it": "Biblioteca Pubblica Terento",
            "wikidata": "Q112944476"
          },
          "geometry": {
            "type": "Point",
            "coordinates": [
              11.7772977,
              46.8290785
            ]
          }
        },
        {
          "type": "Feature",
          "properties": {
            "id": "4533908515",
            "osm_type": "node",
            "lat": 46.8083889,
            "lon": 11.8400333,
            "amenity": "library",
            "name": "Öffentliche Bibliothek Kiens"
          },
          "geometry": {
            "type": "Point",
            "coordinates": [
              11.8400333,
              46.8083889
            ]
          }
        },
        {
          "type": "Feature",
          "properties": {
            "id": "4533936431",
            "osm_type": "node",
            "lat": 46.7974078,
            "lon": 11.8350065,
            "amenity": "library",
            "name": "Öffentliche Bibliothek Ehrenburg"
          },
          "geometry": {
            "type": "Point",
            "coordinates": [
              11.8350065,
              46.7974078
            ]
          }
        },
        {
          "type": "Feature",
          "properties": {
            "id": "4533956310",
            "osm_type": "node",
            "lat": 46.8138409,
            "lon": 11.8032404,
            "amenity": "library",
            "name": "Öffentliche Bibliothek St. Sigmund"
          },
          "geometry": {
            "type": "Point",
            "coordinates": [
              11.8032404,
              46.8138409
            ]
          }
        },
        {
          "type": "Feature",
          "properties": {
            "id": "6142031620",
            "osm_type": "node",
            "lat": 46.7383205,
            "lon": 11.6371055,
            "amenity": "library",
            "internet_access": "wlan",
            "internet_access:fee": "no",
            "name": "Bibliothek Vahrn - Biblioteca di Varna",
            "wikidata": "Q112944481"
          },
          "geometry": {
            "type": "Point",
            "coordinates": [
              11.6371055,
              46.7383205
            ]
          }
        },
        {
          "type": "Feature",
          "properties": {
            "id": "6520533831",
            "osm_type": "node",
            "lat": 46.7768389,
            "lon": 11.6430137,
            "amenity": "library",
            "language:de": "main",
            "name": "Öffentliche Bibliothek Aicha",
            "name:de": "Öffentliche Bibliothek Aicha",
            "name:it": "Biblioteca pubblica di Aica"
          },
          "geometry": {
            "type": "Point",
            "coordinates": [
              11.6430137,
              46.7768389
            ]
          }
        },
        {
          "type": "Feature",
          "properties": {
            "id": "9194011342",
            "osm_type": "node",
            "lat": 46.815549,
            "lon": 11.721224,
            "amenity": "library",
            "email": "bibliothek.vintl@brennercom.net",
            "internet_access": "wlan",
            "internet_access:fee": "no",
            "internet_access:ssid": "Bibliothek",
            "name": "Bibliothek Vintl",
            "opening_hours": "Tu 08:30-11:00,14:30-17:00; We 16:00-18:00; Th 08:30-11:00,14:30-17:00; Fr 18:00-19:30; Su 09:00-10:30",
            "operator": "Gemeinde Vintl",
            "operator:type": "government",
            "phone": "+39 0472 868598",
            "wheelchair": "limited"
          },
          "geometry": {
            "type": "Point",
            "coordinates": [
              11.721224,
              46.815549
            ]
          }
        },
        {
          "type": "Feature",
          "properties": {
            "id": "10054108740",
            "osm_type": "node",
            "lat": 46.7769233,
            "lon": 11.6906444,
            "amenity": "library",
            "level": "1",
            "name": "Öffentliche Bibliothek Rodeneck",
            "opening_hours": "We,Fr 14:30-16:30; Su 09:15-11:15",
            "operator": "Gemeinde Rodeneck",
            "website": "https://biblio.bz.it/rodeneck",
            "wheelchair": "yes"
          },
          "geometry": {
            "type": "Point",
            "coordinates": [
              11.6906444,
              46.7769233
            ]
          }
        },
        {
          "type": "Feature",
          "properties": {
            "id": "1935911713",
            "osm_type": "node",
            "lat": 46.7593131,
            "lon": 12.0324405,
            "amenity": "library",
            "level": "2",
            "name": "Bibliothek - Biblioteca pubblica",
            "name:de": "Bibliothek",
            "name:it": "Biblioteca pubblica",
            "opening_hours": "Mo 16:00-19:00; Tu 10:00-12:00; We-Fr 10:00-12:00,14:30-17:30; 2022 Oct 1-2023 Apr 1 Sa 14:30-16:30",
            "toilets": "yes",
            "wheelchair": "yes"
          },
          "geometry": {
            "type": "Point",
            "coordinates": [
              12.0324405,
              46.7593131
            ]
          }
        },
        {
          "type": "Feature",
          "properties": {
            "id": "2333490596",
            "osm_type": "node",
            "lat": 46.7327979,
            "lon": 12.2835439,
            "alt_name:de": "Öffentliche Bibliothek Innichen",
            "alt_name:it": "Biblioteca pubblica di San Candido",
            "amenity": "library",
            "contact:city": "Innichen - San Candido",
            "contact:city:de": "Innichen",
            "contact:city:it": "San Candido",
            "contact:email": "biblioteca@sancandido.eu",
            "contact:facebook": "https://www.facebook.com/Bibliothek.Innichen/",
            "contact:housenumber": "1a",
            "contact:postcode": "39038",
            "contact:street": "Chorherrenstraße - Via dei Canonici",
            "contact:street:de": "Chorherrenstraße",
            "contact:street:it": "Via dei Canonici",
            "contact:website": "https://biblio.bz.it/sancandido/",
            "name": "Bibliothek Innichen Peter Paul Rainer - Biblioteca di San Candido Peter Paul Rainer",
            "name:de": "Bibliothek Innichen Peter Paul Rainer",
            "name:it": "Biblioteca di San Candido Peter Paul Rainer",
            "opening_hours": "Mo-Tu,Th 09:00-11:00,14:30-17:30; We 14:30-17:30; Fr 09:00-11:00,14:30-16:30; Sa,Su,PH off",
            "operator:type": "public",
            "ref:ISTAT": "TRBZX021",
            "ref:isil": "IT-BZ0076",
            "ref:tax_id": "81006750210",
            "ref:vatin": "IT00496810219",
            "start_date": "1983"
          },
          "geometry": {
            "type": "Point",
            "coordinates": [
              12.2835439,
              46.7327979
            ]
          }
        },
        {
          "type": "Feature",
          "properties": {
            "id": "3157097872",
            "osm_type": "node",
            "lat": 46.7784808,
            "lon": 12.0499191,
            "amenity": "library",
            "name": "Öffentliche Bibliothek - Biblioteca pubblica",
            "name:de": "Biblioteca pubblica",
            "name:it": "Biblioteca pubblica",
            "operator": "Gemeinde Rasen-Antholz - Comune Rasun Anterselva"
          },
          "geometry": {
            "type": "Point",
            "coordinates": [
              12.0499191,
              46.7784808
            ]
          }
        },
        {
          "type": "Feature",
          "properties": {
            "id": "5849739898",
            "osm_type": "node",
            "lat": 46.7337085,
            "lon": 12.222317,
            "amenity": "library",
            "coffee": "organic",
            "free_refill": "yes",
            "internet_access": "wlan",
            "internet_access:fee": "no",
            "name": "Biblioteca-Bibliothek Hans Glauber",
            "name:de": "Bibliothek Hans Glauber",
            "name:it": "Biblioteca Hans Glauber",
            "operator": "Comune di Dobbiaco",
            "operator:type": "public",
            "wikidata": "Q15788488",
            "wikipedia": "it:Biblioteca di Dobbiaco Hans Glauber"
          },
          "geometry": {
            "type": "Point",
            "coordinates": [
              12.222317,
              46.7337085
            ]
          }
        },
        {
          "type": "Feature",
          "properties": {
            "id": "9205678921",
            "osm_type": "node",
            "lat": 46.756308,
            "lon": 12.1029857,
            "amenity": "library",
            "contact:city": "Welsberg - Monguelfo",
            "contact:email": "bibliothek@welsberg.it",
            "contact:housenumber": "2",
            "contact:postcode": "39035",
            "contact:street": "Pater-Josef-Schwingshackl-Straße - Via Padre Josef Schwingshackl",
            "internet_access": "yes",
            "internet_access:fee": "customers",
            "name": "Öffentliche Bibliothek Welsberg",
            "opening_hours": "Mo 14:00-17:00; Tu 08:00-11:00; We 08:00-11:00,16:00-20:00; Th 14:00-16:00; Fr 08:00-11:00",
            "operator": "Gemeinde Welsberg",
            "operator:type": "government",
            "phone": "+39 0474 946083",
            "wheelchair": "limited",
            "wikidata": "Q112944385"
          },
          "geometry": {
            "type": "Point",
            "coordinates": [
              12.1029857,
              46.756308
            ]
          }
        },
        {
          "type": "Feature",
          "properties": {
            "id": "12363360427",
            "osm_type": "node",
            "lat": 46.7382948,
            "lon": 12.1688138,
            "amenity": "library",
            "contact:city": "Niederdorf - Villabassa",
            "contact:city:de": "Niederdorf",
            "contact:city:it": "Villabassa",
            "contact:email": "biiblioteca@villabassa.eu",
            "contact:facebook": "https://www.facebook.com/Bibliothek.Niederdorf/",
            "contact:housenumber": "2",
            "contact:instagram": "https://www.instagram.com/bibliothek.niederdorf/",
            "contact:phone": "+39 0474 862330",
            "contact:postcode": "39039",
            "contact:street": "Hans-Wassermann-Straße - Via Hans Wassermann",
            "contact:street:de": "Hans-Wassermann-Straße",
            "contact:street:it": "Via Hans Wassermann",
            "contact:website": "https://biblio.bz.it/villabassa/",
            "contact:whatsapp": "https://www.whatsapp.com/channel/0029VaF11eSGk1FpCySaVf3d",
            "name": "Öffentliche Bibliothek Niederdorf - Biblioteca pubblica di Villabassa",
            "name:de": "Öffentliche Bibliothek Niederdorf",
            "name:it": "Biblioteca pubblica di Villabassa",
            "opening_hours": "Mo,Fr 09:30-12:00,15:30-18:00; Tu-Th 15:30-18:00; Sa 09:30-12:00; Su,PH off",
            "operator:type": "public",
            "ref:ISTAT": "TRBZX088",
            "ref:isil": "IT-BZ0112",
            "start_date": "1940",
            "wheelchair": "yes",
            "wikidata": "Q112944424"
          },
          "geometry": {
            "type": "Point",
            "coordinates": [
              12.1688138,
              46.7382948
            ]
          }
        },
        {
          "type": "Feature",
          "properties": {
            "id": "12956111800",
            "osm_type": "node",
            "lat": 46.7331361,
            "lon": 12.2828542,
            "alt_name:de": "Bibliothek des Kollegiatstiftes Innichen",
            "alt_name:it": "Biblioteca della Collegiata di San Candido",
            "amenity": "library",
            "contact:city": "Innichen - San Candido",
            "contact:city:de": "Innichen",
            "contact:city:it": "San Candido",
            "contact:email": "info@mik.bz.it",
            "contact:housenumber": "2",
            "contact:phone": "+39 0474 913278",
            "contact:postcode": "39038",
            "contact:street": "Attostraße - Via Atto",
            "contact:street:de": "Attostraße",
            "contact:street:it": "Via Atto",
            "contact:website": "https://www.mik.bz.it/it/home.html",
            "fixme": "Verify the exact location of the library",
            "name": "Museum Archiv und Bibliothek des Stifts Innichen - Museo Archivio e Biblioteca della Collegiata di San Candido",
            "name:de": "Museum Archiv und Bibliothek des Stifts Innichen",
            "name:it": "Museo Archivio e Biblioteca della Collegiata di San Candido",
            "operator": "Diözese Bozen-Brixen - Diocesi di Bolzano-Bressanone",
            "operator:de": "Diözese Bozen-Brixen",
            "operator:it": "Diocesi di Bolzano-Bressanone",
            "operator:type": "religious",
            "ref:isil": "IT-BZ0255",
            "ref:rism": "I-SCAcc",
            "start_date": "1100"
          },
          "geometry": {
            "type": "Point",
            "coordinates": [
              12.2828542,
              46.7331361
            ]
          }
        }
      ],
      "children": []
    },
    {
      "bbox": {
        "south": 46.70320525,
        "west": 12.392062499999998,
        "north": 47.033758500000005,
        "east": 13.345766
      },
      "poiCount": 6,
      "leafCount": 6,
      "averagePosition": [
        12.695643883333332,
        46.860637516666664
      ],
      "data": [
        {
          "type": "Feature",
          "properties": {
            "id": "12020554610",
            "osm_type": "node",
            "lat": 47.0030374,
            "lon": 12.45772,
            "amenity": "library",
            "name": "Bücherei Virgen",
            "opening_hours": "Tu 09:30-11:30,16:00-18:00; Th 16:00-18:00; Su 09:30-11:30"
          },
          "geometry": {
            "type": "Point",
            "coordinates": [
              12.45772,
              47.0030374
            ]
          }
        },
        {
          "type": "Feature",
          "properties": {
            "id": "5092141250",
            "osm_type": "node",
            "lat": 47.0047953,
            "lon": 12.6457706,
            "air_conditioning": "yes",
            "amenity": "library",
            "check_date:opening_hours": "2024-09-28",
            "internet_access": "wlan",
            "name": "Bücherei Kals",
            "opening_hours": "Th 17:00-18:30; Su 09:15-10:30",
            "phone": "+43 680 1283166",
            "wheelchair": "limited"
          },
          "geometry": {
            "type": "Point",
            "coordinates": [
              12.6457706,
              47.0047953
            ]
          }
        },
        {
          "type": "Feature",
          "properties": {
            "id": "11407209756",
            "osm_type": "node",
            "lat": 46.748049,
            "lon": 12.4191699,
            "addr:city": "Sillian",
            "addr:housenumber": "84",
            "addr:place": "Sillian",
            "addr:postcode": "9920",
            "amenity": "library",
            "name": "Öffentliche Bücherei Sillian"
          },
          "geometry": {
            "type": "Point",
            "coordinates": [
              12.4191699,
              46.748049
            ]
          }
        },
        {
          "type": "Feature",
          "properties": {
            "id": "4533773514",
            "osm_type": "node",
            "lat": 46.8361089,
            "lon": 12.8029877,
            "amenity": "library",
            "name": "Bücherei Nussdorf-Debant"
          },
          "geometry": {
            "type": "Point",
            "coordinates": [
              12.8029877,
              46.8361089
            ]
          }
        },
        {
          "type": "Feature",
          "properties": {
            "id": "13081399493",
            "osm_type": "node",
            "lat": 46.8308996,
            "lon": 12.7648757,
            "addr:city": "Lienz",
            "addr:country": "AT",
            "addr:housenumber": "2",
            "addr:postcode": "9900",
            "addr:street": "Egger-Lienz - Platz",
            "amenity": "library",
            "name": "Stadtbücherei Lienz",
            "opening_hours": "Mo,Tu,Th-Sa 10:00-12:00, Th 10:00-18:00, Mo-We,Fr 15:00-18:00",
            "wheelchair": "yes",
            "wikidata": "Q56238777"
          },
          "geometry": {
            "type": "Point",
            "coordinates": [
              12.7648757,
              46.8308996
            ]
          }
        },
        {
          "type": "Feature",
          "properties": {
            "id": "11760530307",
            "osm_type": "node",
            "lat": 46.7409349,
            "lon": 13.0833394,
            "amenity": "library",
            "email": "bibliothek@ms-dellach.ksn.at",
            "name": "Bibliothek Dellach",
            "phone": "+43471434215",
            "website": "https://www.dellach.bvoe.at/"
          },
          "geometry": {
            "type": "Point",
            "coordinates": [
              13.0833394,
              46.7409349
            ]
          }
        }
      ],
      "children": []
    }
  ]
}