{
  "bbox": {
    "south": 47.033758500000005,
    "west": 9.530952,
    "north": 47.694865,
    "east": 11.438358999999998
  },
  "poiCount": 142,
  "leafCount": 0,
  "averagePosition": [
    10.377327071830985,
    47.38158759295775
  ],
  "data": [],
  "children": [
    {
      "bbox": {
        "south": 47.033758500000005,
        "west": 9.530952,
        "north": 47.36431175,
        "east": 10.484655499999999
      },
      "poiCount": 26,
      "leafCount": 26,
      "averagePosition": [
        9.736820569230769,
        47.26016827307693
      ],
      "data": [
        {
          "type": "Feature",
          "properties": {
            "id": "1421364887",
            "osm_type": "node",
            "lat": 47.305282,
            "lon": 9.6447765,
            "addr:city": "Klaus",
            "addr:country": "AT",
            "addr:housenumber": "17b",
            "addr:postcode": "6833",
            "addr:street": "Treietstraße",
            "air_conditioning": "yes",
            "amenity": "library",
            "check_date": "2024-07-26",
            "check_date:opening_hours": "2023-04-25",
            "contact:email": "info@bibliothek.at",
            "contact:phone": "+43 5523 6275016",
            "contact:website": "http://www.bibliothek.at",
            "internet_access": "wlan",
            "level": "0",
            "name": "Öffentliche Bibliothek Klaus-Weiler",
            "opening_hours": "Mo-Fr 17:00-19:30; Su 09:00-11:30",
            "operator": "Gemeinden Klaus, Weiler, Fraxern",
            "wheelchair": "yes"
          },
          "geometry": {
            "type": "Point",
            "coordinates": [
              9.6447765,
              47.305282
            ]
          }
        },
        {
          "type": "Feature",
          "properties": {
            "id": "1546281647",
            "osm_type": "node",
            "lat": 47.2585588,
            "lon": 9.5727223,
            "amenity": "library",
            "name": "Öffentliche Bücherei Nofels",
            "opening_hours": "Mo 15:00-18:00; Tu 14:00-16:00; We 09:00-11:00; Fr 17:00-19:00"
          },
          "geometry": {
            "type": "Point",
            "coordinates": [
              9.5727223,
              47.2585588
            ]
          }
        },
        {
          "type": "Feature",
          "properties": {
            "id": "1618689782",
            "osm_type": "node",
            "lat": 47.3542499,
            "lon": 9.6495862,
            "amenity": "library",
            "name": "Bibliothek Altach",
            "wikidata": "Q56237841"
          },
          "geometry": {
            "type": "Point",
            "coordinates": [
              9.6495862,
              47.3542499
            ]
          }
        },
        {
          "type": "Feature",
          "properties": {
            "id": "1823375637",
            "osm_type": "node",
            "lat": 47.2848717,
            "lon": 9.6604515,
            "addr:city": "Zwischenwasser",
            "addr:country": "AT",
            "addr:housenumber": "12",
            "addr:postcode": "6835",
            "addr:street": "Hauptstraße",
            "addr:suburb": "Muntlix",
            "amenity": "library",
            "contact:email": "bibliothek.muntlix@hszw.snv.at",
            "contact:phone": "+43 05522 4915330",
            "name": "Öffentliche Bücherei Muntlix",
            "opening_hours": "Tu 15:30-18:00; Th 08:30-10:00; Fr 18:00-19:30; Su 09:30-11:30",
            "wikidata": "Q56238620"
          },
          "geometry": {
            "type": "Point",
            "coordinates": [
              9.6604515,
              47.2848717
            ]
          }
        },
        {
          "type": "Feature",
          "properties": {
            "id": "1882763296",
            "osm_type": "node",
            "lat": 47.3508842,
            "lon": 9.6215781,
            "addr:city": "Mäder",
            "addr:country": "AT",
            "addr:housenumber": "4",
            "addr:postcode": "6841",
            "addr:street": "Ulimahd",
            "amenity": "library",
            "at_bev:addr_date": "2023-04-15",
            "name": "Bücherei und Spielothek Mäder",
            "wikidata": "Q56237572"
          },
          "geometry": {
            "type": "Point",
            "coordinates": [
              9.6215781,
              47.3508842
            ]
          }
        },
        {
          "type": "Feature",
          "properties": {
            "id": "1998785631",
            "osm_type": "node",
            "lat": 47.210786,
            "lon": 9.836337,
            "amenity": "library"
          },
          "geometry": {
            "type": "Point",
            "coordinates": [
              9.836337,
              47.210786
            ]
          }
        },
        {
          "type": "Feature",
          "properties": {
            "id": "2095170127",
            "osm_type": "node",
            "lat": 47.2593853,
            "lon": 9.620209,
            "amenity": "library",
            "name": "Öffentliche Bücherei Altenstadt",
            "wikidata": "Q56238333"
          },
          "geometry": {
            "type": "Point",
            "coordinates": [
              9.620209,
              47.2593853
            ]
          }
        },
        {
          "type": "Feature",
          "properties": {
            "id": "2254522989",
            "osm_type": "node",
            "lat": 47.335982,
            "lon": 9.6462586,
            "amenity": "library",
            "name": "Bibliothek Götzis",
            "opening_hours": "Mo,We 15:00-19:00; Tu 10:00-14:00; Th 09:00-13:00; Fr 14:00-18:00; Sa 09:00-13:00; PH,Su off",
            "wheelchair": "yes",
            "wikidata": "Q56237481"
          },
          "geometry": {
            "type": "Point",
            "coordinates": [
              9.6462586,
              47.335982
            ]
          }
        },
        {
          "type": "Feature",
          "properties": {
            "id": "2409577050",
            "osm_type": "node",
            "lat": 47.2262546,
            "lon": 9.5803994,
            "amenity": "library",
            "email": "buecherei.tisis@feldkirch.at",
            "name": "Bücherei Tisis",
            "opening_hours": "We 17:00-20:00; Su 9:30-11:30"
          },
          "geometry": {
            "type": "Point",
            "coordinates": [
              9.5803994,
              47.2262546
            ]
          }
        },
        {
          "type": "Feature",
          "properties": {
            "id": "2964301143",
            "osm_type": "node",
            "lat": 47.3640641,
            "lon": 9.6886619,
            "addr:city": "Hohenems",
            "addr:housenumber": "1a",
            "addr:postcode": "6845",
            "addr:street": "Marktstraße",
            "amenity": "library",
            "email": "info@buecherei-hohenems.at",
            "name": "Bücherei Hohenems",
            "opening_hours": "Tu 16:00-20:00; We 09:00-12:00, 16:00-20:00; Fr 16:00-20:00; Sa 09:00-12:00",
            "operator": "Büchereiverband Österreich",
            "operator:type": "public",
            "phone": "+43 5576 72312-14",
            "website": "https://www.hohenems.bvoe.at/",
            "wikidata": "Q56237542"
          },
          "geometry": {
            "type": "Point",
            "coordinates": [
              9.6886619,
              47.3640641
            ]
          }
        },
        {
          "type": "Feature",
          "properties": {
            "id": "3299409962",
            "osm_type": "node",
            "lat": 47.154845,
            "lon": 9.8161459,
            "addr:city": "Bludenz",
            "addr:country": "AT",
            "addr:housenumber": "2a",
            "addr:postcode": "6700",
            "addr:street": "Bahnhofplatz",
            "amenity": "library",
            "contact:email": "bibliothek.bludenz@ak-vorarlberg.at",
            "contact:phone": "+43 50 2584550",
            "contact:website": "http://vbg.arbeiterkammer.at",
            "name": "AK-Bibliothek Bludenz",
            "opening_hours": "Tu 13:00-19:00; We 13:00-18:00; Th 09:00-12:00, 13:00-18:00; Fr 13:00-18:00",
            "operator": "Arbeiterkammer Vorarlberg",
            "wikidata": "Q56237450"
          },
          "geometry": {
            "type": "Point",
            "coordinates": [
              9.8161459,
              47.154845
            ]
          }
        },
        {
          "type": "Feature",
          "properties": {
            "id": "3836873605",
            "osm_type": "node",
            "lat": 47.2231783,
            "lon": 9.8342137,
            "amenity": "library",
            "name": "Walserbibliothek Blons",
            "wikidata": "Q56238805"
          },
          "geometry": {
            "type": "Point",
            "coordinates": [
              9.8342137,
              47.2231783
            ]
          }
        },
        {
          "type": "Feature",
          "properties": {
            "id": "4239964077",
            "osm_type": "node",
            "lat": 47.2377766,
            "lon": 9.5968155,
            "addr:city": "Feldkirch",
            "addr:country": "AT",
            "addr:housenumber": "8",
            "addr:postcode": "6800",
            "addr:street": "Schlossergasse",
            "amenity": "library",
            "email": "bibliothek@feldkirch.at",
            "name": "Stadtbibliothek Feldkirch",
            "opening_hours": "Mo-Th 10:00-12:00,13:30-17:00; Fr 10:00-12:00,13:30-16:00",
            "phone": "+43 5522 304-1252",
            "website": "https://www.feldkirch.at/rathaus/bibliothek"
          },
          "geometry": {
            "type": "Point",
            "coordinates": [
              9.5968155,
              47.2377766
            ]
          }
        },
        {
          "type": "Feature",
          "properties": {
            "id": "6690840432",
            "osm_type": "node",
            "lat": 47.1928756,
            "lon": 9.7832456,
            "amenity": "library"
          },
          "geometry": {
            "type": "Point",
            "coordinates": [
              9.7832456,
              47.1928756
            ]
          }
        },
        {
          "type": "Feature",
          "properties": {
            "id": "7058776960",
            "osm_type": "node",
            "lat": 47.2002198,
            "lon": 9.7653117,
            "addr:city": "Thüringen",
            "addr:housenumber": "4",
            "addr:postcode": "6712",
            "addr:street": "Gerbeweg",
            "amenity": "library",
            "name": "Bücherei Thüringen",
            "phone": "+43 5550 20820"
          },
          "geometry": {
            "type": "Point",
            "coordinates": [
              9.7653117,
              47.2002198
            ]
          }
        },
        {
          "type": "Feature",
          "properties": {
            "id": "9379972124",
            "osm_type": "node",
            "lat": 47.171827,
            "lon": 9.8009947,
            "addr:city": "Nüziders",
            "addr:housenumber": "10",
            "addr:postcode": "6714",
            "addr:street": "Schulgasse",
            "amenity": "library"
          },
          "geometry": {
            "type": "Point",
            "coordinates": [
              9.8009947,
              47.171827
            ]
          }
        },
        {
          "type": "Feature",
          "properties": {
            "id": "10231283831",
            "osm_type": "node",
            "lat": 47.2396317,
            "lon": 9.5976397,
            "addr:city": "Feldkirch",
            "addr:country": "AT",
            "addr:housenumber": "4",
            "addr:postcode": "6800",
            "addr:street": "Widnau",
            "amenity": "library",
            "email": "bibliothek.feldkirch@ak-vorarlberg.at",
            "name": "AK-Bibliothek Feldkirch",
            "opening_hours": "Th 10:00-12:00,13:00-19:00, We-Fr 10:00-12:00,13:00-18:00, PH off",
            "phone": "050/258-4510",
            "website": "https://vbg.arbeiterkammer.at/service/AKBibliotheken/index.html",
            "wikidata": "Q56237452"
          },
          "geometry": {
            "type": "Point",
            "coordinates": [
              9.5976397,
              47.2396317
            ]
          }
        },
        {
          "type": "Feature",
          "properties": {
            "id": "10259259775",
            "osm_type": "node",
            "lat": 47.2784479,
            "lon": 9.6678776,
            "amenity": "library",
            "name": "Öffentliche Bücherei der Pfarre und Gemeinde Batschuns",
            "opening_hours": "Tu 18:00 - 20:00; Th 15:30 - 17:30",
            "website": "https://www.bvoe.at/bibliotheken/bibliotheksadressen/oeffentliche-buecherei-der-pfarre-und-gemeinde-batschuns",
            "wheelchair": "yes",
            "wikidata": "Q56238509"
          },
          "geometry": {
            "type": "Point",
            "coordinates": [
              9.6678776,
              47.2784479
            ]
          }
        },
        {
          "type": "Feature",
          "properties": {
            "id": "10259385764",
            "osm_type": "node",
            "lat": 47.3281121,
            "lon": 9.5999292,
            "amenity": "library",
            "name": "Bücherei Koblach",
            "website": "https://koblach.bvoe.at/",
            "wikidata": "Q56237546"
          },
          "geometry": {
            "type": "Point",
            "coordinates": [
              9.5999292,
              47.3281121
            ]
          }
        },
        {
          "type": "Feature",
          "properties": {
            "id": "10262180786",
            "osm_type": "node",
            "lat": 47.2955793,
            "lon": 9.577176,
            "amenity": "library",
            "name": "Öffentliche Bibliothek Meiningen",
            "website": "https://www.meiningen.at/wohnen-und-leben/bildung/bibliothek-meiningen/oeffentliche-bibliothek",
            "wikidata": "Q56237488"
          },
          "geometry": {
            "type": "Point",
            "coordinates": [
              9.577176,
              47.2955793
            ]
          }
        },
        {
          "type": "Feature",
          "properties": {
            "id": "10262186130",
            "osm_type": "node",
            "lat": 47.2714261,
            "lon": 9.6400456,
            "amenity": "library",
            "check_date": "2024-01-04",
            "contact:phone": "+43 5522 405 5211",
            "contact:website": "https://bibliothek.rankweil.at/",
            "email": "bibliothek@rankweil.at",
            "name": "Bibliothek Rankweil",
            "opening_hours": "Mo 08:00-11:00,15:00-19:00; Tu 15:00-19:00; We 08:00-11:00,15:00-18:00; Th 08:00-11:00; Fr 15:00-18:00; Sa-Su off",
            "wikidata": "Q56237491"
          },
          "geometry": {
            "type": "Point",
            "coordinates": [
              9.6400456,
              47.2714261
            ]
          }
        },
        {
          "type": "Feature",
          "properties": {
            "id": "10939786895",
            "osm_type": "node",
            "lat": 47.2156017,
            "lon": 9.6321385,
            "amenity": "library",
            "contact:phone": "+43 5522 5176 930",
            "name": "Bibliothek Frastanz",
            "website": "https://bibfrastanz.bvoe.at/",
            "wikidata": "Q56237478"
          },
          "geometry": {
            "type": "Point",
            "coordinates": [
              9.6321385,
              47.2156017
            ]
          }
        },
        {
          "type": "Feature",
          "properties": {
            "id": "11375113546",
            "osm_type": "node",
            "lat": 47.220857,
            "lon": 9.8148901,
            "amenity": "library",
            "name": "Walserbibliothek St. Gerold",
            "wikidata": "Q56238808"
          },
          "geometry": {
            "type": "Point",
            "coordinates": [
              9.8148901,
              47.220857
            ]
          }
        },
        {
          "type": "Feature",
          "properties": {
            "id": "12992313805",
            "osm_type": "node",
            "lat": 47.3122237,
            "lon": 10.0161089,
            "amenity": "library",
            "level": "1"
          },
          "geometry": {
            "type": "Point",
            "coordinates": [
              10.0161089,
              47.3122237
            ]
          }
        },
        {
          "type": "Feature",
          "properties": {
            "id": "679518531",
            "osm_type": "node",
            "lat": 47.3233912,
            "lon": 10.1535766,
            "addr:city": "Mittelberg",
            "addr:country": "AT",
            "addr:housenumber": "4",
            "addr:postcode": "6993",
            "addr:street": "Kirchplatz",
            "amenity": "library",
            "name": "Weltladen-Bücherei",
            "note": "In AT-6993 Mittelberg ist auch DE-87569 Mittelberg zur Adressfindung vergeben."
          },
          "geometry": {
            "type": "Point",
            "coordinates": [
              10.1535766,
              47.3233912
            ]
          }
        },
        {
          "type": "Feature",
          "properties": {
            "id": "12878766973",
            "osm_type": "node",
            "lat": 47.1480635,
            "lon": 10.340245,
            "amenity": "library",
            "name": "Bücherei Pettneu"
          },
          "geometry": {
            "type": "Point",
            "coordinates": [
              10.340245,
              47.1480635
            ]
          }
        }
      ],
      "children": []
    },
    {
      "bbox": {
        "south": 47.033758500000005,
        "west": 10.484655499999999,
        "north": 47.36431175,
        "east": 11.438358999999998
      },
      "poiCount": 46,
      "leafCount": 46,
      "averagePosition": [
        11.166463795652174,
        47.24023306304348
      ],
      "data": [
        {
          "type": "Feature",
          "properties": {
            "id": "1969220995",
            "osm_type": "node",
            "lat": 47.1415678,
            "lon": 10.5130485,
            "addr:city": "Grins",
            "addr:country": "AT",
            "addr:housenumber": "89",
            "addr:postcode": "6591",
            "addr:street": "Grins",
            "amenity": "library",
            "contact:email": "grinner@bibliotheken.at",
            "contact:phone": "+43 699 19049904",
            "contact:website": "https://grinner.bvoe.at",
            "entrance": "yes",
            "name": "Grinner Bibliothek",
            "opening_hours": "Mo 16:00-18:30; Th 17:00-19:30",
            "wheelchair": "limited",
            "wikidata": "Q56237734"
          },
          "geometry": {
            "type": "Point",
            "coordinates": [
              10.5130485,
              47.1415678
            ]
          }
        },
        {
          "type": "Feature",
          "properties": {
            "id": "2114383655",
            "osm_type": "node",
            "lat": 47.0719368,
            "lon": 10.9708536,
            "amenity": "library"
          },
          "geometry": {
            "type": "Point",
            "coordinates": [
              10.9708536,
              47.0719368
            ]
          }
        },
        {
          "type": "Feature",
          "properties": {
            "id": "2417861670",
            "osm_type": "node",
            "lat": 47.2972773,
            "lon": 10.9288158,
            "addr:city": "Obsteig",
            "addr:country": "AT",
            "addr:housenumber": "255",
            "addr:postcode": "6416",
            "addr:street": "Unterstrass",
            "amenity": "library",
            "name": "Bibliothek Obsteig",
            "opening_hours": "Mo 14:00-15:00; We 09:30-11:00; Fr 18:00-19:30",
            "website": "http://www.obsteig.bvoe.at/",
            "wikidata": "Q56238280"
          },
          "geometry": {
            "type": "Point",
            "coordinates": [
              10.9288158,
              47.2972773
            ]
          }
        },
        {
          "type": "Feature",
          "properties": {
            "id": "2572223842",
            "osm_type": "node",
            "lat": 47.2183196,
            "lon": 10.8210162,
            "amenity": "library",
            "name": "Bücherei Roppen"
          },
          "geometry": {
            "type": "Point",
            "coordinates": [
              10.8210162,
              47.2183196
            ]
          }
        },
        {
          "type": "Feature",
          "properties": {
            "id": "4248056537",
            "osm_type": "node",
            "lat": 47.2653252,
            "lon": 10.7630382,
            "amenity": "library",
            "email": "buecherei_tarrenz@cni.at",
            "level": "1",
            "name": "Bibliothek Tarrenz",
            "opening_hours": "Tu 15:30-18:00; We 08:00-09:00; Fr 17:00-19:30",
            "operator": "Gemeinde Tarrenz",
            "phone": "+43 5412 61642",
            "website": "http://www.tarrenz.bvoe.at/"
          },
          "geometry": {
            "type": "Point",
            "coordinates": [
              10.7630382,
              47.2653252
            ]
          }
        },
        {
          "type": "Feature",
          "properties": {
            "id": "7608990111",
            "osm_type": "node",
            "lat": 47.2386745,
            "lon": 10.7416593,
            "amenity": "library",
            "name": "Stadtbücherei Imst",
            "opening_hours": "Tu 11:00-19:00; Th 15:30-19:00; Fr 15:30-19:00; Sa 09:00-12:00",
            "wikidata": "Q56238770"
          },
          "geometry": {
            "type": "Point",
            "coordinates": [
              10.7416593,
              47.2386745
            ]
          }
        },
        {
          "type": "Feature",
          "properties": {
            "id": "7773014439",
            "osm_type": "node",
            "lat": 47.1376582,
            "lon": 10.5679183,
            "amenity": "library",
            "name": "Stadtbücherei Landeck"
          },
          "geometry": {
            "type": "Point",
            "coordinates": [
              10.5679183,
              47.1376582
            ]
          }
        },
        {
          "type": "Feature",
          "properties": {
            "id": "8655916098",
            "osm_type": "node",
            "lat": 47.2047699,
            "lon": 10.6728262,
            "amenity": "library",
            "name": "Bücherei Mils"
          },
          "geometry": {
            "type": "Point",
            "coordinates": [
              10.6728262,
              47.2047699
            ]
          }
        },
        {
          "type": "Feature",
          "properties": {
            "id": "8928829431",
            "osm_type": "node",
            "lat": 47.1482103,
            "lon": 10.5696691,
            "amenity": "library",
            "name": "Bücherei Perjen",
            "source": "LT"
          },
          "geometry": {
            "type": "Point",
            "coordinates": [
              10.5696691,
              47.1482103
            ]
          }
        },
        {
          "type": "Feature",
          "properties": {
            "id": "9004908979",
            "osm_type": "node",
            "lat": 47.2651864,
            "lon": 10.9283548,
            "addr:city": "Silz",
            "addr:country": "AT",
            "addr:housenumber": "4",
            "addr:postcode": "6424",
            "addr:street": "Schulstraße",
            "amenity": "library",
            "contact:website": "https://www.facebook.com/OffentlicheBuchereiSilz",
            "name": "Öffentliche Bücherei Silz"
          },
          "geometry": {
            "type": "Point",
            "coordinates": [
              10.9283548,
              47.2651864
            ]
          }
        },
        {
          "type": "Feature",
          "properties": {
            "id": "9886929681",
            "osm_type": "node",
            "lat": 47.2760713,
            "lon": 10.9848335,
            "addr:city": "Stams",
            "addr:country": "AT",
            "addr:housenumber": "1",
            "addr:postcode": "6422",
            "addr:street": "Thomas-Riss-Weg",
            "amenity": "library",
            "contact:email": "buecherei@stams.co.at",
            "contact:website": "https://stams.bvoe.at",
            "name": "Bücherei Stams"
          },
          "geometry": {
            "type": "Point",
            "coordinates": [
              10.9848335,
              47.2760713
            ]
          }
        },
        {
          "type": "Feature",
          "properties": {
            "id": "10742022874",
            "osm_type": "node",
            "lat": 47.2265986,
            "lon": 10.7619573,
            "amenity": "library",
            "name": "Bücherei Karrösten",
            "operator": "Gemeinde Karrösten"
          },
          "geometry": {
            "type": "Point",
            "coordinates": [
              10.7619573,
              47.2265986
            ]
          }
        },
        {
          "type": "Feature",
          "properties": {
            "id": "11196022816",
            "osm_type": "node",
            "lat": 47.3174502,
            "lon": 11.0042607,
            "addr:city": "Wildermieming",
            "addr:housenumber": "4",
            "addr:postcode": "6413",
            "addr:street": "Unterwegs",
            "amenity": "library",
            "internet_access": "yes",
            "name": "Bücherei Wildermieming",
            "wikidata": "Q56238666"
          },
          "geometry": {
            "type": "Point",
            "coordinates": [
              11.0042607,
              47.3174502
            ]
          }
        },
        {
          "type": "Feature",
          "properties": {
            "id": "12683580963",
            "osm_type": "node",
            "lat": 47.2541228,
            "lon": 10.8820351,
            "amenity": "library",
            "name": "Bibliothek Haiming"
          },
          "geometry": {
            "type": "Point",
            "coordinates": [
              10.8820351,
              47.2541228
            ]
          }
        },
        {
          "type": "Feature",
          "properties": {
            "id": "245890862",
            "osm_type": "node",
            "lat": 47.2682182,
            "lon": 11.2396007,
            "amenity": "library",
            "internet_access": "terminal",
            "name": "Öffentliche Bibliothek Zirl",
            "opening_hours": "Mo 17:00-20:00; We 15:00-18:00; Th 09:00-12:00; Fr 15:00-18:00; Sa 09:00-12:00",
            "website": "http://bibliothek-zirl.blogspot.com/",
            "wheelchair": "limited",
            "wikidata": "Q56237507"
          },
          "geometry": {
            "type": "Point",
            "coordinates": [
              11.2396007,
              47.2682182
            ]
          }
        },
        {
          "type": "Feature",
          "properties": {
            "id": "617646159",
            "osm_type": "node",
            "lat": 47.1648754,
            "lon": 11.361043,
            "addr:city": "Telfes im Stubai",
            "addr:country": "AT",
            "addr:housenumber": "17",
            "addr:housenumber:old": "31",
            "addr:postcode": "6165",
            "addr:street": "Franz-de-Paula-Penz-Weg",
            "addr:street:old": "Telfes",
            "amenity": "library",
            "name": "Bücherei der Gemeinde Telfes",
            "opening_hours": "Tu 09:00-10:00,17:00-19:00; Fr 17:00-19:00",
            "wikidata": "Q56238378"
          },
          "geometry": {
            "type": "Point",
            "coordinates": [
              11.361043,
              47.1648754
            ]
          }
        },
        {
          "type": "Feature",
          "properties": {
            "id": "645328892",
            "osm_type": "node",
            "lat": 47.2641071,
            "lon": 11.3905341,
            "addr:city": "Innsbruck",
            "addr:country": "AT",
            "addr:housenumber": "18",
            "addr:postcode": "6020",
            "addr:street": "Bürgerstraße",
            "air_conditioning": "no",
            "amenity": "library",
            "check_date": "2025-05-13",
            "check_date:opening_hours": "2025-05-13",
            "email": "office@kontaktco.at",
            "fax": "+43 512 585730 20",
            "internet_access": "wlan",
            "name": "kontakt+co",
            "opening_hours": "Mo-Th 08:00-16:00; PH off",
            "payment:cards": "no",
            "payment:cash": "yes",
            "payment:credit_cards": "no",
            "payment:debit_cards": "no",
            "phone": "+43 512 585730",
            "website": "https://www.kontaktco.at/",
            "wheelchair": "no"
          },
          "geometry": {
            "type": "Point",
            "coordinates": [
              11.3905341,
              47.2641071
            ]
          }
        },
        {
          "type": "Feature",
          "properties": {
            "id": "1059039189",
            "osm_type": "node",
            "lat": 47.2325964,
            "lon": 11.2801251,
            "amenity": "library",
            "check_date:opening_hours": "2023-12-15",
            "name": "Bücherei Axams",
            "opening_hours": "Tu 10:00-16:00; We 16:00-18:00; Fr 15:00-19:00",
            "website": "https://www.buecherei-axams.blogspot.co.at/",
            "wheelchair": "yes",
            "wikidata": "Q56238337"
          },
          "geometry": {
            "type": "Point",
            "coordinates": [
              11.2801251,
              47.2325964
            ]
          }
        },
        {
          "type": "Feature",
          "properties": {
            "id": "1367213979",
            "osm_type": "node",
            "lat": 47.253833,
            "lon": 11.3189057,
            "amenity": "library",
            "email": "bibliothek@ms-voels.tsn.at",
            "name": "Bücherei Völs",
            "opening_hours": "Tu 15:00-19:00; We 08:00-12:00; Th 15:00-19:00; Fr 15:00-18:00",
            "phone": "+43 512 304631",
            "website": "https://www.voels.bvoe.at/",
            "wheelchair": "yes",
            "wikidata": "Q56241870"
          },
          "geometry": {
            "type": "Point",
            "coordinates": [
              11.3189057,
              47.253833
            ]
          }
        },
        {
          "type": "Feature",
          "properties": {
            "id": "1676712913",
            "osm_type": "node",
            "lat": 47.2642707,
            "lon": 11.3857222,
            "addr:city": "Innsbruck",
            "addr:country": "AT",
            "addr:housenumber": "50",
            "addr:postcode": "6020",
            "addr:street": "Innrain",
            "amenity": "library",
            "check_date": "2024-09-06",
            "contact:phone": "+43 512 507 2401",
            "contact:website": "https://www.uibk.ac.at/ulb/",
            "internet_access": "wlan",
            "internet_access:ssid": "UIBK",
            "level": "-1",
            "name": "Hauptbibliothek",
            "opening_hours": "Mo-Fr 08:00-24:00; Sa-Su 08:00-18:00",
            "operator": "Universität Innsbruck",
            "ref:isil": "AT-UBI-HB",
            "wheelchair": "yes"
          },
          "geometry": {
            "type": "Point",
            "coordinates": [
              11.3857222,
              47.2642707
            ]
          }
        },
        {
          "type": "Feature",
          "properties": {
            "id": "1776100131",
            "osm_type": "node",
            "lat": 47.2896412,
            "lon": 11.1203145,
            "addr:city": "Flaurling",
            "addr:country": "AT",
            "addr:housenumber": "8",
            "addr:postcode": "6403",
            "addr:street": "Risweg",
            "amenity": "library",
            "name": "Bücherei Flaurling",
            "wheelchair": "no"
          },
          "geometry": {
            "type": "Point",
            "coordinates": [
              11.1203145,
              47.2896412
            ]
          }
        },
        {
          "type": "Feature",
          "properties": {
            "id": "1888500060",
            "osm_type": "node",
            "lat": 47.328483,
            "lon": 11.1863565,
            "amenity": "library",
            "check_date": "2023-10-11",
            "email": "info@bibliothek-seefeld.at",
            "name": "Öffentliche Bibliothek Seefeld",
            "opening_hours": "Tu 17:00-18:30; Th 18:00-19:30; Su 10:30-12:00",
            "website": "https://www.bibliothek-seefeld.at/",
            "wikidata": "Q56238312"
          },
          "geometry": {
            "type": "Point",
            "coordinates": [
              11.1863565,
              47.328483
            ]
          }
        },
        {
          "type": "Feature",
          "properties": {
            "id": "2111011392",
            "osm_type": "node",
            "lat": 47.2533815,
            "lon": 11.2717922,
            "addr:city": "Kematen in Tirol",
            "addr:country": "AT",
            "addr:housenumber": "6",
            "addr:postcode": "6175",
            "addr:street": "Dorfstraße",
            "amenity": "library",
            "name": "Öffentliche Bücherei Kematen",
            "opening_hours": "We, Fr 17:00-19:00",
            "phone": "+43 5232 21180",
            "source": "website",
            "website": "https://kematen.bvoe.at",
            "wikidata": "Q56238600"
          },
          "geometry": {
            "type": "Point",
            "coordinates": [
              11.2717922,
              47.2533815
            ]
          }
        },
        {
          "type": "Feature",
          "properties": {
            "id": "3324207633",
            "osm_type": "node",
            "lat": 47.1529249,
            "lon": 11.3487801,
            "addr:city": "Fulpmes",
            "addr:country": "AT",
            "addr:housenumber": "3",
            "addr:postcode": "6166",
            "addr:street": "Riehlstraße",
            "amenity": "library",
            "name": "Bücherei Fulpmes",
            "wikidata": "Q56238573"
          },
          "geometry": {
            "type": "Point",
            "coordinates": [
              11.3487801,
              47.1529249
            ]
          }
        },
        {
          "type": "Feature",
          "properties": {
            "id": "3413693646",
            "osm_type": "node",
            "lat": 47.2681537,
            "lon": 11.3560747,
            "addr:city": "Innsbruck",
            "addr:country": "AT",
            "addr:housenumber": "15",
            "addr:postcode": "6020",
            "addr:street": "Sankt-Georgs-Weg",
            "addr:suburb": "Hötting",
            "amenity": "library",
            "name": "Pfarrbibliothek Allerheiligen",
            "opening_hours": "Mo,We,Fr 17:00-19:00; SH We 17:00-20:00",
            "operator": "Öffentliche Bücherei",
            "website": "http://www.allerheiligen.bvoe.at/",
            "wikidata": "Q56238332"
          },
          "geometry": {
            "type": "Point",
            "coordinates": [
              11.3560747,
              47.2681537
            ]
          }
        },
        {
          "type": "Feature",
          "properties": {
            "id": "3734679018",
            "osm_type": "node",
            "lat": 47.236185,
            "lon": 11.3101064,
            "amenity": "library",
            "email": "buecherei.goetzens@outlook.com",
            "name": "Öffentliche Bücherei Götzens",
            "opening_hours": "We 17:00-19:00; Fr 17:00-19:00",
            "wikidata": "Q56238578"
          },
          "geometry": {
            "type": "Point",
            "coordinates": [
              11.3101064,
              47.236185
            ]
          }
        },
        {
          "type": "Feature",
          "properties": {
            "id": "3734679019",
            "osm_type": "node",
            "lat": 47.2736312,
            "lon": 11.1949895,
            "amenity": "library",
            "name": "Öffentliche Bücherei Inzing",
            "opening_hours": "Tu 16:30-18:00; Fr 18:00-19:30",
            "website": "http://www.liest.at/",
            "wheelchair": "limited",
            "wikidata": "Q56238593"
          },
          "geometry": {
            "type": "Point",
            "coordinates": [
              11.1949895,
              47.2736312
            ]
          }
        },
        {
          "type": "Feature",
          "properties": {
            "id": "3734679020",
            "osm_type": "node",
            "lat": 47.2357663,
            "lon": 11.2993422,
            "amenity": "library",
            "name": "Öffentliche Bücherei der Pfarre und Gemeinde Birgitz",
            "opening_hours": "Tu 09:00-12:00; Th 17:00-19:00",
            "phone": "+43 5234 33233-23",
            "website": "http://www.birgitz.bvoe.at/",
            "wikidata": "Q56238511"
          },
          "geometry": {
            "type": "Point",
            "coordinates": [
              11.2993422,
              47.2357663
            ]
          }
        },
        {
          "type": "Feature",
          "properties": {
            "id": "3736538899",
            "osm_type": "node",
            "lat": 47.2622403,
            "lon": 11.3934947,
            "addr:city": "Innsbruck",
            "addr:country": "AT",
            "addr:housenumber": "7",
            "addr:postcode": "6010",
            "addr:street": "Maximilianstraße",
            "addr:suburb": "Wilten",
            "amenity": "library",
            "check_date:opening_hours": "2022-05-12",
            "name": "AK-Bibliothek",
            "opening_hours": "Mo,We 11:00-18:00; Tu,Th 11:00-16:00; Fr 09:00-12:00; PH off",
            "operator": "AK Tirol",
            "phone": "+43 512 53401548",
            "website": "https://tirol.arbeiterkammer.at/service/AK-Bibliothek-Tirol/AK_Bibliothek_Tirol1.html",
            "wheelchair": "yes"
          },
          "geometry": {
            "type": "Point",
            "coordinates": [
              11.3934947,
              47.2622403
            ]
          }
        },
        {
          "type": "Feature",
          "properties": {
            "id": "4393737997",
            "osm_type": "node",
            "lat": 47.2834602,
            "lon": 11.4130464,
            "amenity": "library",
            "name": "Öffentliche Bücherei Mühlau",
            "website": "https://innsbook.at/search?scope=L50"
          },
          "geometry": {
            "type": "Point",
            "coordinates": [
              11.4130464,
              47.2834602
            ]
          }
        },
        {
          "type": "Feature",
          "properties": {
            "id": "4917650803",
            "osm_type": "node",
            "lat": 47.3068824,
            "lon": 11.073452,
            "addr:city": "Telfs",
            "addr:country": "AT",
            "addr:housenumber": "20",
            "addr:postcode": "6410",
            "addr:street": "Untermarktstraße",
            "amenity": "library",
            "name": "Bücherei & Spielothek Telfs",
            "phone": "+43 5262 62709-21",
            "website": "https://www.telfs.bvoe.at/",
            "wikidata": "Q56237515"
          },
          "geometry": {
            "type": "Point",
            "coordinates": [
              11.073452,
              47.3068824
            ]
          }
        },
        {
          "type": "Feature",
          "properties": {
            "id": "5171668219",
            "osm_type": "node",
            "lat": 47.2639052,
            "lon": 11.3440823,
            "addr:housenumber": "25",
            "addr:street": "Technikerstraße",
            "amenity": "library",
            "internet_access": "wlan",
            "name": "Bibliothekszentrum West",
            "opening_hours": "Mo-Fr 09:00-19:00",
            "operator": "Universität Innsbruck",
            "operator:type": "public",
            "phone": "+43 512 507 25213",
            "website": "https://www.uibk.ac.at/ulb/ueber_uns/bzw",
            "wheelchair": "yes"
          },
          "geometry": {
            "type": "Point",
            "coordinates": [
              11.3440823,
              47.2639052
            ]
          }
        },
        {
          "type": "Feature",
          "properties": {
            "id": "5189336805",
            "osm_type": "node",
            "lat": 47.2698356,
            "lon": 11.3986318,
            "addr:city": "Innsbruck",
            "addr:country": "AT",
            "addr:housenumber": "15",
            "addr:postcode": "6020",
            "addr:street": "Universitätsstraße",
            "amenity": "library",
            "internet_access": "yes",
            "level": "2",
            "name": "SoWi Bibliothek",
            "opening_hours": "Mo-Fr 08:00-22:00; Sa-Su 09:00-18:00",
            "operator": "Universitäts- und Landesbibliothek Tirol",
            "toilets:wheelchair": "yes",
            "website": "https://www.uibk.ac.at/ulb/sowi_bibliothek/index.html.de",
            "wheelchair": "yes"
          },
          "geometry": {
            "type": "Point",
            "coordinates": [
              11.3986318,
              47.2698356
            ]
          }
        },
        {
          "type": "Feature",
          "properties": {
            "id": "5225935645",
            "osm_type": "node",
            "lat": 47.2612031,
            "lon": 11.3874905,
            "amenity": "library",
            "email": "ub-mfb@uibk.ac.at",
            "fixme": "correct position in building",
            "name": "Medizinisch-Biologische Fachbibliothek",
            "opening_hours": "Mo-Fr 08:00-22:00; Sa 09:00-17:00",
            "website": "https://www.uibk.ac.at/ulb/ueber_uns/medbiol/"
          },
          "geometry": {
            "type": "Point",
            "coordinates": [
              11.3874905,
              47.2612031
            ]
          }
        },
        {
          "type": "Feature",
          "properties": {
            "id": "5237979701",
            "osm_type": "node",
            "lat": 47.1866632,
            "lon": 11.4052421,
            "addr:city": "Schönberg im Stubaital",
            "addr:housenumber": "1",
            "addr:postcode": "6141",
            "addr:street": "Römerstraße",
            "amenity": "library",
            "name": "Bücherei",
            "wikidata": "Q56238654"
          },
          "geometry": {
            "type": "Point",
            "coordinates": [
              11.4052421,
              47.1866632
            ]
          }
        },
        {
          "type": "Feature",
          "properties": {
            "id": "5486813787",
            "osm_type": "node",
            "lat": 47.2651457,
            "lon": 11.3860002,
            "addr:city": "Innsbruck",
            "addr:country": "AT",
            "addr:housenumber": "15",
            "addr:postcode": "6020",
            "addr:street": "Herzog-Siegmund-Ufer",
            "amenity": "library",
            "name": "Bibiliothek Institut für Translationswissenschaften",
            "operator": "Universität Innsbruck",
            "operator:type": "university",
            "source": "website",
            "toilets:wheelchair": "yes",
            "website": "https://www.uibk.ac.at/translation/infrastruktur/#A1",
            "wheelchair": "yes"
          },
          "geometry": {
            "type": "Point",
            "coordinates": [
              11.3860002,
              47.2651457
            ]
          }
        },
        {
          "type": "Feature",
          "properties": {
            "id": "5714600008",
            "osm_type": "node",
            "lat": 47.2924182,
            "lon": 11.1597906,
            "amenity": "library",
            "name": "Gemeindebücherei Pettnau",
            "wikidata": "Q56237693"
          },
          "geometry": {
            "type": "Point",
            "coordinates": [
              11.1597906,
              47.2924182
            ]
          }
        },
        {
          "type": "Feature",
          "properties": {
            "id": "5849710173",
            "osm_type": "node",
            "lat": 47.1109972,
            "lon": 11.3076436,
            "addr:city": "Neustift im Stubaital",
            "addr:country": "AT",
            "addr:housenumber": "3",
            "addr:postcode": "6167",
            "addr:street": "Dorf",
            "amenity": "library",
            "entrance": "yes",
            "name": "Bücherei Neustift",
            "opening_hours": "Mo,We 17:00-18:30; Fr 16:00-17:30",
            "wheelchair": "yes",
            "wikidata": "Q56238623"
          },
          "geometry": {
            "type": "Point",
            "coordinates": [
              11.3076436,
              47.1109972
            ]
          }
        },
        {
          "type": "Feature",
          "properties": {
            "id": "5869206086",
            "osm_type": "node",
            "lat": 47.2654576,
            "lon": 11.4025884,
            "addr:city": "Innsbruck",
            "addr:housenumber": "2",
            "addr:postcode": "6020",
            "addr:street": "Amraser Straße",
            "amenity": "library",
            "check_date:opening_hours": "2025-06-18",
            "country": "AT",
            "internet_access": "terminal",
            "name": "Stadtbibliothek Innsbruck",
            "name:en": "Library Innsbruck",
            "opening_hours": "Mo,Tu 14:00-19:00, We-Fr 10:00-19:00, Sa 10:00-17:00; PH off",
            "operator": "Stadt Innsbruck",
            "phone": "+43 512 5360 5700",
            "source": "survey",
            "toilets:wheelchair": "yes",
            "website": "https://stadtbibliothek.innsbruck.gv.at",
            "wheelchair": "yes"
          },
          "geometry": {
            "type": "Point",
            "coordinates": [
              11.4025884,
              47.2654576
            ]
          }
        },
        {
          "type": "Feature",
          "properties": {
            "id": "6428458295",
            "osm_type": "node",
            "lat": 47.2600258,
            "lon": 11.3909539,
            "addr:city": "Innsbruck",
            "addr:housenumber": "19",
            "addr:postcode": "6020",
            "addr:street": "Schöpfstraße",
            "addr:suburb": "Wilten",
            "amenity": "library",
            "name": "AEP",
            "opening_hours": "Mo 16:30-19:30; Th 16:30-19:30; Fr 10:00-13:00",
            "phone": "+43 512 583698",
            "website": "https://aep.at",
            "wheelchair": "yes",
            "wikidata": "Q56238682"
          },
          "geometry": {
            "type": "Point",
            "coordinates": [
              11.3909539,
              47.2600258
            ]
          }
        },
        {
          "type": "Feature",
          "properties": {
            "id": "6971004337",
            "osm_type": "node",
            "lat": 47.2672129,
            "lon": 11.3977146,
            "addr:housenumber": "15",
            "addr:postcode": "6020",
            "addr:street": "Museumstraße",
            "amenity": "library",
            "contact:email": "bibliothek@tiroler-landesmuseen.at",
            "contact:phone": "+43 512 594 89 166",
            "name": "Bibliothek des Ferdinandeums",
            "official_name": "Tiroler Landesmuseum Ferdinandeum, Bibliothek",
            "opening_hours": "Tu-Fr 10:00-13:00,14:00-17:00",
            "ref:isil": "AT-FERD",
            "website": "https://www.tiroler-landesmuseen.at/forschung/bibliothek-des-ferdinandeums/"
          },
          "geometry": {
            "type": "Point",
            "coordinates": [
              11.3977146,
              47.2672129
            ]
          }
        },
        {
          "type": "Feature",
          "properties": {
            "id": "7823761693",
            "osm_type": "node",
            "lat": 47.2274462,
            "lon": 11.3755656,
            "addr:city": "Mutters",
            "addr:housenumber": "1",
            "addr:postcode": "6162",
            "addr:street": "Dorfstraße",
            "amenity": "library",
            "name": "Öffentliche Bücherei Mutters",
            "operator": "Gemeinde Mutters",
            "wikidata": "Q56238621"
          },
          "geometry": {
            "type": "Point",
            "coordinates": [
              11.3755656,
              47.2274462
            ]
          }
        },
        {
          "type": "Feature",
          "properties": {
            "id": "11670167295",
            "osm_type": "node",
            "lat": 47.2374442,
            "lon": 11.4316585,
            "amenity": "library",
            "name": "Kulturdreh Bücherei Lans",
            "wikidata": "Q56238605"
          },
          "geometry": {
            "type": "Point",
            "coordinates": [
              11.4316585,
              47.2374442
            ]
          }
        },
        {
          "type": "Feature",
          "properties": {
            "id": "11777989296",
            "osm_type": "node",
            "lat": 47.2062268,
            "lon": 11.4155258,
            "amenity": "library",
            "name": "Öffentliche Bücherei Patsch",
            "wikidata": "Q56238627"
          },
          "geometry": {
            "type": "Point",
            "coordinates": [
              11.4155258,
              47.2062268
            ]
          }
        },
        {
          "type": "Feature",
          "properties": {
            "id": "11788248504",
            "osm_type": "node",
            "lat": 47.2649225,
            "lon": 11.3998136,
            "addr:city": "Innsbruck",
            "addr:postcode": "6020",
            "addr:street": "Brixner Str. 3/1",
            "amenity": "library",
            "description": "zentrales Büro der Selbsthilfe-Organisation 'ÖSIS Österreichische Selbsthilfe-Organisation Stottern'",
            "level": "1",
            "name": "Österreichische Selbsthilfe-Initiative Stottern (ÖSIS)",
            "name:de": "Österreichische Selbsthilfe-Initiative Stottern (ÖSIS)",
            "office": "association",
            "opening_hours": "Mo-Th 08:30-12:00; PH off",
            "phone": "+43 512 584869",
            "shop": "books",
            "theme": "Stuttering",
            "theme:de": "Stottern",
            "website": "https://oesis.at",
            "wikidata": "Q116296513",
            "wikipedia": "de:Österreichische Selbsthilfe-Initiative Stottern"
          },
          "geometry": {
            "type": "Point",
            "coordinates": [
              11.3998136,
              47.2649225
            ]
          }
        },
        {
          "type": "Feature",
          "properties": {
            "id": "11963660300",
            "osm_type": "node",
            "lat": 47.2699973,
            "lon": 11.4006665,
            "amenity": "library",
            "name": "Provinzbibliothek der Kapuziner Innsbruck",
            "website": "https://zentralbibliothek.kapuziner.at/",
            "wikidata": "Q18412343",
            "wikipedia": "de:Provinzbibliothek der Kapuziner Innsbruck"
          },
          "geometry": {
            "type": "Point",
            "coordinates": [
              11.4006665,
              47.2699973
            ]
          }
        }
      ],
      "children": []
    },
    {
      "bbox": {
        "south": 47.36431175,
        "west": 9.530952,
        "north": 47.694865,
        "east": 10.484655499999999
      },
      "poiCount": 50,
      "leafCount": 50,
      "averagePosition": [
        9.78427729,
        47.50522783
      ],
      "data": [
        {
          "type": "Feature",
          "properties": {
            "id": "7261882592",
            "osm_type": "node",
            "lat": 47.3647449,
            "lon": 9.6890684,
            "addr:city": "Hohenems",
            "addr:housenumber": "7",
            "addr:postcode": "6845",
            "addr:street": "Marktstraße",
            "amenity": "library",
            "email": "reichwald@jm-hohenems.at",
            "name": "Bibliothek des Jüdischen Museums",
            "opening_hours": "Tu-Fr 10:00-12:00, 14:00-16:00",
            "operator": "Jüdisches Museum Hohenems",
            "operator:type": "public",
            "phone": "+43 5576 73989-15",
            "website": "https://www.jm-hohenems.at/sammlung/bibliothek"
          },
          "geometry": {
            "type": "Point",
            "coordinates": [
              9.6890684,
              47.3647449
            ]
          }
        },
        {
          "type": "Feature",
          "properties": {
            "id": "268254425",
            "osm_type": "node",
            "lat": 47.5995611,
            "lon": 9.8861362,
            "amenity": "library",
            "name": "Stadtbücherei",
            "wheelchair": "no"
          },
          "geometry": {
            "type": "Point",
            "coordinates": [
              9.8861362,
              47.5995611
            ]
          }
        },
        {
          "type": "Feature",
          "properties": {
            "id": "279312604",
            "osm_type": "node",
            "lat": 47.4936833,
            "lon": 9.7451629,
            "addr:city": "Bregenz",
            "addr:country": "AT",
            "addr:housenumber": "4",
            "addr:postcode": "6900",
            "addr:street": "Fluher Straße",
            "amenity": "library",
            "email": "info.vlb@vorarlberg.at",
            "name": "Vorarlberger Landesbibliothek",
            "opening_hours": "Mo-Tu 09:00-17:00; We 09:00-19:30; Th-Fr 09:00-17:00; Sa 09:00-13:00",
            "phone": "+43 5574 511 44005",
            "short_name:de": "VLB",
            "website": "https://www.vorarlberg.at/vlb",
            "wikidata": "Q1339543",
            "wikipedia": "de:Vorarlberger Landesbibliothek"
          },
          "geometry": {
            "type": "Point",
            "coordinates": [
              9.7451629,
              47.4936833
            ]
          }
        },
        {
          "type": "Feature",
          "properties": {
            "id": "330889982",
            "osm_type": "node",
            "lat": 47.4301131,
            "lon": 9.655218,
            "amenity": "library",
            "name": "Bibliothek Lustenau"
          },
          "geometry": {
            "type": "Point",
            "coordinates": [
              9.655218,
              47.4301131
            ]
          }
        },
        {
          "type": "Feature",
          "properties": {
            "id": "344478647",
            "osm_type": "node",
            "lat": 47.6900046,
            "lon": 9.5575289,
            "amenity": "library",
            "name": "Gemeindebücherei Meckenbeuren",
            "opening_hours": "Tu 09:00-18:30; We,Th 09:00-11:30,14:30-18:00; Fr 14:30-18:30",
            "operator": "Gemeinde Meckenbeuren",
            "operator:type": "public",
            "wheelchair": "yes"
          },
          "geometry": {
            "type": "Point",
            "coordinates": [
              9.5575289,
              47.6900046
            ]
          }
        },
        {
          "type": "Feature",
          "properties": {
            "id": "366912774",
            "osm_type": "node",
            "lat": 47.6695022,
            "lon": 9.5870016,
            "addr:city": "Tettnang",
            "addr:country": "DE",
            "addr:housenumber": "9-11",
            "addr:postcode": "88069",
            "addr:street": "Schloßstraße",
            "amenity": "library",
            "email": "info@stadtbuecherei-tettnang.de",
            "fax": "+497542 510283",
            "internet_access": "wlan",
            "internet_access:fee": "no",
            "name": "Stadtbücherei Tettnang",
            "opening_hours": "Tu-Fr 10:00-18:00; Sa 10:00-13:00",
            "phone": "+497542 510280",
            "website": "https://www.stadtbuecherei-tettnang.de/",
            "wheelchair": "yes",
            "wikidata": "Q28662115"
          },
          "geometry": {
            "type": "Point",
            "coordinates": [
              9.5870016,
              47.6695022
            ]
          }
        },
        {
          "type": "Feature",
          "properties": {
            "id": "618684472",
            "osm_type": "node",
            "lat": 47.4769008,
            "lon": 9.733512,
            "addr:city": "Lauterach",
            "addr:country": "AT",
            "addr:housenumber": "16",
            "addr:postcode": "6923",
            "addr:street": "Montfortplatz",
            "alt_name": "Bibliothek Lauterach",
            "amenity": "library",
            "at_bev:addr_date": "2017-10-01",
            "contact:email": "biblio@bibliothek-lauterach.at",
            "contact:phone": "+43 5574 71601 23",
            "name": "Mediathek- und Schulbibliothek Lauterach",
            "opening_hours": "Tu 15:00-17:30; Th 09:00-11:00,15:00-17:30; Fr 17:00-19:00",
            "website": "http://www.lauterach.bvoe.at",
            "wheelchair": "limited",
            "wikidata": "Q56237777"
          },
          "geometry": {
            "type": "Point",
            "coordinates": [
              9.733512,
              47.4769008
            ]
          }
        },
        {
          "type": "Feature",
          "properties": {
            "id": "683400906",
            "osm_type": "node",
            "lat": 47.5983093,
            "lon": 9.5389643,
            "amenity": "library",
            "name": "Bücherei im Münzhof",
            "wheelchair": "yes"
          },
          "geometry": {
            "type": "Point",
            "coordinates": [
              9.5389643,
              47.5983093
            ]
          }
        },
        {
          "type": "Feature",
          "properties": {
            "id": "694415445",
            "osm_type": "node",
            "lat": 47.4082592,
            "lon": 9.6100675,
            "amenity": "library",
            "name": "Bibliothek Balgach"
          },
          "geometry": {
            "type": "Point",
            "coordinates": [
              9.6100675,
              47.4082592
            ]
          }
        },
        {
          "type": "Feature",
          "properties": {
            "id": "713184457",
            "osm_type": "node",
            "lat": 47.5458418,
            "lon": 9.6809542,
            "amenity": "library",
            "name": "Stadtarchiv und Ehemals Reichsstädtische Bibliothek Lindau am Bodensee",
            "opening_hours": "\"reservation required\"",
            "ref:isil": "DE-148",
            "wikidata": "Q1303266"
          },
          "geometry": {
            "type": "Point",
            "coordinates": [
              9.6809542,
              47.5458418
            ]
          }
        },
        {
          "type": "Feature",
          "properties": {
            "id": "713184567",
            "osm_type": "node",
            "lat": 47.545811,
            "lon": 9.6809073,
            "amenity": "library",
            "email": "stadtbuecherei@lindau.de",
            "name": "Stadtbücherei Lindau/Bodensee",
            "opening_hours": "Tu-We 14:00-18:00; Th 16:00-19:00; Fr 10:00-12:00, 14:00-16:00; Sa 10:00-13:00",
            "phone": "+49 8382 2747470",
            "ref:isil": "DE-910",
            "website": "https://www.kultur-lindau.de/buecherei/",
            "wheelchair": "yes",
            "wikidata": "Q28662027"
          },
          "geometry": {
            "type": "Point",
            "coordinates": [
              9.6809073,
              47.545811
            ]
          }
        },
        {
          "type": "Feature",
          "properties": {
            "id": "860176502",
            "osm_type": "node",
            "lat": 47.6861576,
            "lon": 9.8350104,
            "addr:city": "Wangen im Allgäu",
            "addr:country": "DE",
            "addr:housenumber": "1",
            "addr:postcode": "88239",
            "addr:street": "Postplatz",
            "amenity": "library",
            "check_date:opening_hours": "2025-08-21",
            "email": "info@buecherei-wangen.de",
            "fax": "+49 7522 74177",
            "name": "Stadtbücherei im Kornhaus",
            "opening_hours": "Tu,Th 11:00-18:30; We,Fr 09:00-18:30; Sa 09:00-13:00",
            "phone": "+49 7522 74120",
            "toilets:wheelchair": "yes",
            "website": "http://www.buecherei-wangen.de",
            "website:mobile": "http://www.buecherei-wangen.de/lissy/lissy.ly?pg=bnrlogin&format=LY_MOBILE",
            "wheelchair": "yes",
            "wikidata": "Q28662052"
          },
          "geometry": {
            "type": "Point",
            "coordinates": [
              9.8350104,
              47.6861576
            ]
          }
        },
        {
          "type": "Feature",
          "properties": {
            "id": "1130805503",
            "osm_type": "node",
            "lat": 47.5031501,
            "lon": 9.7484737,
            "addr:city": "Bregenz",
            "addr:country": "AT",
            "addr:housenumber": "6",
            "addr:postcode": "6900",
            "addr:street": "Bergmannstraße",
            "amenity": "library",
            "email": "stadtarchiv@bregenz.at",
            "name": "Stadtarchiv Bregenz",
            "opening_hours": "Mo-Fr 08:00-12:00, 13:30-16:30 \"...und nach telefonischer Vereinbarung\"",
            "phone": "+43 55744101560"
          },
          "geometry": {
            "type": "Point",
            "coordinates": [
              9.7484737,
              47.5031501
            ]
          }
        },
        {
          "type": "Feature",
          "properties": {
            "id": "1596114304",
            "osm_type": "node",
            "lat": 47.6880995,
            "lon": 9.9578474,
            "amenity": "library",
            "name": "St. Benedikt Eisenharz",
            "opening_hours": "Mo,We 16:00-18:30",
            "ref:isil": "none"
          },
          "geometry": {
            "type": "Point",
            "coordinates": [
              9.9578474,
              47.6880995
            ]
          }
        },
        {
          "type": "Feature",
          "properties": {
            "id": "1635287397",
            "osm_type": "node",
            "lat": 47.4338053,
            "lon": 9.6323683,
            "amenity": "library",
            "name": "Bibliothek/Ludothek BLAU",
            "opening_hours": "Mo 15:00-17:00; We 17:00-19:00; Fr 17:00-20:00"
          },
          "geometry": {
            "type": "Point",
            "coordinates": [
              9.6323683,
              47.4338053
            ]
          }
        },
        {
          "type": "Feature",
          "properties": {
            "id": "1714332034",
            "osm_type": "node",
            "lat": 47.4033188,
            "lon": 9.6398176,
            "amenity": "library",
            "name": "Bibliothek Widnau",
            "wheelchair": "limited"
          },
          "geometry": {
            "type": "Point",
            "coordinates": [
              9.6398176,
              47.4033188
            ]
          }
        },
        {
          "type": "Feature",
          "properties": {
            "id": "1835244783",
            "osm_type": "node",
            "lat": 47.4657473,
            "lon": 9.5975524,
            "amenity": "library",
            "name": "Bücherei Gaißau"
          },
          "geometry": {
            "type": "Point",
            "coordinates": [
              9.5975524,
              47.4657473
            ]
          }
        },
        {
          "type": "Feature",
          "properties": {
            "id": "1862946933",
            "osm_type": "node",
            "lat": 47.4251356,
            "lon": 9.6582654,
            "amenity": "library",
            "name": "Historisches Archiv",
            "opening_hours": "Tu 13:30-17:00",
            "wheelchair": "yes"
          },
          "geometry": {
            "type": "Point",
            "coordinates": [
              9.6582654,
              47.4251356
            ]
          }
        },
        {
          "type": "Feature",
          "properties": {
            "id": "2122498901",
            "osm_type": "node",
            "lat": 47.3779657,
            "lon": 9.5421919,
            "addr:city": "Altstätten",
            "addr:country": "CH",
            "addr:housenumber": "1 B/C",
            "addr:postcode": "9450",
            "addr:street": "Churerstrasse",
            "amenity": "library",
            "check_date:opening_hours": "2025-06-14",
            "email": "info@bibliorii.ch",
            "name": "biblioRii",
            "opening_hours": "Mo 14:00-17:00; Tu-Fr 08:30-11:00,14:00-17:00; Sa 09:30-11:30; Su,PH off",
            "operator": "Bibliothek Oberes Rheintal",
            "operator:type": "public",
            "phone": "+41 71 755 41 13",
            "ref:isil": "CH-002089-3",
            "start_date": "2021-02-13",
            "website": "https://bibliorii.ch/"
          },
          "geometry": {
            "type": "Point",
            "coordinates": [
              9.5421919,
              47.3779657
            ]
          }
        },
        {
          "type": "Feature",
          "properties": {
            "id": "2518384957",
            "osm_type": "node",
            "lat": 47.4661452,
            "lon": 9.5904379,
            "addr:country": "CH",
            "addr:housenumber": "25",
            "addr:street": "Hauptstrasse",
            "amenity": "library",
            "email": "info@biblio-rheineck.ch",
            "name": "Bibliothek Rheineck",
            "phone": "+41 71 8884623",
            "website": "http://www.biblio-rheineck.ch/"
          },
          "geometry": {
            "type": "Point",
            "coordinates": [
              9.5904379,
              47.4661452
            ]
          }
        },
        {
          "type": "Feature",
          "properties": {
            "id": "2602878074",
            "osm_type": "node",
            "lat": 47.4959354,
            "lon": 9.7197663,
            "amenity": "library",
            "wheelchair": "yes"
          },
          "geometry": {
            "type": "Point",
            "coordinates": [
              9.7197663,
              47.4959354
            ]
          }
        },
        {
          "type": "Feature",
          "properties": {
            "id": "3285655915",
            "osm_type": "node",
            "lat": 47.4138729,
            "lon": 9.8962866,
            "addr:city": "Andelsbuch",
            "addr:country": "AT",
            "addr:housenumber": "334",
            "addr:place": "Hof",
            "addr:postcode": "6866",
            "amenity": "library",
            "name": "Andelsbücherei",
            "operator": "BVÖ",
            "website": "https://www.andelsbuecherei.bvoe.at/",
            "wikidata": "Q56237456"
          },
          "geometry": {
            "type": "Point",
            "coordinates": [
              9.8962866,
              47.4138729
            ]
          }
        },
        {
          "type": "Feature",
          "properties": {
            "id": "3300433750",
            "osm_type": "node",
            "lat": 47.5822644,
            "lon": 9.9156339,
            "amenity": "library",
            "name": "Gemeindebücherei",
            "opening_hours": "Tu 15:00-17:00; Fr 15:30-18:00; Th 09:00-11:00; Mo,We off"
          },
          "geometry": {
            "type": "Point",
            "coordinates": [
              9.9156339,
              47.5822644
            ]
          }
        },
        {
          "type": "Feature",
          "properties": {
            "id": "4243125099",
            "osm_type": "node",
            "lat": 47.4057874,
            "lon": 9.7445088,
            "addr:city": "Dornbirn",
            "addr:country": "AT",
            "addr:housename": "Campus V",
            "addr:housenumber": "1",
            "addr:postcode": "6850",
            "addr:street": "Hochschulstraße",
            "amenity": "library",
            "contact:email": "bibliothek@fhv.at",
            "contact:fax": "+43 5572 792 9500",
            "contact:phone": "+43 5572 792 2100",
            "contact:website": "http://www.fhv.at/bibliothek",
            "name": "FH Bibliothek",
            "opening_hours": "Mo 15:00-21:00; Tu-Fr 09:00-21:00; Sa 11:30-17:00; || \"Summer opening hours: see website\"",
            "website": "http://www.fhv.at/bibliothek",
            "wheelchair": "yes"
          },
          "geometry": {
            "type": "Point",
            "coordinates": [
              9.7445088,
              47.4057874
            ]
          }
        },
        {
          "type": "Feature",
          "properties": {
            "id": "4485593709",
            "osm_type": "node",
            "lat": 47.4454917,
            "lon": 9.7621887,
            "amenity": "library"
          },
          "geometry": {
            "type": "Point",
            "coordinates": [
              9.7621887,
              47.4454917
            ]
          }
        },
        {
          "type": "Feature",
          "properties": {
            "id": "4821092642",
            "osm_type": "node",
            "lat": 47.5020678,
            "lon": 9.7435873,
            "addr:city": "Bregenz",
            "addr:country": "AT",
            "addr:housenumber": "4",
            "addr:postcode": "6900",
            "addr:street": "Gerbergasse",
            "amenity": "library",
            "contact:email": "stadtbuecherei@bregenz.at",
            "contact:phone": "+43 5574 410-1552",
            "contact:website": "https://stadtbuecherei.bregenz.at/",
            "name": "Stadtbücherei Bregenz",
            "opening_hours": "Mo,We,Fr 10:00-12:00,14:00-18:30; Tu,Th,Sa 10:00-13:00",
            "wikidata": "Q56238760"
          },
          "geometry": {
            "type": "Point",
            "coordinates": [
              9.7435873,
              47.5020678
            ]
          }
        },
        {
          "type": "Feature",
          "properties": {
            "id": "4908949964",
            "osm_type": "node",
            "lat": 47.4018911,
            "lon": 9.7392997,
            "addr:city": "Dornbirn",
            "addr:country": "AT",
            "addr:housenumber": "2",
            "addr:postcode": "6850",
            "addr:street": "Unterer Kirchweg",
            "amenity": "library",
            "internet_access": "no",
            "name": "Bücherei und Spielothek Hatlerdorf",
            "opening_hours": "Mo 09:00-11:00; We 16:00-19:00; Sa 17:30-19:30",
            "operator": "Stadt Dornbirn",
            "operator:type": "public"
          },
          "geometry": {
            "type": "Point",
            "coordinates": [
              9.7392997,
              47.4018911
            ]
          }
        },
        {
          "type": "Feature",
          "properties": {
            "id": "4908953929",
            "osm_type": "node",
            "lat": 47.3927427,
            "lon": 9.7326983,
            "addr:city": "Dornbirn",
            "addr:country": "AT",
            "addr:housenumber": "11",
            "addr:postcode": "6850",
            "addr:street": "Bachmähdle",
            "amenity": "library",
            "name": "Bücherei und Spielothek Wallenmahd",
            "opening_hours": "Tu 15:30-18:00, We 08:00-10:00, Th 15:30-18:00, Fr 08:00-10:00",
            "phone": "+43 5572 306 4824"
          },
          "geometry": {
            "type": "Point",
            "coordinates": [
              9.7326983,
              47.3927427
            ]
          }
        },
        {
          "type": "Feature",
          "properties": {
            "id": "4987822422",
            "osm_type": "node",
            "lat": 47.4530584,
            "lon": 9.6386414,
            "addr:city": "St. Margrethen",
            "addr:country": "CH",
            "addr:housenumber": "3",
            "addr:postcode": "9430",
            "addr:street": "Bahnhofplatz",
            "amenity": "library",
            "name": "Bibliothek Sankt Margrethen",
            "name:de": "Bibliothek Sankt Margrethen",
            "opening_hours": "Tu,Th,Fr 15:00-18:30, Mo,We 09:00-11:00, We 14:00-18:30, Sa 09:00-12:00"
          },
          "geometry": {
            "type": "Point",
            "coordinates": [
              9.6386414,
              47.4530584
            ]
          }
        },
        {
          "type": "Feature",
          "properties": {
            "id": "5664738649",
            "osm_type": "node",
            "lat": 47.6575318,
            "lon": 9.854356,
            "amenity": "library",
            "name": "Gemeindebücherei",
            "opening_hours": "Mo 08:30-11:30; Th 16:00-18:30; PH off",
            "wheelchair": "no"
          },
          "geometry": {
            "type": "Point",
            "coordinates": [
              9.854356,
              47.6575318
            ]
          }
        },
        {
          "type": "Feature",
          "properties": {
            "id": "5890301018",
            "osm_type": "node",
            "lat": 47.5849079,
            "lon": 9.7054532,
            "amenity": "library",
            "internet_access": "wlan",
            "internet_access:fee": "yes",
            "name": "Bibliothek am Gitz",
            "opening_hours": "Mo-Su 09:00-20:00",
            "operator": "Gitzenweiler Hof",
            "wheelchair": "no"
          },
          "geometry": {
            "type": "Point",
            "coordinates": [
              9.7054532,
              47.5849079
            ]
          }
        },
        {
          "type": "Feature",
          "properties": {
            "id": "6134744191",
            "osm_type": "node",
            "lat": 47.4139741,
            "lon": 9.741349,
            "addr:city": "Dornbirn",
            "addr:country": "AT",
            "addr:housenumber": "1",
            "addr:postcode": "6850",
            "addr:street": "Marktplatz",
            "amenity": "library",
            "building:levels": "1",
            "description": "Brettspiele zum Ausleihen",
            "name": "Spielothek und Spielberatung St. Martin",
            "opening_hours": "Tu 16:30-18:00; We 16:30-18:00",
            "wheelchair": "yes",
            "wikidata": "Q37998018"
          },
          "geometry": {
            "type": "Point",
            "coordinates": [
              9.741349,
              47.4139741
            ]
          }
        },
        {
          "type": "Feature",
          "properties": {
            "id": "6171199422",
            "osm_type": "node",
            "lat": 47.5962186,
            "lon": 9.6010034,
            "amenity": "library",
            "internet_access": "wlan",
            "operator": "Gemeinde Kressbronn"
          },
          "geometry": {
            "type": "Point",
            "coordinates": [
              9.6010034,
              47.5962186
            ]
          }
        },
        {
          "type": "Feature",
          "properties": {
            "id": "6260073835",
            "osm_type": "node",
            "lat": 47.3762741,
            "lon": 9.5429431,
            "addr:city": "Altstätten",
            "addr:country": "CH",
            "addr:housenumber": "10",
            "addr:postcode": "9450",
            "addr:street": "Klausstrasse",
            "amenity": "library",
            "contact:email": "rpm.altstaetten@phsg.ch",
            "contact:phone": "+41 71 755 25 47",
            "contact:website": "https://www.phsg.ch/de/dienstleistung/medienverbund/standorte/religionspaedagogische-medienstelle-altstaetten",
            "name": "medienverbund.phsg - Religionspädagogische Medienstelle Altstätten",
            "opening_hours": "Mo 14:00-17:00, Tu-Fr 09:00-11:30,14:00-17:00",
            "operator": "Pädagogische Hochschule St.Gallen",
            "payment:cash": "yes",
            "ref:isil": "CH-001259-0"
          },
          "geometry": {
            "type": "Point",
            "coordinates": [
              9.5429431,
              47.3762741
            ]
          }
        },
        {
          "type": "Feature",
          "properties": {
            "id": "6364199602",
            "osm_type": "node",
            "lat": 47.4154907,
            "lon": 9.6291814,
            "addr:city": "Heerbrugg",
            "addr:country": "CH",
            "addr:housenumber": "11",
            "addr:postcode": "9435",
            "addr:street": "Karl Völkerstrasse",
            "amenity": "library",
            "email": "mediothek@ksh.edu",
            "name": "Mediothek Kantonsschule Heerbrugg",
            "phone": "+41 58 228 11 02",
            "website": "https://www.ksh.edu/schule/mediothek.html",
            "website:stock": "https://www.recherche.sg.ch"
          },
          "geometry": {
            "type": "Point",
            "coordinates": [
              9.6291814,
              47.4154907
            ]
          }
        },
        {
          "type": "Feature",
          "properties": {
            "id": "6370497022",
            "osm_type": "node",
            "lat": 47.3774489,
            "lon": 9.5391978,
            "addr:city": "Altstätten (SG)",
            "addr:country": "CH",
            "addr:housenumber": "27",
            "addr:postcode": "9450",
            "addr:street": "Marktgasse",
            "amenity": "library",
            "contact:email": "info.blbrheintal@sg.ch",
            "contact:phone": "+41 58 229 90 70",
            "contact:website": "http://www.berufsberatung.sg.ch/home/standorte/berufs-_und_laufbahnberatung.html",
            "level": "1",
            "name": "BIZ Berufs- und Laufbahnberatung Altstätten"
          },
          "geometry": {
            "type": "Point",
            "coordinates": [
              9.5391978,
              47.3774489
            ]
          }
        },
        {
          "type": "Feature",
          "properties": {
            "id": "8757568279",
            "osm_type": "node",
            "lat": 47.5627048,
            "lon": 9.9423641,
            "amenity": "library",
            "opening_hours": "Mo-Fr 08:30-16:30"
          },
          "geometry": {
            "type": "Point",
            "coordinates": [
              9.9423641,
              47.5627048
            ]
          }
        },
        {
          "type": "Feature",
          "properties": {
            "id": "9489364503",
            "osm_type": "node",
            "lat": 47.5673582,
            "lon": 9.6302231,
            "addr:city": "Wasserburg (Bodensee)",
            "addr:housenumber": "73",
            "addr:postcode": "88142",
            "addr:street": "Halbinselstraße",
            "amenity": "library",
            "name": "Bücherei auf der Halbinsel",
            "wheelchair": "yes"
          },
          "geometry": {
            "type": "Point",
            "coordinates": [
              9.6302231,
              47.5673582
            ]
          }
        },
        {
          "type": "Feature",
          "properties": {
            "id": "9988702391",
            "osm_type": "node",
            "lat": 47.4686795,
            "lon": 9.8959672,
            "amenity": "library",
            "email": "buechereilangenegg@vorderwald.at",
            "level": "0",
            "name": "Bücherei Langenegg",
            "opening_hours": "Mo 18:00-20:00; Th 14:30-17:00",
            "phone": "+43 5513 4101 212",
            "website": "https://www.langenegg.bvoe.at",
            "wikidata": "Q56237549"
          },
          "geometry": {
            "type": "Point",
            "coordinates": [
              9.8959672,
              47.4686795
            ]
          }
        },
        {
          "type": "Feature",
          "properties": {
            "id": "10043206157",
            "osm_type": "node",
            "lat": 47.4827405,
            "lon": 9.9353327,
            "amenity": "library",
            "contact:email": "buechereikrumbach@vorderwald.at",
            "contact:phone": "+43 676 435 86 92",
            "contact:website": "http://www.krumbach.bvoe.at",
            "name": "Bücherei Krumbach",
            "opening_hours": "We 09:00-11:00,16:00-19:00; Fr 09:00-11:00",
            "wikidata": "Q56237569"
          },
          "geometry": {
            "type": "Point",
            "coordinates": [
              9.9353327,
              47.4827405
            ]
          }
        },
        {
          "type": "Feature",
          "properties": {
            "id": "10188775871",
            "osm_type": "node",
            "lat": 47.421956,
            "lon": 9.7329878,
            "addr:city": "Dornbirn",
            "addr:housenumber": "37",
            "addr:postcode": "6850",
            "addr:street": "Rohrbach",
            "amenity": "library",
            "level": "0",
            "name": "Bücherei Rohrbach",
            "opening_hours": "Tu,Th 13:00-19:00",
            "phone": "+43 664 4761693",
            "source": "local knowledge",
            "website": "http://buecherei-rohrbach.at/",
            "wheelchair": "yes"
          },
          "geometry": {
            "type": "Point",
            "coordinates": [
              9.7329878,
              47.421956
            ]
          }
        },
        {
          "type": "Feature",
          "properties": {
            "id": "10654027101",
            "osm_type": "node",
            "lat": 47.4291375,
            "lon": 9.8940726,
            "amenity": "library",
            "contact:website": "https://egg.bvoe.at",
            "name": "Bücherei Egg"
          },
          "geometry": {
            "type": "Point",
            "coordinates": [
              9.8940726,
              47.4291375
            ]
          }
        },
        {
          "type": "Feature",
          "properties": {
            "id": "11375111560",
            "osm_type": "node",
            "lat": 47.4794776,
            "lon": 9.7654969,
            "amenity": "library",
            "name": "Bibliothek Kennelbach",
            "wikidata": "Q56237467"
          },
          "geometry": {
            "type": "Point",
            "coordinates": [
              9.7654969,
              47.4794776
            ]
          }
        },
        {
          "type": "Feature",
          "properties": {
            "id": "290502018",
            "osm_type": "node",
            "lat": 47.6920631,
            "lon": 10.0373548,
            "addr:city": "Isny im Allgäu",
            "addr:country": "DE",
            "addr:housenumber": "21",
            "addr:postcode": "88316",
            "addr:street": "Fabrikstraße",
            "amenity": "library",
            "name": "Stadtbücherei Isny",
            "operator": "Stadt Isny",
            "source": "www.buecherei-isny.de",
            "wikidata": "Q28662459"
          },
          "geometry": {
            "type": "Point",
            "coordinates": [
              10.0373548,
              47.6920631
            ]
          }
        },
        {
          "type": "Feature",
          "properties": {
            "id": "332015726",
            "osm_type": "node",
            "lat": 47.5120838,
            "lon": 10.2812069,
            "addr:postcode": "87527",
            "amenity": "library",
            "name": "Stadtbücherei",
            "opening_hours": "Mo 15:00-19:00; Tu 15:00-18:00; We 10:00-18:00; Fr 10:00-12:00, 15:00-18:00; Sa 10:00-12:00"
          },
          "geometry": {
            "type": "Point",
            "coordinates": [
              10.2812069,
              47.5120838
            ]
          }
        },
        {
          "type": "Feature",
          "properties": {
            "id": "347570642",
            "osm_type": "node",
            "lat": 47.5594752,
            "lon": 10.2176287,
            "amenity": "library",
            "check_date": "2024-12-18",
            "name": "Literaturhaus Allgäu",
            "wheelchair": "yes",
            "wikidata": "Q28662229"
          },
          "geometry": {
            "type": "Point",
            "coordinates": [
              10.2176287,
              47.5594752
            ]
          }
        },
        {
          "type": "Feature",
          "properties": {
            "id": "349924649",
            "osm_type": "node",
            "lat": 47.6409858,
            "lon": 10.124892,
            "amenity": "library",
            "name": "Bücherei"
          },
          "geometry": {
            "type": "Point",
            "coordinates": [
              10.124892,
              47.6409858
            ]
          }
        },
        {
          "type": "Feature",
          "properties": {
            "id": "703754572",
            "osm_type": "node",
            "lat": 47.4588265,
            "lon": 10.2730714,
            "amenity": "library",
            "name": "Gemeindebücherei",
            "wheelchair": "no"
          },
          "geometry": {
            "type": "Point",
            "coordinates": [
              10.2730714,
              47.4588265
            ]
          }
        },
        {
          "type": "Feature",
          "properties": {
            "id": "8167692605",
            "osm_type": "node",
            "lat": 47.6917525,
            "lon": 10.0395543,
            "addr:city": "Isny im Allgäu",
            "addr:country": "DE",
            "addr:housenumber": "2",
            "addr:postcode": "88316",
            "addr:street": "Marktplatz",
            "amenity": "library",
            "check_date": "2024-09-19",
            "email": "info@buecherei-isny.de",
            "internet_access": "wlan",
            "internet_access:fee": "no",
            "name": "Stadtbücherei",
            "opening_hours": "Tu,We,Fr,Sa 10:00-12:00, Tu,We,Fr 14:00-17:00, Th 09:00-18:00",
            "operator": "Stadt Isny",
            "operator:type": "community",
            "phone": "+49 7562 912161",
            "website": "https://www.buecherei-isny.de"
          },
          "geometry": {
            "type": "Point",
            "coordinates": [
              10.0395543,
              47.6917525
            ]
          }
        },
        {
          "type": "Feature",
          "properties": {
            "id": "11884073909",
            "osm_type": "node",
            "lat": 47.5069362,
            "lon": 10.3711308,
            "amenity": "library",
            "name": "Pfarrbücherei"
          },
          "geometry": {
            "type": "Point",
            "coordinates": [
              10.3711308,
              47.5069362
            ]
          }
        }
      ],
      "children": []
    },
    {
      "bbox": {
        "south": 47.36431175,
        "west": 10.484655499999999,
        "north": 47.694865,
        "east": 11.438358999999998
      },
      "poiCount": 20,
      "leafCount": 20,
      "averagePosition": [
        10.877595515,
        47.555447535
      ],
      "data": [
        {
          "type": "Feature",
          "properties": {
            "id": "4031130693",
            "osm_type": "node",
            "lat": 47.4995768,
            "lon": 10.5164494,
            "amenity": "library",
            "name": "Gemeindebücherei Tannheim",
            "opening_hours": "Mo 16:00-17:00, Th 17:30-19:00",
            "operator": "Gemeinde Tanheim",
            "operator:type": "public",
            "website": "https://tannheim.bvoe.at/unsere-buecherei"
          },
          "geometry": {
            "type": "Point",
            "coordinates": [
              10.5164494,
              47.4995768
            ]
          }
        },
        {
          "type": "Feature",
          "properties": {
            "id": "12148014745",
            "osm_type": "node",
            "lat": 47.6225753,
            "lon": 10.4991775,
            "addr:city": "Nesselwang",
            "addr:housenumber": "2",
            "addr:postcode": "87484",
            "addr:street": "Steinach",
            "amenity": "library",
            "name": "Pfarr- und Gemeindebücherei",
            "ref:isil": "DE-1833",
            "wikidata": "Q28729515"
          },
          "geometry": {
            "type": "Point",
            "coordinates": [
              10.4991775,
              47.6225753
            ]
          }
        },
        {
          "type": "Feature",
          "properties": {
            "id": "526681252",
            "osm_type": "node",
            "lat": 47.5665747,
            "lon": 10.6999561,
            "addr:city": "Füssen",
            "addr:housenumber": "3",
            "addr:postcode": "87629",
            "addr:street": "Lechhalde",
            "amenity": "library",
            "check_date:opening_hours": "2025-06-23",
            "name": "Stadtbibliotek",
            "opening_hours": "Tu,We 13:00-17:00; Th 13:00-19:00; Fr 10:00-17:00",
            "phone": "+49 8362 903144",
            "website": "https://stadt-fuessen.org/stadtbibliothek",
            "wheelchair": "limited",
            "wikidata": "Q28685151"
          },
          "geometry": {
            "type": "Point",
            "coordinates": [
              10.6999561,
              47.5665747
            ]
          }
        },
        {
          "type": "Feature",
          "properties": {
            "id": "1041010708",
            "osm_type": "node",
            "lat": 47.490103,
            "lon": 10.720467,
            "amenity": "library",
            "name": "Bücherei Reutte",
            "wikidata": "Q56237561"
          },
          "geometry": {
            "type": "Point",
            "coordinates": [
              10.720467,
              47.490103
            ]
          }
        },
        {
          "type": "Feature",
          "properties": {
            "id": "1487645583",
            "osm_type": "node",
            "lat": 47.4878727,
            "lon": 10.7321445,
            "amenity": "library",
            "name": "Bücherei Breitenwang",
            "wikidata": "Q56238345"
          },
          "geometry": {
            "type": "Point",
            "coordinates": [
              10.7321445,
              47.4878727
            ]
          }
        },
        {
          "type": "Feature",
          "properties": {
            "id": "1791581214",
            "osm_type": "node",
            "lat": 47.5854436,
            "lon": 10.5583709,
            "addr:city": "Pfronten",
            "addr:housenumber": "1",
            "addr:postcode": "87459",
            "addr:street": "Kirchsteige",
            "amenity": "library",
            "email": "info@buecherei-pfronten.de",
            "internet_access": "terminal",
            "internet_access:fee": "no",
            "name": "Bücherei im Heimathaus",
            "opening_hours": "Mo,We 14:00-17:00; We 08:30-11:30; Th 15:00-18:30; Fr 15:00-17:00",
            "operator": "Gemeinde Pfronten",
            "operator:type": "local_authority",
            "website": "https://buecherei-pfronten.de",
            "wikidata": "Q28729481"
          },
          "geometry": {
            "type": "Point",
            "coordinates": [
              10.5583709,
              47.5854436
            ]
          }
        },
        {
          "type": "Feature",
          "properties": {
            "id": "2703803378",
            "osm_type": "node",
            "lat": 47.6168729,
            "lon": 10.7130542,
            "amenity": "library",
            "name": "Gemeindebücherei - Rieden am Forggensee"
          },
          "geometry": {
            "type": "Point",
            "coordinates": [
              10.7130542,
              47.6168729
            ]
          }
        },
        {
          "type": "Feature",
          "properties": {
            "id": "3086207141",
            "osm_type": "node",
            "lat": 47.473565,
            "lon": 11.0278589,
            "amenity": "library",
            "name": "Bücherei Grainau",
            "opening_hours": "Tu 09:00-11:00,15:00-17:00; Th 16:00-18:00"
          },
          "geometry": {
            "type": "Point",
            "coordinates": [
              11.0278589,
              47.473565
            ]
          }
        },
        {
          "type": "Feature",
          "properties": {
            "id": "7785608728",
            "osm_type": "node",
            "lat": 47.6538462,
            "lon": 10.60515,
            "addr:city": "Seeg",
            "addr:housenumber": "1",
            "addr:postcode": "87637",
            "addr:street": "Kirchplatz",
            "amenity": "library",
            "check_date:opening_hours": "2024-12-30",
            "name": "Pfarr- und Gemeindebücherei Seeg",
            "opening_hours": "Tu 09:00-11:00; Th 15:30-18:30; Sa 10:00-12:00",
            "operator": "Pfarreiengemeinschaft Seeg",
            "phone": "+49 8364 983035",
            "wikimedia_commons": "File:Pfarr- und Gemeindebücherei Seeg.jpg"
          },
          "geometry": {
            "type": "Point",
            "coordinates": [
              10.60515,
              47.6538462
            ]
          }
        },
        {
          "type": "Feature",
          "properties": {
            "id": "7803795116",
            "osm_type": "node",
            "lat": 47.5775042,
            "lon": 10.7377084,
            "addr:city": "Schwangau",
            "addr:housenumber": "5",
            "addr:postcode": "87645",
            "addr:street": "Münchener Straße",
            "amenity": "library",
            "name": "Gemeindebücherei Schwangau",
            "operator": "Gemeinde Schwangau",
            "operator:type": "public"
          },
          "geometry": {
            "type": "Point",
            "coordinates": [
              10.7377084,
              47.5775042
            ]
          }
        },
        {
          "type": "Feature",
          "properties": {
            "id": "9167752962",
            "osm_type": "node",
            "lat": 47.6909062,
            "lon": 10.9948102,
            "addr:city": "Bad Bayersoien",
            "addr:housenumber": "44",
            "addr:postcode": "82435",
            "addr:street": "Dorfstraße",
            "amenity": "library",
            "name": "Gemeindebücherei",
            "opening_hours": "Mo, Th 17:00-18:00; PH off",
            "operator": "Gemeinde",
            "website": "https://www.gemeinde-bad-bayersoien.de/einrichtungen/buecherei"
          },
          "geometry": {
            "type": "Point",
            "coordinates": [
              10.9948102,
              47.6909062
            ]
          }
        },
        {
          "type": "Feature",
          "properties": {
            "id": "10079790444",
            "osm_type": "node",
            "lat": 47.546584,
            "lon": 10.6346045,
            "addr:city": "Vils",
            "addr:housenumber": "18",
            "addr:postcode": "6682",
            "addr:street": "Josef-Ahorn-Weg",
            "amenity": "library",
            "name": "Öffentliche Bücherei Vils",
            "website": "https://vils.bvoe.at/",
            "wikidata": "Q56238660"
          },
          "geometry": {
            "type": "Point",
            "coordinates": [
              10.6346045,
              47.546584
            ]
          }
        },
        {
          "type": "Feature",
          "properties": {
            "id": "11065422409",
            "osm_type": "node",
            "lat": 47.6406569,
            "lon": 10.8294122,
            "addr:city": "Halblech",
            "addr:housenumber": "11",
            "addr:postcode": "87642",
            "addr:street": "Reichenstraße",
            "amenity": "library",
            "name": "Gemeindebücherei",
            "wikidata": "Q28729546"
          },
          "geometry": {
            "type": "Point",
            "coordinates": [
              10.8294122,
              47.6406569
            ]
          }
        },
        {
          "type": "Feature",
          "properties": {
            "id": "484196840",
            "osm_type": "node",
            "lat": 47.5962105,
            "lon": 11.0676758,
            "addr:city": "Oberammergau",
            "addr:country": "DE",
            "addr:housenumber": "6",
            "addr:postcode": "82487",
            "addr:street": "Schulweg",
            "amenity": "library",
            "email": "buecherei@oberammergau.de",
            "fax": "+49 8822 32233",
            "name": "Gemeindebücherei",
            "opening_hours": "Mo 16:00-19:00; We 15:00-18:00; Fr 16:00-19:00",
            "phone": "+49 8822 922 66 52",
            "website": "https://www.gemeinde-oberammergau.de/de/gemeindliche-einrichtungen/buecherei",
            "wheelchair": "no",
            "wikidata": "Q28729484"
          },
          "geometry": {
            "type": "Point",
            "coordinates": [
              11.0676758,
              47.5962105
            ]
          }
        },
        {
          "type": "Feature",
          "properties": {
            "id": "692854057",
            "osm_type": "node",
            "lat": 47.4929032,
            "lon": 11.1121438,
            "amenity": "library",
            "check_date": "2024-09-21",
            "name": "Partenkirchener Bücherei",
            "opening_hours": "Mo 16:30-19:00; Tu 14:00-19:00; We 17:30-19:00; Th 09:30-11:30,17:30-19:00; Fr 14:00-18:00; Sa 09:30-11:30"
          },
          "geometry": {
            "type": "Point",
            "coordinates": [
              11.1121438,
              47.4929032
            ]
          }
        },
        {
          "type": "Feature",
          "properties": {
            "id": "4709737432",
            "osm_type": "node",
            "lat": 47.5030151,
            "lon": 11.2788049,
            "amenity": "library",
            "level": "1",
            "name": "Freiwillige Feuerwehr Krün"
          },
          "geometry": {
            "type": "Point",
            "coordinates": [
              11.2788049,
              47.5030151
            ]
          }
        },
        {
          "type": "Feature",
          "properties": {
            "id": "5131455271",
            "osm_type": "node",
            "lat": 47.6776914,
            "lon": 11.1989684,
            "amenity": "library",
            "name": "Öffentliche Bibliothek",
            "opening_hours": "Mo,Tu,Th 14:00-18:00; We 09:00-12:00; Fr 09:00-17:00",
            "wheelchair": "yes"
          },
          "geometry": {
            "type": "Point",
            "coordinates": [
              11.1989684,
              47.6776914
            ]
          }
        },
        {
          "type": "Feature",
          "properties": {
            "id": "5983092741",
            "osm_type": "node",
            "lat": 47.4969816,
            "lon": 11.099913,
            "addr:city": "Garmisch-Partenkirchen",
            "addr:country": "DE",
            "addr:housenumber": "39",
            "addr:postcode": "82467",
            "addr:street": "Hindenburgstraße",
            "amenity": "library",
            "email": "service@buecherei-hindenburgstrasse.de",
            "name": "Bücherei Hindenburgstraße",
            "opening_hours": "Th 14:00-17:00; Tu 16:00-18:00; Fr 17:00-19:00; Sa 16:30-18:00; Su 11:00-12:30",
            "operator": "Evang.-Luth. Kirchengemeinde Garmisch-Partenkirchen",
            "phone": "+49 8821 952315",
            "website": "https://www.gapa-evangelisch.de/buecherei"
          },
          "geometry": {
            "type": "Point",
            "coordinates": [
              11.099913,
              47.4969816
            ]
          }
        },
        {
          "type": "Feature",
          "properties": {
            "id": "9978408569",
            "osm_type": "node",
            "lat": 47.4442275,
            "lon": 11.2614043,
            "amenity": "library",
            "name": "Gemeindebücherei",
            "opening_hours": "Tu-Th 16:30-18:30, Tu 09:30-11:30, Fr 16:30-19:30",
            "panoramax": "9b7d0ec1-fced-46c7-a6ab-0f8d76ebee98",
            "wikimedia_commons": "File:20240911 xl 1318-Gemeindebücherei im Bürgerhaus Mittenwald.jpg"
          },
          "geometry": {
            "type": "Point",
            "coordinates": [
              11.2614043,
              47.4442275
            ]
          }
        },
        {
          "type": "Feature",
          "properties": {
            "id": "12952140885",
            "osm_type": "node",
            "lat": 47.4458399,
            "lon": 11.2638363,
            "addr:housenumber": "31",
            "addr:street": "Partenkirchner Straße",
            "amenity": "library",
            "check_date": "2025-06-25",
            "name": "Evangelische Jugend- und Gemeindebücherei",
            "opening_hours": "Tu,Th 16:00-18:00; Su 11:00-12:00"
          },
          "geometry": {
            "type": "Point",
            "coordinates": [
              11.2638363,
              47.4458399
            ]
          }
        }
      ],
      "children": []
    }
  ]
}