{
  "bbox": {
    "south": 46.372652,
    "west": 15.253173,
    "north": 47.033758500000005,
    "east": 17.16058
  },
  "poiCount": 103,
  "leafCount": 0,
  "averagePosition": [
    15.978529195145631,
    46.77691398252428
  ],
  "data": [],
  "children": [
    {
      "bbox": {
        "south": 46.372652,
        "west": 15.253173,
        "north": 46.70320525,
        "east": 16.2068765
      },
      "poiCount": 17,
      "leafCount": 17,
      "averagePosition": [
        15.80079393529412,
        46.57010135294118
      ],
      "data": [
        {
          "type": "Feature",
          "properties": {
            "id": "2124143715",
            "osm_type": "node",
            "lat": 46.5387117,
            "lon": 15.5101956,
            "amenity": "library",
            "name": "Knjižnica Janka Glazerja Ruše"
          },
          "geometry": {
            "type": "Point",
            "coordinates": [
              15.5101956,
              46.5387117
            ]
          }
        },
        {
          "type": "Feature",
          "properties": {
            "id": "4555788349",
            "osm_type": "node",
            "lat": 46.6770912,
            "lon": 15.4018358,
            "addr:city": "Arnfels",
            "addr:country": "AT",
            "addr:housenumber": "33",
            "addr:postcode": "8454",
            "addr:street": "Hauptplatz",
            "amenity": "library",
            "description": "Öffentliche Bibliothek"
          },
          "geometry": {
            "type": "Point",
            "coordinates": [
              15.4018358,
              46.6770912
            ]
          }
        },
        {
          "type": "Feature",
          "properties": {
            "id": "267497199",
            "osm_type": "node",
            "lat": 46.575253,
            "lon": 15.6188214,
            "amenity": "library"
          },
          "geometry": {
            "type": "Point",
            "coordinates": [
              15.6188214,
              46.575253
            ]
          }
        },
        {
          "type": "Feature",
          "properties": {
            "id": "268490944",
            "osm_type": "node",
            "lat": 46.5759216,
            "lon": 15.8309905,
            "amenity": "library",
            "name": "Kjiznica Lenart"
          },
          "geometry": {
            "type": "Point",
            "coordinates": [
              15.8309905,
              46.5759216
            ]
          }
        },
        {
          "type": "Feature",
          "properties": {
            "id": "1710407427",
            "osm_type": "node",
            "lat": 46.5583357,
            "lon": 15.6454237,
            "addr:housenumber": "2",
            "addr:street": "Rotovški trg",
            "amenity": "library",
            "email": "tajnistvo@mb.sik.si",
            "name": "Mariborska knjižnica",
            "phone": "+386 2 23 52 100",
            "website": "https://www.mb.sik.si/",
            "wheelchair": "yes"
          },
          "geometry": {
            "type": "Point",
            "coordinates": [
              15.6454237,
              46.5583357
            ]
          }
        },
        {
          "type": "Feature",
          "properties": {
            "id": "2468012375",
            "osm_type": "node",
            "lat": 46.5577316,
            "lon": 15.6295049,
            "addr:housenumber": "1",
            "addr:street": "Obrežna ulica",
            "amenity": "library",
            "email": "enotas@mb.sik.si",
            "name": "Knjižnica Studenci",
            "opening_hours": "Mo,We 12:00-18:00",
            "operator": "Mariborska knjižnica",
            "phone": "+386 2 421 3782",
            "website": "https://www.mb.sik.si/knjiznica-studenci.html"
          },
          "geometry": {
            "type": "Point",
            "coordinates": [
              15.6295049,
              46.5577316
            ]
          }
        },
        {
          "type": "Feature",
          "properties": {
            "id": "2779361047",
            "osm_type": "node",
            "lat": 46.3929186,
            "lon": 15.5730866,
            "addr:city": "Slovenska Bistrica",
            "addr:housenumber": "16",
            "addr:postcode": "2310",
            "addr:street": "Trg svobode",
            "amenity": "library",
            "name": "Knjižnica Josipa Vošnjaka",
            "phone": "02 805 51 00",
            "website": "https://www.knjiznica-slovenskabistrica.si/",
            "wheelchair": "yes",
            "wikidata": "Q15727332",
            "wikipedia": "sl:Knjižnica Josipa Vošnjaka"
          },
          "geometry": {
            "type": "Point",
            "coordinates": [
              15.5730866,
              46.3929186
            ]
          }
        },
        {
          "type": "Feature",
          "properties": {
            "id": "3148743430",
            "osm_type": "node",
            "lat": 46.4198293,
            "lon": 15.8662867,
            "addr:city": "Ptuj",
            "addr:housenumber": "33",
            "addr:postcode": "2250",
            "addr:street": "Prešernova ulica",
            "amenity": "library",
            "email": "kip@knjiznica-ptuj.si",
            "internet_access": "wlan",
            "internet_access:fee": "customers",
            "internet_access:ssid": "Eduroam, Libroam",
            "name": "Knjižnica Ivana Potrča Ptuj",
            "phone": "+386 2 771 48 00",
            "website": "https://www.knjiznica-ptuj.si/en/",
            "wheelchair": "yes",
            "wikidata": "Q49129694"
          },
          "geometry": {
            "type": "Point",
            "coordinates": [
              15.8662867,
              46.4198293
            ]
          }
        },
        {
          "type": "Feature",
          "properties": {
            "id": "3383030929",
            "osm_type": "node",
            "lat": 46.5732874,
            "lon": 15.6159029,
            "amenity": "library",
            "name": "Knjižnica Kamnica"
          },
          "geometry": {
            "type": "Point",
            "coordinates": [
              15.6159029,
              46.5732874
            ]
          }
        },
        {
          "type": "Feature",
          "properties": {
            "id": "3951611499",
            "osm_type": "node",
            "lat": 46.5536461,
            "lon": 15.6453276,
            "addr:city": "Maribor",
            "addr:housenumber": "3",
            "addr:postcode": "2000",
            "addr:street": "Dvořakova ulica",
            "amenity": "library",
            "email": "enota.kt@mb.sik.si",
            "internet_access": "wlan",
            "name": "Knjižnica Tabor",
            "opening_hours": "Mo-Fr 9:00-19:00; Sa 8:00-13:00",
            "operator": "Mariborska knjižnica",
            "phone": "+386 2 330 4720",
            "website": "https://www.mb.sik.si/knjiznica-tabor.html"
          },
          "geometry": {
            "type": "Point",
            "coordinates": [
              15.6453276,
              46.5536461
            ]
          }
        },
        {
          "type": "Feature",
          "properties": {
            "id": "4516641398",
            "osm_type": "node",
            "lat": 46.6860431,
            "lon": 15.994835,
            "addr:city": "Bad Radkersburg",
            "addr:housenumber": "9",
            "addr:postcode": "8490",
            "addr:street": "Neubaustraße",
            "amenity": "library",
            "name": "Bücherei Bad Radkersburg",
            "website": "http://buecherei-radkersburg.bvoe.at/"
          },
          "geometry": {
            "type": "Point",
            "coordinates": [
              15.994835,
              46.6860431
            ]
          }
        },
        {
          "type": "Feature",
          "properties": {
            "id": "5695227110",
            "osm_type": "node",
            "lat": 46.5596054,
            "lon": 15.6455491,
            "addr:city": "Maribor",
            "addr:housenumber": "20",
            "addr:postcode": "2000",
            "addr:street": "Slomškov Trg",
            "amenity": "library",
            "email": "knjiznica-MB@teof.uni-lj.si",
            "name": "Teološka knjižnica Maribor",
            "opening_hours:signed": "no",
            "operator": "Univerza v Ljubljani",
            "phone": "+386 5 908 0146",
            "website": "http://www.teof.uni-lj.si/knjiznici/teoloska-knjiznica-maribor"
          },
          "geometry": {
            "type": "Point",
            "coordinates": [
              15.6455491,
              46.5596054
            ]
          }
        },
        {
          "type": "Feature",
          "properties": {
            "id": "11500874532",
            "osm_type": "node",
            "lat": 46.5245322,
            "lon": 15.934969,
            "addr:city": "Vitomarci",
            "addr:housenumber": "48A",
            "addr:postcode": "2255",
            "addr:street": "Vitomarci",
            "amenity": "library",
            "name": "Knjižnica Vitomarci",
            "ref:gurs:hs_mid": "14340238",
            "source:addr": "GURS"
          },
          "geometry": {
            "type": "Point",
            "coordinates": [
              15.934969,
              46.5245322
            ]
          }
        },
        {
          "type": "Feature",
          "properties": {
            "id": "3354454122",
            "osm_type": "node",
            "lat": 46.6580138,
            "lon": 16.1696245,
            "amenity": "library",
            "name": "Kleklova knjigarna"
          },
          "geometry": {
            "type": "Point",
            "coordinates": [
              16.1696245,
              46.6580138
            ]
          }
        },
        {
          "type": "Feature",
          "properties": {
            "id": "5810623264",
            "osm_type": "node",
            "lat": 46.6626273,
            "lon": 16.1603633,
            "amenity": "library",
            "name:hu": "Múzeumi könyvtár"
          },
          "geometry": {
            "type": "Point",
            "coordinates": [
              16.1603633,
              46.6626273
            ]
          }
        },
        {
          "type": "Feature",
          "properties": {
            "id": "7884261847",
            "osm_type": "node",
            "lat": 46.6596714,
            "lon": 16.1751931,
            "amenity": "library",
            "name": "Knjigarna in papirnica",
            "opening_hours": "Mo-Fr 08:00-20:00; Sa 08:00-17:00",
            "shop": "stationery"
          },
          "geometry": {
            "type": "Point",
            "coordinates": [
              16.1751931,
              46.6596714
            ]
          }
        },
        {
          "type": "Feature",
          "properties": {
            "id": "11427352622",
            "osm_type": "node",
            "lat": 46.5185036,
            "lon": 16.1955872,
            "amenity": "library",
            "name": "Knjižnica"
          },
          "geometry": {
            "type": "Point",
            "coordinates": [
              16.1955872,
              46.5185036
            ]
          }
        }
      ],
      "children": []
    },
    {
      "bbox": {
        "south": 46.372652,
        "west": 16.2068765,
        "north": 46.70320525,
        "east": 17.16058
      },
      "poiCount": 16,
      "leafCount": 16,
      "averagePosition": [
        16.68169088125,
        46.54833225
      ],
      "data": [
        {
          "type": "Feature",
          "properties": {
            "id": "3364045713",
            "osm_type": "node",
            "lat": 46.5493125,
            "lon": 16.3608934,
            "amenity": "library"
          },
          "geometry": {
            "type": "Point",
            "coordinates": [
              16.3608934,
              46.5493125
            ]
          }
        },
        {
          "type": "Feature",
          "properties": {
            "id": "4345903941",
            "osm_type": "node",
            "lat": 46.6514013,
            "lon": 16.3523194,
            "amenity": "library"
          },
          "geometry": {
            "type": "Point",
            "coordinates": [
              16.3523194,
              46.6514013
            ]
          }
        },
        {
          "type": "Feature",
          "properties": {
            "id": "6289303504",
            "osm_type": "node",
            "lat": 46.6199864,
            "lon": 16.4059275,
            "amenity": "library",
            "name": "Knjižnica Genterovci"
          },
          "geometry": {
            "type": "Point",
            "coordinates": [
              16.4059275,
              46.6199864
            ]
          }
        },
        {
          "type": "Feature",
          "properties": {
            "id": "11889189687",
            "osm_type": "node",
            "lat": 46.6077853,
            "lon": 16.2342685,
            "amenity": "library",
            "shop": "stationery"
          },
          "geometry": {
            "type": "Point",
            "coordinates": [
              16.2342685,
              46.6077853
            ]
          }
        },
        {
          "type": "Feature",
          "properties": {
            "id": "2451973761",
            "osm_type": "node",
            "lat": 46.4521748,
            "lon": 16.9989314,
            "amenity": "library",
            "name": "Nagykanizsa Megyei Jogú Város Kórháza Orvosi Könyvtár"
          },
          "geometry": {
            "type": "Point",
            "coordinates": [
              16.9989314,
              46.4521748
            ]
          }
        },
        {
          "type": "Feature",
          "properties": {
            "id": "3324623984",
            "osm_type": "node",
            "lat": 46.5917657,
            "lon": 16.6464389,
            "amenity": "library",
            "name": "Könyvtár és művelődési ház",
            "source": "turistautak.hu",
            "url": "http://turistautak.hu/poi.php?id=99878"
          },
          "geometry": {
            "type": "Point",
            "coordinates": [
              16.6464389,
              46.5917657
            ]
          }
        },
        {
          "type": "Feature",
          "properties": {
            "id": "3768577315",
            "osm_type": "node",
            "lat": 46.501082,
            "lon": 16.5770992,
            "amenity": "library",
            "name": "Könyvtár és Teleház"
          },
          "geometry": {
            "type": "Point",
            "coordinates": [
              16.5770992,
              46.501082
            ]
          }
        },
        {
          "type": "Feature",
          "properties": {
            "id": "5691865796",
            "osm_type": "node",
            "lat": 46.6388864,
            "lon": 16.7354137,
            "addr:city": "Gutorfölde",
            "addr:housenumber": "57",
            "addr:postcode": "8951",
            "addr:street": "Kossuth Lajos utca",
            "amenity": "library"
          },
          "geometry": {
            "type": "Point",
            "coordinates": [
              16.7354137,
              46.6388864
            ]
          }
        },
        {
          "type": "Feature",
          "properties": {
            "id": "5715916325",
            "osm_type": "node",
            "lat": 46.4329413,
            "lon": 16.8975493,
            "amenity": "library"
          },
          "geometry": {
            "type": "Point",
            "coordinates": [
              16.8975493,
              46.4329413
            ]
          }
        },
        {
          "type": "Feature",
          "properties": {
            "id": "6002609619",
            "osm_type": "node",
            "lat": 46.4504924,
            "lon": 16.8046271,
            "amenity": "library",
            "name": "Könyvtár"
          },
          "geometry": {
            "type": "Point",
            "coordinates": [
              16.8046271,
              46.4504924
            ]
          }
        },
        {
          "type": "Feature",
          "properties": {
            "id": "6960017895",
            "osm_type": "node",
            "lat": 46.434481,
            "lon": 16.7238073,
            "addr:city": "Letenye",
            "addr:housenumber": "15",
            "addr:postcode": "8868",
            "addr:street": "Szabadság tér",
            "amenity": "library",
            "architect": "Nagy Ervin",
            "architect:wikipedia": "hu:Nagy Ervin (építész)",
            "image": "https://drive.google.com/drive/folders/14yW75qiRkMtTJfabSXz_24Pwyk4FCCSZ?usp=sharing",
            "name": "Városi Könyvtár",
            "name:de": "Stadtbibliothek Letenye",
            "start_date": "1993"
          },
          "geometry": {
            "type": "Point",
            "coordinates": [
              16.7238073,
              46.434481
            ]
          }
        },
        {
          "type": "Feature",
          "properties": {
            "id": "8311592543",
            "osm_type": "node",
            "lat": 46.5077052,
            "lon": 16.7816292,
            "amenity": "library",
            "name": "Könyvtár"
          },
          "geometry": {
            "type": "Point",
            "coordinates": [
              16.7816292,
              46.5077052
            ]
          }
        },
        {
          "type": "Feature",
          "properties": {
            "id": "8325781824",
            "osm_type": "node",
            "lat": 46.6446897,
            "lon": 16.6877446,
            "amenity": "library",
            "name": "Könyvtár"
          },
          "geometry": {
            "type": "Point",
            "coordinates": [
              16.6877446,
              46.6446897
            ]
          }
        },
        {
          "type": "Feature",
          "properties": {
            "id": "8342994192",
            "osm_type": "node",
            "lat": 46.6476964,
            "lon": 16.6411248,
            "amenity": "library",
            "name": "Könyvtár"
          },
          "geometry": {
            "type": "Point",
            "coordinates": [
              16.6411248,
              46.6476964
            ]
          }
        },
        {
          "type": "Feature",
          "properties": {
            "id": "10719822013",
            "osm_type": "node",
            "lat": 46.3743655,
            "lon": 16.9052935,
            "amenity": "library",
            "name": "Községi és iskolai könyvtár"
          },
          "geometry": {
            "type": "Point",
            "coordinates": [
              16.9052935,
              46.3743655
            ]
          }
        },
        {
          "type": "Feature",
          "properties": {
            "id": "11161607909",
            "osm_type": "node",
            "lat": 46.6685501,
            "lon": 17.1539863,
            "addr:city": "Zalavár",
            "addr:housenumber": "61",
            "addr:postcode": "8392",
            "addr:street": "Dózsa György utca",
            "amenity": "library",
            "fixme": "Melyik intézmény az épület melyik részében van?"
          },
          "geometry": {
            "type": "Point",
            "coordinates": [
              17.1539863,
              46.6685501
            ]
          }
        }
      ],
      "children": []
    },
    {
      "bbox": {
        "south": 46.70320525,
        "west": 15.253173,
        "north": 47.033758500000005,
        "east": 16.2068765
      },
      "poiCount": 51,
      "leafCount": 0,
      "averagePosition": [
        15.57392302352941,
        46.8800361627451
      ],
      "data": [],
      "children": [
        {
          "bbox": {
            "south": 46.70320525,
            "west": 15.253173,
            "north": 46.868481875,
            "east": 15.73002475
          },
          "poiCount": 14,
          "leafCount": 14,
          "averagePosition": [
            15.44878977142857,
            46.75714091428572
          ],
          "data": [
            {
              "type": "Feature",
              "properties": {
                "id": "418744930",
                "osm_type": "node",
                "lat": 46.8553089,
                "lon": 15.5301389,
                "addr:city": "Sankt Margarethen bei Lebring",
                "addr:housenumber": "24",
                "addr:postcode": "8403",
                "addr:street": "Bahnhofstraße",
                "amenity": "library",
                "description": "Öffentliche Bücherei Lebring-St. Margarethen"
              },
              "geometry": {
                "type": "Point",
                "coordinates": [
                  15.5301389,
                  46.8553089
                ]
              }
            },
            {
              "type": "Feature",
              "properties": {
                "id": "4555788350",
                "osm_type": "node",
                "lat": 46.7034518,
                "lon": 15.3992151,
                "addr:city": "Sankt Johann im Saggautal",
                "addr:country": "AT",
                "addr:housenumber": "68",
                "addr:place": "St. Johann im Saggautal",
                "addr:postcode": "8453",
                "amenity": "library",
                "description": "Öffentliche Bibliothek der Gemeinde"
              },
              "geometry": {
                "type": "Point",
                "coordinates": [
                  15.3992151,
                  46.7034518
                ]
              }
            },
            {
              "type": "Feature",
              "properties": {
                "id": "4555788351",
                "osm_type": "node",
                "lat": 46.7358268,
                "lon": 15.440526,
                "addr:housenumber": "9",
                "addr:place": "Großklein",
                "addr:postcode": "8452",
                "amenity": "library",
                "description": "Öffentliche Bibliothek"
              },
              "geometry": {
                "type": "Point",
                "coordinates": [
                  15.440526,
                  46.7358268
                ]
              }
            },
            {
              "type": "Feature",
              "properties": {
                "id": "4555812126",
                "osm_type": "node",
                "lat": 46.7517726,
                "lon": 15.3676625,
                "addr:city": "Gleinstätten",
                "addr:housenumber": "1",
                "addr:place": "Gleinstätten",
                "addr:postcode": "8443",
                "amenity": "library",
                "name": "Öffentliche Bibliothek"
              },
              "geometry": {
                "type": "Point",
                "coordinates": [
                  15.3676625,
                  46.7517726
                ]
              }
            },
            {
              "type": "Feature",
              "properties": {
                "id": "4555812127",
                "osm_type": "node",
                "lat": 46.728054,
                "lon": 15.2994706,
                "addr:hamlet": "Brunn",
                "addr:housenumber": "12",
                "addr:postcode": "8544",
                "addr:street": "Schulstraße",
                "amenity": "library",
                "description": "Öffentliche Bücherei und Schulbücherei der Marktgemeinde Pölfing-Brunn",
                "name": "Öffentliche Bücherei"
              },
              "geometry": {
                "type": "Point",
                "coordinates": [
                  15.2994706,
                  46.728054
                ]
              }
            },
            {
              "type": "Feature",
              "properties": {
                "id": "4555812128",
                "osm_type": "node",
                "lat": 46.7183383,
                "lon": 15.2704692,
                "addr:city": "Wies",
                "addr:hamlet": "Wies",
                "addr:housenumber": "3",
                "addr:postcode": "8551",
                "addr:street": "Oberer Markt",
                "amenity": "library",
                "description": "Öffentliche Bibliothek und Schulbibliothek der Pflichtschulen",
                "name": "Öffentliche Bücherei"
              },
              "geometry": {
                "type": "Point",
                "coordinates": [
                  15.2704692,
                  46.7183383
                ]
              }
            },
            {
              "type": "Feature",
              "properties": {
                "id": "4563230685",
                "osm_type": "node",
                "lat": 46.8308832,
                "lon": 15.384814,
                "addr:housenumber": "2",
                "addr:place": "Wettmannstätten",
                "addr:postcode": "8521",
                "amenity": "library",
                "description": "Öffentliche Bibliothek"
              },
              "geometry": {
                "type": "Point",
                "coordinates": [
                  15.384814,
                  46.8308832
                ]
              }
            },
            {
              "type": "Feature",
              "properties": {
                "id": "4563230686",
                "osm_type": "node",
                "lat": 46.7564931,
                "lon": 15.2959301,
                "addr:housenumber": "24",
                "addr:place": "Sulb",
                "addr:postcode": "8543",
                "amenity": "library",
                "name": "Öffentliche Bücherei"
              },
              "geometry": {
                "type": "Point",
                "coordinates": [
                  15.2959301,
                  46.7564931
                ]
              }
            },
            {
              "type": "Feature",
              "properties": {
                "id": "4563230687",
                "osm_type": "node",
                "lat": 46.8259689,
                "lon": 15.2540911,
                "addr:city": "Laßnitz",
                "addr:housenumber": "7",
                "addr:postcode": "8523",
                "addr:street": "Hinterleitenstraße",
                "amenity": "library",
                "name": "Öffentliche Bibliothek"
              },
              "geometry": {
                "type": "Point",
                "coordinates": [
                  15.2540911,
                  46.8259689
                ]
              }
            },
            {
              "type": "Feature",
              "properties": {
                "id": "291010034",
                "osm_type": "node",
                "lat": 46.7821764,
                "lon": 15.5376742,
                "amenity": "library",
                "created_by": "Potlatch 0.10c",
                "name": "Bibliothek + Ludothek der Stadt Leibnitz",
                "opening_hours": "Mo 15:00-18:00; Tu 09:00-19:00; We off; Th 09:00-13:00; Fr 09:00-18:00",
                "wheelchair": "yes"
              },
              "geometry": {
                "type": "Point",
                "coordinates": [
                  15.5376742,
                  46.7821764
                ]
              }
            },
            {
              "type": "Feature",
              "properties": {
                "id": "1722391452",
                "osm_type": "node",
                "lat": 46.7110773,
                "lon": 15.6965378,
                "addr:city": "Lichendorf",
                "addr:country": "AT",
                "addr:housenumber": "3",
                "addr:postcode": "8473",
                "addr:street": "Parkweg",
                "amenity": "library",
                "description": "Gemeindebücherei Murfeld",
                "name": "Bibliothek Lichendorf",
                "wheelchair": "no"
              },
              "geometry": {
                "type": "Point",
                "coordinates": [
                  15.6965378,
                  46.7110773
                ]
              }
            },
            {
              "type": "Feature",
              "properties": {
                "id": "4555759819",
                "osm_type": "node",
                "lat": 46.7212261,
                "lon": 15.5528131,
                "addr:hamlet": "Gamlitz",
                "addr:housenumber": "1",
                "addr:postcode": "8462",
                "addr:street": "Kirchengasse",
                "amenity": "library",
                "description": "Öffentliche Bibliothek"
              },
              "geometry": {
                "type": "Point",
                "coordinates": [
                  15.5528131,
                  46.7212261
                ]
              }
            },
            {
              "type": "Feature",
              "properties": {
                "id": "4555759820",
                "osm_type": "node",
                "lat": 46.7498905,
                "lon": 15.6253988,
                "addr:city": "Sankt Veit in der Südsteiermark",
                "addr:country": "AT",
                "addr:hamlet": "Sankt Veit am Vogau",
                "addr:housenumber": "11",
                "addr:postcode": "8423",
                "addr:street": "Schulstraße",
                "addr:suburb": "Sankt Veit am Vogau",
                "amenity": "library",
                "at_bev:addr_date": "2018-04-02",
                "description": "Öffentliche Bibliothek u. Spielothek",
                "note": "Volksschule"
              },
              "geometry": {
                "type": "Point",
                "coordinates": [
                  15.6253988,
                  46.7498905
                ]
              }
            },
            {
              "type": "Feature",
              "properties": {
                "id": "4555759821",
                "osm_type": "node",
                "lat": 46.7295049,
                "lon": 15.6283154,
                "addr:hamlet": "Straß in Steiermark",
                "addr:housenumber": "2b",
                "addr:postcode": "8472",
                "addr:street": "Attemsallee",
                "amenity": "library",
                "description": "Gemeinde- u. Schulbibliothek"
              },
              "geometry": {
                "type": "Point",
                "coordinates": [
                  15.6283154,
                  46.7295049
                ]
              }
            }
          ],
          "children": []
        },
        {
          "bbox": {
            "south": 46.70320525,
            "west": 15.73002475,
            "north": 46.868481875,
            "east": 16.2068765
          },
          "poiCount": 7,
          "leafCount": 7,
          "averagePosition": [
            15.845645814285716,
            46.80832191428571
          ],
          "data": [
            {
              "type": "Feature",
              "properties": {
                "id": "2941136203",
                "osm_type": "node",
                "lat": 46.7077721,
                "lon": 15.7743529,
                "addr:city": "Mureck",
                "addr:housenumber": "29",
                "addr:postcode": "8480",
                "addr:street": "Hauptplatz",
                "amenity": "library",
                "name": "Stadtbücherei",
                "opening_hours": "Mo,We 16:00-18:00",
                "wikidata": "Q55468901"
              },
              "geometry": {
                "type": "Point",
                "coordinates": [
                  15.7743529,
                  46.7077721
                ]
              }
            },
            {
              "type": "Feature",
              "properties": {
                "id": "4561611640",
                "osm_type": "node",
                "lat": 46.7999369,
                "lon": 15.757561,
                "addr:housenumber": "67",
                "addr:place": "Siedlung",
                "addr:postcode": "8093",
                "amenity": "library",
                "description": "Öffentliche Bücherei S. Peter am Ottersbach"
              },
              "geometry": {
                "type": "Point",
                "coordinates": [
                  15.757561,
                  46.7999369
                ]
              }
            },
            {
              "type": "Feature",
              "properties": {
                "id": "4561611641",
                "osm_type": "node",
                "lat": 46.8062451,
                "lon": 15.8713784,
                "addr:housenumber": "60",
                "addr:place": "Straden",
                "addr:postcode": "8345",
                "amenity": "library",
                "name": "BIM - Bücherreich im Mesnerhaus Straden",
                "opening_hours": "Tu 09:00-12:00; We 16:00-19:00; Su 09:00-12:00"
              },
              "geometry": {
                "type": "Point",
                "coordinates": [
                  15.8713784,
                  46.8062451
                ]
              }
            },
            {
              "type": "Feature",
              "properties": {
                "id": "4561612603",
                "osm_type": "node",
                "lat": 46.8538575,
                "lon": 15.7380853,
                "addr:housenumber": "38",
                "addr:place": "Jagerberg",
                "addr:postcode": "8091",
                "amenity": "library",
                "description": "Öffentliche Bibliothek der Pfarre, Gemeinde und Kolpingfamilie Jagerberg"
              },
              "geometry": {
                "type": "Point",
                "coordinates": [
                  15.7380853,
                  46.8538575
                ]
              }
            },
            {
              "type": "Feature",
              "properties": {
                "id": "4561612919",
                "osm_type": "node",
                "lat": 46.7869024,
                "lon": 15.9458292,
                "addr:housenumber": "55",
                "addr:place": "Tieschen",
                "addr:postcode": "8355",
                "amenity": "library",
                "description": "Öffentliche Bibliothek Tieschen"
              },
              "geometry": {
                "type": "Point",
                "coordinates": [
                  15.9458292,
                  46.7869024
                ]
              }
            },
            {
              "type": "Feature",
              "properties": {
                "id": "4561615380",
                "osm_type": "node",
                "lat": 46.8388485,
                "lon": 15.9763888,
                "addr:city": "Plesch",
                "addr:housenumber": "16",
                "addr:postcode": "8354",
                "addr:street": "Hauptstraße",
                "amenity": "library",
                "description": "Öffentliche Bibliothek u. Zentrale Schulbibliothek der HS",
                "note": "FIXME: Is this place called Plesch or Sankt Anna?"
              },
              "geometry": {
                "type": "Point",
                "coordinates": [
                  15.9763888,
                  46.8388485
                ]
              }
            },
            {
              "type": "Feature",
              "properties": {
                "id": "4561752228",
                "osm_type": "node",
                "lat": 46.8646909,
                "lon": 15.8559251,
                "addr:housenumber": "100",
                "addr:place": "Poppendorf",
                "addr:postcode": "8342",
                "amenity": "library",
                "description": "Öffentliche Bücherei Poppendorf"
              },
              "geometry": {
                "type": "Point",
                "coordinates": [
                  15.8559251,
                  46.8646909
                ]
              }
            }
          ],
          "children": []
        },
        {
          "bbox": {
            "south": 46.868481875,
            "west": 15.253173,
            "north": 47.033758500000005,
            "east": 15.73002475
          },
          "poiCount": 23,
          "leafCount": 23,
          "averagePosition": [
            15.471720052173913,
            46.96168807826087
          ],
          "data": [
            {
              "type": "Feature",
              "properties": {
                "id": "4563250065",
                "osm_type": "node",
                "lat": 46.8698505,
                "lon": 15.4490601,
                "addr:housenumber": "1",
                "addr:place": "Hengsberg",
                "addr:postcode": "8411",
                "amenity": "library",
                "description": "Öffentliche Bücherei"
              },
              "geometry": {
                "type": "Point",
                "coordinates": [
                  15.4490601,
                  46.8698505
                ]
              }
            },
            {
              "type": "Feature",
              "properties": {
                "id": "1348723407",
                "osm_type": "node",
                "lat": 46.929972,
                "lon": 15.2558938,
                "amenity": "library",
                "name": "Bücherei St.Stefan ob Stainz"
              },
              "geometry": {
                "type": "Point",
                "coordinates": [
                  15.2558938,
                  46.929972
                ]
              }
            },
            {
              "type": "Feature",
              "properties": {
                "id": "2481349023",
                "osm_type": "node",
                "lat": 46.9864001,
                "lon": 15.2823652,
                "amenity": "library",
                "fixme": "genaue Lage",
                "name": "Öffentliche und Pfarrbücherei"
              },
              "geometry": {
                "type": "Point",
                "coordinates": [
                  15.2823652,
                  46.9864001
                ]
              }
            },
            {
              "type": "Feature",
              "properties": {
                "id": "4563250064",
                "osm_type": "node",
                "lat": 46.8870808,
                "lon": 15.5118295,
                "addr:city": "Wildon",
                "addr:housenumber": "55",
                "addr:postcode": "8410",
                "addr:street": "Hauptplatz",
                "amenity": "library",
                "description": "Öffentliche Gemeinde- und Pfarrbibliothek"
              },
              "geometry": {
                "type": "Point",
                "coordinates": [
                  15.5118295,
                  46.8870808
                ]
              }
            },
            {
              "type": "Feature",
              "properties": {
                "id": "4563265620",
                "osm_type": "node",
                "lat": 46.9433483,
                "lon": 15.333628,
                "addr:city": "Lannach",
                "addr:housenumber": "1",
                "addr:postcode": "8502",
                "addr:street": "Hauptplatz",
                "amenity": "library",
                "description": "Bibliothek Lannach"
              },
              "geometry": {
                "type": "Point",
                "coordinates": [
                  15.333628,
                  46.9433483
                ]
              }
            },
            {
              "type": "Feature",
              "properties": {
                "id": "4563265621",
                "osm_type": "node",
                "lat": 46.9477723,
                "lon": 15.3774497,
                "addr:city": "Dobl",
                "addr:housenumber": "3",
                "addr:postcode": "8143",
                "addr:street": "Oberberg",
                "amenity": "library",
                "description": "Öffentliche Bibliothek und Schulbibliothek Dobl"
              },
              "geometry": {
                "type": "Point",
                "coordinates": [
                  15.3774497,
                  46.9477723
                ]
              }
            },
            {
              "type": "Feature",
              "properties": {
                "id": "4563265622",
                "osm_type": "node",
                "lat": 46.921664,
                "lon": 15.4824326,
                "addr:city": "Werndorf",
                "addr:country": "AT",
                "addr:housenumber": "3",
                "addr:postcode": "8402",
                "addr:street": "Erzherzog-Johann-Straße",
                "amenity": "library",
                "description": "Bücherei Werndorf"
              },
              "geometry": {
                "type": "Point",
                "coordinates": [
                  15.4824326,
                  46.921664
                ]
              }
            },
            {
              "type": "Feature",
              "properties": {
                "id": "4563265624",
                "osm_type": "node",
                "lat": 46.9748058,
                "lon": 15.3361353,
                "addr:city": "Lieboch",
                "addr:housenumber": "1",
                "addr:postcode": "8501",
                "addr:street": "Hitzendorferstraße",
                "amenity": "library",
                "description": "Öffentliche Bücherei Lieboch",
                "name": "Öffentliche Bücherei Lieboch",
                "opening_hours": "Tu 10:00-13:00; We 10:00-12:00,15:30-16:30; Th 10:00-13:00; Fr 18:00-19:00; Su \"11.00-11.30 Uhr (1.-15. des Monats), 9.30-10.30 Uhr (16.-31. des Monats)\"",
                "toilets:wheelchair": "yes",
                "wheelchair": "yes"
              },
              "geometry": {
                "type": "Point",
                "coordinates": [
                  15.3361353,
                  46.9748058
                ]
              }
            },
            {
              "type": "Feature",
              "properties": {
                "id": "4563265625",
                "osm_type": "node",
                "lat": 46.970082,
                "lon": 15.3996999,
                "addr:city": "Oberpremstätten",
                "addr:housenumber": "6",
                "addr:postcode": "8141",
                "addr:street": "Schulstraße",
                "amenity": "library",
                "description": "Bibliothek Premstätten"
              },
              "geometry": {
                "type": "Point",
                "coordinates": [
                  15.3996999,
                  46.970082
                ]
              }
            },
            {
              "type": "Feature",
              "properties": {
                "id": "4565161482",
                "osm_type": "node",
                "lat": 46.9731039,
                "lon": 15.4985683,
                "addr:city": "Fernitz",
                "addr:housenumber": "21",
                "addr:postcode": "8072",
                "addr:street": "Erzherzog-Johann-Platz",
                "amenity": "library",
                "check_date": "2025-04-02",
                "description": "Öffentliche Bibliothek Fernitz-Mellach",
                "name": "Fernitz-Mellach Bibliothek",
                "opening_hours": "We-Th 15:00-19:00; Fr 09:00-12:00,14:00-18:00",
                "operator": "Gemeinde Fernitz-Mellach",
                "wheelchair": "yes"
              },
              "geometry": {
                "type": "Point",
                "coordinates": [
                  15.4985683,
                  46.9731039
                ]
              }
            },
            {
              "type": "Feature",
              "properties": {
                "id": "4565161483",
                "osm_type": "node",
                "lat": 46.964449,
                "lon": 15.4783516,
                "addr:city": "Kalsdorf bei Graz",
                "addr:housenumber": "1",
                "addr:postcode": "8401",
                "addr:street": "Hauptplatz",
                "amenity": "library",
                "description": "Öffentliche Bibliothek der Gemeinde Kalsdorf"
              },
              "geometry": {
                "type": "Point",
                "coordinates": [
                  15.4783516,
                  46.964449
                ]
              }
            },
            {
              "type": "Feature",
              "properties": {
                "id": "4565161484",
                "osm_type": "node",
                "lat": 46.9625583,
                "lon": 15.4780162,
                "addr:city": "Kalsdorf bei Graz",
                "addr:housenumber": "128",
                "addr:postcode": "8401",
                "addr:street": "Hauptstraße",
                "amenity": "library",
                "description": "Öffentliche Jugend- und Familienbibliothek"
              },
              "geometry": {
                "type": "Point",
                "coordinates": [
                  15.4780162,
                  46.9625583
                ]
              }
            },
            {
              "type": "Feature",
              "properties": {
                "id": "4565189163",
                "osm_type": "node",
                "lat": 47.0310636,
                "lon": 15.4983273,
                "addr:city": "Raaba",
                "addr:housenumber": "37",
                "addr:postcode": "8074",
                "addr:street": "Franz-Schedlbauer-Weg",
                "amenity": "library",
                "description": "Öffentliche Bücherei der Gemeinde und Schule Raaba-Grambach"
              },
              "geometry": {
                "type": "Point",
                "coordinates": [
                  15.4983273,
                  47.0310636
                ]
              }
            },
            {
              "type": "Feature",
              "properties": {
                "id": "4635104145",
                "osm_type": "node",
                "lat": 47.0220967,
                "lon": 15.4712448,
                "addr:city": "Graz",
                "addr:country": "AT",
                "addr:housenumber": "291",
                "addr:postcode": "8041",
                "addr:street": "Liebenauer Hauptstraße",
                "amenity": "library",
                "description": "KINDER-ERLEBNIS-BÜCHEREI St. Christoph"
              },
              "geometry": {
                "type": "Point",
                "coordinates": [
                  15.4712448,
                  47.0220967
                ]
              }
            },
            {
              "type": "Feature",
              "properties": {
                "id": "4635104146",
                "osm_type": "node",
                "lat": 46.9913109,
                "lon": 15.5153237,
                "addr:city": "Hausmannstätten",
                "addr:housenumber": "50",
                "addr:postcode": "8071",
                "addr:street": "Hauptstraße",
                "amenity": "library",
                "name": "Öffentliche Bücherei der Marktgemeinde und NMS"
              },
              "geometry": {
                "type": "Point",
                "coordinates": [
                  15.5153237,
                  46.9913109
                ]
              }
            },
            {
              "type": "Feature",
              "properties": {
                "id": "4635104147",
                "osm_type": "node",
                "lat": 47.0027911,
                "lon": 15.4833342,
                "addr:city": "Dörfla",
                "addr:housenumber": "1",
                "addr:postcode": "8071",
                "addr:street": "Schulstraße",
                "amenity": "library",
                "description": "Öffentliche Bibliothek Gössendorf"
              },
              "geometry": {
                "type": "Point",
                "coordinates": [
                  15.4833342,
                  47.0027911
                ]
              }
            },
            {
              "type": "Feature",
              "properties": {
                "id": "4635104148",
                "osm_type": "node",
                "lat": 47.0117277,
                "lon": 15.443779,
                "addr:city": "Feldkirchen bei Graz",
                "addr:country": "AT",
                "addr:housenumber": "55",
                "addr:postcode": "8073",
                "addr:street": "Triester Straße",
                "amenity": "library",
                "at_bev:addr_date": "2018-10-01",
                "description": "Gemeindebücherei Feldkirchen",
                "name": "Gemeindebücherei",
                "operator": "Marktgemeinde Feldkirchen"
              },
              "geometry": {
                "type": "Point",
                "coordinates": [
                  15.443779,
                  47.0117277
                ]
              }
            },
            {
              "type": "Feature",
              "properties": {
                "id": "4635104149",
                "osm_type": "node",
                "lat": 47.0115693,
                "lon": 15.4046445,
                "addr:city": "Seiersberg",
                "addr:housenumber": "5",
                "addr:postcode": "8054",
                "addr:street": "Haushamer Straße",
                "amenity": "library",
                "description": "Öffentliche und Schulbibliothek Gemeinde Seiersberg-Pirka"
              },
              "geometry": {
                "type": "Point",
                "coordinates": [
                  15.4046445,
                  47.0115693
                ]
              }
            },
            {
              "type": "Feature",
              "properties": {
                "id": "1259872743",
                "osm_type": "node",
                "lat": 46.9308683,
                "lon": 15.6628215,
                "addr:place": "Kirchbach in Steiermark",
                "addr:postcode": "8082",
                "amenity": "library",
                "name": "Öffentliche Bücherei Kirchbach",
                "note": "please check in which building the library is, according to OGD data it should be in Kirchbach 11"
              },
              "geometry": {
                "type": "Point",
                "coordinates": [
                  15.6628215,
                  46.9308683
                ]
              }
            },
            {
              "type": "Feature",
              "properties": {
                "id": "4561758805",
                "osm_type": "node",
                "lat": 46.9106341,
                "lon": 15.6333549,
                "addr:city": "Pirching am Traubenberg",
                "addr:housenumber": "31",
                "addr:place": "Frannach",
                "addr:postcode": "8081",
                "amenity": "library",
                "name": "Öffentliche Bibliothek Frannach",
                "operator": "Gemeinde Pirching am Traubenberg"
              },
              "geometry": {
                "type": "Point",
                "coordinates": [
                  15.6333549,
                  46.9106341
                ]
              }
            },
            {
              "type": "Feature",
              "properties": {
                "id": "4561758806",
                "osm_type": "node",
                "lat": 46.9058228,
                "lon": 15.709771,
                "addr:city": "Sankt Stefan im Rosental",
                "addr:housenumber": "14",
                "addr:postcode": "8083",
                "addr:street": "Parkring",
                "amenity": "library",
                "description": "Öffentliche Bücherei der Gemeinde und Pfarre St. Stefan im Rosental"
              },
              "geometry": {
                "type": "Point",
                "coordinates": [
                  15.709771,
                  46.9058228
                ]
              }
            },
            {
              "type": "Feature",
              "properties": {
                "id": "4565173447",
                "osm_type": "node",
                "lat": 46.9548908,
                "lon": 15.5874385,
                "addr:city": "Heiligenkreuz am Waasen",
                "addr:housenumber": "2",
                "addr:postcode": "8081",
                "addr:street": "Marktplatz",
                "amenity": "library",
                "description": "Öffentliche Bücherei"
              },
              "geometry": {
                "type": "Point",
                "coordinates": [
                  15.5874385,
                  46.9548908
                ]
              }
            },
            {
              "type": "Feature",
              "properties": {
                "id": "4565174130",
                "osm_type": "node",
                "lat": 47.0149635,
                "lon": 15.5560916,
                "addr:city": "Vasoldsberg",
                "addr:housenumber": "3",
                "addr:postcode": "8076",
                "addr:street": "Hauptplatz",
                "amenity": "library",
                "description": "Gemeindebibliothek Vasoldsberg"
              },
              "geometry": {
                "type": "Point",
                "coordinates": [
                  15.5560916,
                  47.0149635
                ]
              }
            }
          ],
          "children": []
        },
        {
          "bbox": {
            "south": 46.868481875,
            "west": 15.73002475,
            "north": 47.033758500000005,
            "east": 16.2068765
          },
          "poiCount": 7,
          "leafCount": 7,
          "averagePosition": [
            15.8882765,
            46.92925604285715
          ],
          "data": [
            {
              "type": "Feature",
              "properties": {
                "id": "4561620094",
                "osm_type": "node",
                "lat": 46.8779095,
                "lon": 15.9101765,
                "addr:city": "Bad Gleichenberg",
                "addr:housenumber": "1",
                "addr:postcode": "8344",
                "addr:street": "Schulstraße",
                "amenity": "library",
                "description": "Öffentliche Bibliothek Bad Gleichenberg",
                "wikidata": "Q55468843"
              },
              "geometry": {
                "type": "Point",
                "coordinates": [
                  15.9101765,
                  46.8779095
                ]
              }
            },
            {
              "type": "Feature",
              "properties": {
                "id": "4561752226",
                "osm_type": "node",
                "lat": 46.9365605,
                "lon": 16.0090869,
                "addr:housenumber": "3",
                "addr:postcode": "8350",
                "addr:street": "Grazerstraße",
                "amenity": "library",
                "description": "Stadtbibliothek Fehring"
              },
              "geometry": {
                "type": "Point",
                "coordinates": [
                  16.0090869,
                  46.9365605
                ]
              }
            },
            {
              "type": "Feature",
              "properties": {
                "id": "4561752227",
                "osm_type": "node",
                "lat": 46.8727058,
                "lon": 15.8283824,
                "amenity": "library",
                "description": "Öffentliche Bücherei mit Ludothek Gnas"
              },
              "geometry": {
                "type": "Point",
                "coordinates": [
                  15.8283824,
                  46.8727058
                ]
              }
            },
            {
              "type": "Feature",
              "properties": {
                "id": "4561752229",
                "osm_type": "node",
                "lat": 46.8730613,
                "lon": 15.8839002,
                "addr:city": "Bad Gleichenberg",
                "addr:housenumber": "1",
                "addr:place": "Trautmannsdorf",
                "addr:postcode": "8343",
                "amenity": "library",
                "description": "Öffentliche Bücherei Trautmannsdorf/ Merkendorf"
              },
              "geometry": {
                "type": "Point",
                "coordinates": [
                  15.8839002,
                  46.8730613
                ]
              }
            },
            {
              "type": "Feature",
              "properties": {
                "id": "4561758807",
                "osm_type": "node",
                "lat": 46.9553646,
                "lon": 15.8861823,
                "addr:city": "Feldbach",
                "addr:housenumber": "6",
                "addr:postcode": "8330",
                "addr:street": "Pfarrgasse",
                "amenity": "library",
                "description": "Bibliothek der Stadt Feldbach, Öffentliche und Schulbibliothek des BSZ",
                "name": "Stadtbibliothek Feldbach",
                "opening_hours": "Tu 09:00-12:00,14:00-19:00, We 09:00-12:00, Th 08:00-12:00, Fr 09:00-12:00"
              },
              "geometry": {
                "type": "Point",
                "coordinates": [
                  15.8861823,
                  46.9553646
                ]
              }
            },
            {
              "type": "Feature",
              "properties": {
                "id": "4564950906",
                "osm_type": "node",
                "lat": 46.9879846,
                "lon": 15.7635981,
                "addr:housenumber": "100",
                "addr:place": "Kirchberg an der Raab",
                "addr:postcode": "8324",
                "amenity": "library",
                "description": "Öffentliche Bibliothek Kirchberg/Raab"
              },
              "geometry": {
                "type": "Point",
                "coordinates": [
                  15.7635981,
                  46.9879846
                ]
              }
            },
            {
              "type": "Feature",
              "properties": {
                "id": "6697515447",
                "osm_type": "node",
                "lat": 47.001206,
                "lon": 15.9366091,
                "amenity": "library",
                "name": "Bibliothek Riegersburg",
                "opening_hours": "Mo 08:00-10:00; Tu 09:00-11:00; We 15:30-18:30; Fr 16:00-19:00; Sa 18:00-20:00"
              },
              "geometry": {
                "type": "Point",
                "coordinates": [
                  15.9366091,
                  47.001206
                ]
              }
            }
          ],
          "children": []
        }
      ]
    },
    {
      "bbox": {
        "south": 46.70320525,
        "west": 16.2068765,
        "north": 47.033758500000005,
        "east": 17.16058
      },
      "poiCount": 19,
      "leafCount": 19,
      "averagePosition": [
        16.63146746842105,
        46.8776451
      ],
      "data": [
        {
          "type": "Feature",
          "properties": {
            "id": "3459863006",
            "osm_type": "node",
            "lat": 46.8365678,
            "lon": 16.4260227,
            "amenity": "library",
            "contact:website": "https://www.orseg.hu",
            "name": "Őrségi teleház",
            "source": "turistautak.hu",
            "source:date": "2010-09-11",
            "start_date": "1997-08",
            "url": "http://turistautak.hu/poi.php?id=101490"
          },
          "geometry": {
            "type": "Point",
            "coordinates": [
              16.4260227,
              46.8365678
            ]
          }
        },
        {
          "type": "Feature",
          "properties": {
            "id": "6707393659",
            "osm_type": "node",
            "lat": 46.8407559,
            "lon": 16.4178381,
            "amenity": "library"
          },
          "geometry": {
            "type": "Point",
            "coordinates": [
              16.4178381,
              46.8407559
            ]
          }
        },
        {
          "type": "Feature",
          "properties": {
            "id": "7815160797",
            "osm_type": "node",
            "lat": 46.8593092,
            "lon": 16.5006076,
            "addr:city": "Kisrákos",
            "addr:housenumber": "28",
            "addr:postcode": "9936",
            "addr:street": "Fő út",
            "amenity": "library",
            "internet_access": "yes",
            "opening_hours": "Mo,Th 15:00-18:00; Tu,We 12:00-13:00"
          },
          "geometry": {
            "type": "Point",
            "coordinates": [
              16.5006076,
              46.8593092
            ]
          }
        },
        {
          "type": "Feature",
          "properties": {
            "id": "13054293674",
            "osm_type": "node",
            "lat": 46.8649752,
            "lon": 16.3635581,
            "amenity": "library",
            "internet_access": "wlan",
            "name": "Községi könyvtár",
            "wheelchair": "no"
          },
          "geometry": {
            "type": "Point",
            "coordinates": [
              16.3635581,
              46.8649752
            ]
          }
        },
        {
          "type": "Feature",
          "properties": {
            "id": "2169181422",
            "osm_type": "node",
            "lat": 46.8462352,
            "lon": 16.8821088,
            "addr:city": "Zalaegerszeg",
            "addr:housenumber": "1-3",
            "addr:postcode": "8900",
            "addr:street": "Szivárvány tér",
            "amenity": "library",
            "email": "izsakamk@gmail.com",
            "name": "Izsák Imre Általános Művelődési Központ, Városi és Iskolai Könyvtár",
            "phone": "+36 92 511 927",
            "website": "http://www.izsakimrealtalanosiskola.hu/"
          },
          "geometry": {
            "type": "Point",
            "coordinates": [
              16.8821088,
              46.8462352
            ]
          }
        },
        {
          "type": "Feature",
          "properties": {
            "id": "2171641276",
            "osm_type": "node",
            "lat": 46.8364423,
            "lon": 16.8452325,
            "addr:city": "Zalaegerszeg",
            "addr:housenumber": "1",
            "addr:postcode": "8900",
            "addr:street": "Zrínyi Miklós utca",
            "amenity": "library",
            "name": "Zala Megyei Kórház Egészségügyi Szakkönyvtár Zalaegerszeg",
            "phone": "+36 92 501 590"
          },
          "geometry": {
            "type": "Point",
            "coordinates": [
              16.8452325,
              46.8364423
            ]
          }
        },
        {
          "type": "Feature",
          "properties": {
            "id": "2604660369",
            "osm_type": "node",
            "lat": 46.8227024,
            "lon": 16.8303361,
            "addr:city": "Zalaegerszeg",
            "addr:housenumber": "5",
            "addr:postcode": "8900",
            "addr:street": "Apáczai Csere János tér",
            "amenity": "library",
            "name": "ÁMK Könyvtár",
            "official_name": "Apáczai Csere János Általános Művelődési Központ Könyvtár",
            "opening_hours": "Tu 10:00-19:00; We,Th 14:00-18:00; Fr 14:00-19:00; Sa 10:00-13:00",
            "phone": "+36 92 549 402",
            "website": "https://www.apaczaizeg.hu/"
          },
          "geometry": {
            "type": "Point",
            "coordinates": [
              16.8303361,
              46.8227024
            ]
          }
        },
        {
          "type": "Feature",
          "properties": {
            "id": "2984313636",
            "osm_type": "node",
            "lat": 46.7301894,
            "lon": 16.8453369,
            "amenity": "library"
          },
          "geometry": {
            "type": "Point",
            "coordinates": [
              16.8453369,
              46.7301894
            ]
          }
        },
        {
          "type": "Feature",
          "properties": {
            "id": "7626275248",
            "osm_type": "node",
            "lat": 46.7540149,
            "lon": 16.9238654,
            "addr:city": "Pölöske",
            "addr:housenumber": "115",
            "addr:postcode": "8929",
            "addr:street": "Petőfi Sándor utca",
            "amenity": "library",
            "internet_access": "wlan",
            "name": "Művelődési Ház és Könyvtár",
            "wheelchair": "limited"
          },
          "geometry": {
            "type": "Point",
            "coordinates": [
              16.9238654,
              46.7540149
            ]
          }
        },
        {
          "type": "Feature",
          "properties": {
            "id": "8300426985",
            "osm_type": "node",
            "lat": 46.8109723,
            "lon": 16.7780082,
            "amenity": "library",
            "name": "Községi Könyvtár"
          },
          "geometry": {
            "type": "Point",
            "coordinates": [
              16.7780082,
              46.8109723
            ]
          }
        },
        {
          "type": "Feature",
          "properties": {
            "id": "10591199077",
            "osm_type": "node",
            "lat": 46.7786239,
            "lon": 16.9943474,
            "amenity": "library"
          },
          "geometry": {
            "type": "Point",
            "coordinates": [
              16.9943474,
              46.7786239
            ]
          }
        },
        {
          "type": "Feature",
          "properties": {
            "id": "11773830417",
            "osm_type": "node",
            "lat": 46.86737,
            "lon": 16.5467851,
            "amenity": "library",
            "name": "Községi Könyvtár"
          },
          "geometry": {
            "type": "Point",
            "coordinates": [
              16.5467851,
              46.86737
            ]
          }
        },
        {
          "type": "Feature",
          "properties": {
            "id": "2908816095",
            "osm_type": "node",
            "lat": 46.9338859,
            "lon": 16.5201728,
            "amenity": "library"
          },
          "geometry": {
            "type": "Point",
            "coordinates": [
              16.5201728,
              46.9338859
            ]
          }
        },
        {
          "type": "Feature",
          "properties": {
            "id": "3468279231",
            "osm_type": "node",
            "lat": 47.0255614,
            "lon": 16.4162054,
            "amenity": "library"
          },
          "geometry": {
            "type": "Point",
            "coordinates": [
              16.4162054,
              47.0255614
            ]
          }
        },
        {
          "type": "Feature",
          "properties": {
            "id": "5020521035",
            "osm_type": "node",
            "lat": 46.8963263,
            "lon": 16.2554806,
            "amenity": "library",
            "name": "Klubkönyvtár"
          },
          "geometry": {
            "type": "Point",
            "coordinates": [
              16.2554806,
              46.8963263
            ]
          }
        },
        {
          "type": "Feature",
          "properties": {
            "id": "6573298497",
            "osm_type": "node",
            "lat": 47.0313765,
            "lon": 16.493517,
            "amenity": "library",
            "name": "Községi Könyvtár"
          },
          "geometry": {
            "type": "Point",
            "coordinates": [
              16.493517,
              47.0313765
            ]
          }
        },
        {
          "type": "Feature",
          "properties": {
            "id": "5088107197",
            "osm_type": "node",
            "lat": 46.9811289,
            "lon": 16.7418793,
            "amenity": "library",
            "opening_hours": "Tu 15:00-18:00; Fr 16:00-20:00"
          },
          "geometry": {
            "type": "Point",
            "coordinates": [
              16.7418793,
              46.9811289
            ]
          }
        },
        {
          "type": "Feature",
          "properties": {
            "id": "5843777473",
            "osm_type": "node",
            "lat": 46.9477714,
            "lon": 16.6838531,
            "amenity": "library",
            "name": "Községi könyvtár"
          },
          "geometry": {
            "type": "Point",
            "coordinates": [
              16.6838531,
              46.9477714
            ]
          }
        },
        {
          "type": "Feature",
          "properties": {
            "id": "8354285505",
            "osm_type": "node",
            "lat": 47.011048,
            "lon": 16.5327268,
            "amenity": "library",
            "name": "Községi Könyvtár"
          },
          "geometry": {
            "type": "Point",
            "coordinates": [
              16.5327268,
              47.011048
            ]
          }
        }
      ],
      "children": []
    }
  ]
}