{
  "bbox": {
    "south": 46.372652,
    "west": 13.345766,
    "north": 47.033758500000005,
    "east": 15.253173
  },
  "poiCount": 29,
  "leafCount": 29,
  "averagePosition": [
    14.449357458620689,
    46.73303095172414
  ],
  "data": [
    {
      "type": "Feature",
      "properties": {
        "id": "1770239317",
        "osm_type": "node",
        "lat": 46.8358177,
        "lon": 14.5407666,
        "amenity": "library",
        "name": "Ortsbibliothek",
        "opening_hours": "Mo 08:00-10:00; We 17:00-18:00"
      },
      "geometry": {
        "type": "Point",
        "coordinates": [
          14.5407666,
          46.8358177
        ]
      }
    },
    {
      "type": "Feature",
      "properties": {
        "id": "3125746197",
        "osm_type": "node",
        "lat": 46.5898576,
        "lon": 15.0170811,
        "amenity": "library",
        "name": "Knjižnica Dravograd"
      },
      "geometry": {
        "type": "Point",
        "coordinates": [
          15.0170811,
          46.5898576
        ]
      }
    },
    {
      "type": "Feature",
      "properties": {
        "id": "12062052724",
        "osm_type": "node",
        "lat": 46.4697805,
        "lon": 14.8531992,
        "amenity": "library",
        "name": "Knjižnica"
      },
      "geometry": {
        "type": "Point",
        "coordinates": [
          14.8531992,
          46.4697805
        ]
      }
    },
    {
      "type": "Feature",
      "properties": {
        "id": "250655268",
        "osm_type": "node",
        "lat": 46.6091655,
        "lon": 15.1628024,
        "amenity": "library",
        "created_by": "JOSM"
      },
      "geometry": {
        "type": "Point",
        "coordinates": [
          15.1628024,
          46.6091655
        ]
      }
    },
    {
      "type": "Feature",
      "properties": {
        "id": "4555788348",
        "osm_type": "node",
        "lat": 46.686887,
        "lon": 15.2458677,
        "addr:housenumber": "27",
        "addr:place": "Eibiswald",
        "addr:postcode": "8552",
        "amenity": "library",
        "description": "Grenzlandbücherei",
        "name": "Öffentliche Bibliothek"
      },
      "geometry": {
        "type": "Point",
        "coordinates": [
          15.2458677,
          46.686887
        ]
      }
    },
    {
      "type": "Feature",
      "properties": {
        "id": "4555812125",
        "osm_type": "node",
        "lat": 46.8145473,
        "lon": 15.2149842,
        "addr:city": "Deutschlandsberg",
        "addr:housenumber": "15",
        "addr:postcode": "8530",
        "addr:street": "Hauptplatz",
        "amenity": "library",
        "description": "Stadtbibliothek"
      },
      "geometry": {
        "type": "Point",
        "coordinates": [
          15.2149842,
          46.8145473
        ]
      }
    },
    {
      "type": "Feature",
      "properties": {
        "id": "4563245117",
        "osm_type": "node",
        "lat": 46.869528,
        "lon": 15.2219806,
        "addr:housenumber": "1",
        "addr:place": "Bad Gams",
        "addr:postcode": "8524",
        "amenity": "library",
        "description": "Öffentliche Bücherei der Pfarre und Gemeinde"
      },
      "geometry": {
        "type": "Point",
        "coordinates": [
          15.2219806,
          46.869528
        ]
      }
    },
    {
      "type": "Feature",
      "properties": {
        "id": "4687082603",
        "osm_type": "node",
        "lat": 46.6143958,
        "lon": 15.2233523,
        "addr:postcode": "2360",
        "amenity": "library",
        "name": "Knjižnica Radlje ob Dravi",
        "name:en": "Library Radlje ob Dravi",
        "name:sl": "Knjižnica Radlje ob Dravi",
        "website": "http://www.knjiznica-radlje.si/"
      },
      "geometry": {
        "type": "Point",
        "coordinates": [
          15.2233523,
          46.6143958
        ]
      }
    },
    {
      "type": "Feature",
      "properties": {
        "id": "472638864",
        "osm_type": "node",
        "lat": 46.9070497,
        "lon": 13.5367828,
        "amenity": "library",
        "name": "Bibliothek Gmünd",
        "opening_hours": "Mo 13:30-16:00; Tu 14:00-18:00; Fr 16:30-19:00",
        "website": "https://www.bvoe.at/~gmuend/",
        "wheelchair": "yes",
        "wikidata": "Q56166025"
      },
      "geometry": {
        "type": "Point",
        "coordinates": [
          13.5367828,
          46.9070497
        ]
      }
    },
    {
      "type": "Feature",
      "properties": {
        "id": "1807067000",
        "osm_type": "node",
        "lat": 46.963402,
        "lon": 14.7907599,
        "amenity": "library",
        "wheelchair": "yes"
      },
      "geometry": {
        "type": "Point",
        "coordinates": [
          14.7907599,
          46.963402
        ]
      }
    },
    {
      "type": "Feature",
      "properties": {
        "id": "4629390192",
        "osm_type": "node",
        "lat": 47.0194165,
        "lon": 14.9580776,
        "addr:housenumber": "24",
        "addr:place": "Hirschegg",
        "addr:postcode": "8584",
        "amenity": "library",
        "description": "Öffentliche Bücherei Hirschegg"
      },
      "geometry": {
        "type": "Point",
        "coordinates": [
          14.9580776,
          47.0194165
        ]
      }
    },
    {
      "type": "Feature",
      "properties": {
        "id": "4629390191",
        "osm_type": "node",
        "lat": 47.021471,
        "lon": 15.0502435,
        "addr:city": "Edelschrott",
        "addr:housenumber": "17",
        "addr:postcode": "8583",
        "addr:street": "Packer Straße",
        "amenity": "library",
        "description": "Öffentliche Bücherei Edelschrott"
      },
      "geometry": {
        "type": "Point",
        "coordinates": [
          15.0502435,
          47.021471
        ]
      }
    },
    {
      "type": "Feature",
      "properties": {
        "id": "4635104152",
        "osm_type": "node",
        "lat": 47.0103587,
        "lon": 15.226813,
        "addr:housenumber": "74",
        "addr:postcode": "8561",
        "addr:street": "Sankt Johann",
        "amenity": "library",
        "at_bev:addr_date": "2024-04-15",
        "name": "Öffentliche Bibliothek St Johann"
      },
      "geometry": {
        "type": "Point",
        "coordinates": [
          15.226813,
          47.0103587
        ]
      }
    },
    {
      "type": "Feature",
      "properties": {
        "id": "4635104153",
        "osm_type": "node",
        "lat": 46.9914267,
        "lon": 15.2072531,
        "addr:housenumber": "97",
        "addr:place": "Ligist",
        "addr:postcode": "8563",
        "amenity": "library",
        "name": "Öffentliche Bibliothek und Schulbibliothek der VS"
      },
      "geometry": {
        "type": "Point",
        "coordinates": [
          15.2072531,
          46.9914267
        ]
      }
    },
    {
      "type": "Feature",
      "properties": {
        "id": "1363093494",
        "osm_type": "node",
        "lat": 46.6261156,
        "lon": 13.3720732,
        "amenity": "library",
        "name": "Stadtbibliothek"
      },
      "geometry": {
        "type": "Point",
        "coordinates": [
          13.3720732,
          46.6261156
        ]
      }
    },
    {
      "type": "Feature",
      "properties": {
        "id": "10754374467",
        "osm_type": "node",
        "lat": 46.7667468,
        "lon": 13.3581692,
        "amenity": "library",
        "name": "Bücherei Kleblach/Lind"
      },
      "geometry": {
        "type": "Point",
        "coordinates": [
          13.3581692,
          46.7667468
        ]
      }
    },
    {
      "type": "Feature",
      "properties": {
        "id": "330242043",
        "osm_type": "node",
        "lat": 46.6147931,
        "lon": 13.8451823,
        "addr:city": "Villach",
        "addr:country": "AT",
        "addr:housenumber": "1",
        "addr:postcode": "9500",
        "addr:street": "Kaiser-Josef-Platz",
        "amenity": "library",
        "email": "mediathek@akktn.at",
        "name": "Alpen-Adria Mediathek",
        "phone": "+43 50 477 5000",
        "wikidata": "Q56166038"
      },
      "geometry": {
        "type": "Point",
        "coordinates": [
          13.8451823,
          46.6147931
        ]
      }
    },
    {
      "type": "Feature",
      "properties": {
        "id": "1240915541",
        "osm_type": "node",
        "lat": 46.6284774,
        "lon": 13.880163,
        "addr:city": "Villach",
        "addr:district": "Landskron",
        "addr:housenumber": "4",
        "addr:postcode": "9523",
        "addr:street": "Hauptschulstraße",
        "amenity": "library",
        "name": "Bibliothek NMS Landskron"
      },
      "geometry": {
        "type": "Point",
        "coordinates": [
          13.880163,
          46.6284774
        ]
      }
    },
    {
      "type": "Feature",
      "properties": {
        "id": "1368310933",
        "osm_type": "node",
        "lat": 46.6853576,
        "lon": 13.9721047,
        "addr:city": "Steindorf am Ossiacher See",
        "addr:country": "AT",
        "addr:housenumber": "3",
        "addr:postcode": "9551",
        "addr:street": "10.-Oktober-Straße",
        "amenity": "library",
        "at_bev:addr_date": "2016-10-02",
        "name": "Gemeindebücherei"
      },
      "geometry": {
        "type": "Point",
        "coordinates": [
          13.9721047,
          46.6853576
        ]
      }
    },
    {
      "type": "Feature",
      "properties": {
        "id": "1960281806",
        "osm_type": "node",
        "lat": 46.5051487,
        "lon": 13.5804565,
        "addr:city": "Tarvisio",
        "addr:country": "IT",
        "addr:housenumber": "1",
        "addr:postcode": "33018",
        "addr:street": "Via Giovanni Paolo Secondo",
        "amenity": "library",
        "name": "Biblioteca Comunale"
      },
      "geometry": {
        "type": "Point",
        "coordinates": [
          13.5804565,
          46.5051487
        ]
      }
    },
    {
      "type": "Feature",
      "properties": {
        "id": "3012894899",
        "osm_type": "node",
        "lat": 46.799166,
        "lon": 13.7056636,
        "amenity": "library",
        "name": "Mediathek Radenthein",
        "wikidata": "Q56166030"
      },
      "geometry": {
        "type": "Point",
        "coordinates": [
          13.7056636,
          46.799166
        ]
      }
    },
    {
      "type": "Feature",
      "properties": {
        "id": "5398331345",
        "osm_type": "node",
        "lat": 46.73086,
        "lon": 13.8501139,
        "amenity": "library",
        "name": "Gemeindebücherei"
      },
      "geometry": {
        "type": "Point",
        "coordinates": [
          13.8501139,
          46.73086
        ]
      }
    },
    {
      "type": "Feature",
      "properties": {
        "id": "486604968",
        "osm_type": "node",
        "lat": 46.6166761,
        "lon": 14.3120066,
        "addr:city": "Klagenfurt am Wörthersee",
        "addr:country": "AT",
        "addr:housenumber": "3",
        "addr:postcode": "9021",
        "addr:street": "Bahnhofplatz",
        "amenity": "library",
        "email": "bibliothek@akktn.at",
        "name": "AK-Bibliothek Klagenfurt",
        "name:en": "AK-Library Klagenfurt",
        "opening_hours": "Mo-Th 10:00-16:00; Fr 08:00-12:00; Sa off",
        "operator": "Arbeiterkammer Kärnten",
        "operator:wikidata": "Q872425",
        "phone": "050 477-5001",
        "website": "https://kaernten.arbeiterkammer.at/service/akbibliotheken/index.html"
      },
      "geometry": {
        "type": "Point",
        "coordinates": [
          14.3120066,
          46.6166761
        ]
      }
    },
    {
      "type": "Feature",
      "properties": {
        "id": "1191353336",
        "osm_type": "node",
        "lat": 46.7680369,
        "lon": 14.3589093,
        "amenity": "library",
        "name": "Stadtbücherei"
      },
      "geometry": {
        "type": "Point",
        "coordinates": [
          14.3589093,
          46.7680369
        ]
      }
    },
    {
      "type": "Feature",
      "properties": {
        "id": "1430499735",
        "osm_type": "node",
        "lat": 46.6240784,
        "lon": 14.3273304,
        "addr:city": "Klagenfurt am Wörthersee",
        "addr:country": "AT",
        "addr:housenumber": "4",
        "addr:postcode": "9020",
        "addr:street": "Mikschallee",
        "amenity": "library",
        "name": "Slovenska Studijska Knjiznica - Slowenische Studienbibliothek",
        "wheelchair": "no"
      },
      "geometry": {
        "type": "Point",
        "coordinates": [
          14.3273304,
          46.6240784
        ]
      }
    },
    {
      "type": "Feature",
      "properties": {
        "id": "1432618945",
        "osm_type": "node",
        "lat": 46.6229511,
        "lon": 14.3002509,
        "addr:city": "Klagenfurt am Wörthersee",
        "addr:country": "AT",
        "addr:housenumber": "25",
        "addr:postcode": "9020",
        "addr:street": "Villacher Straße",
        "amenity": "library",
        "name": "Philo Bibliothek",
        "wheelchair": "yes"
      },
      "geometry": {
        "type": "Point",
        "coordinates": [
          14.3002509,
          46.6229511
        ]
      }
    },
    {
      "type": "Feature",
      "properties": {
        "id": "1746568530",
        "osm_type": "node",
        "lat": 46.6229165,
        "lon": 14.2956662,
        "addr:city": "Klagenfurt am Wörthersee",
        "addr:country": "AT",
        "addr:housenumber": "30",
        "addr:postcode": "9020",
        "addr:street": "Tarviser Straße",
        "amenity": "library",
        "check": "yes",
        "check_date:opening_hours": "2024-10-01",
        "name": "Diözesanbibliothek",
        "opening_hours:signed": "no",
        "toilets:wheelchair": "yes",
        "wheelchair": "yes",
        "wikidata": "Q56166015"
      },
      "geometry": {
        "type": "Point",
        "coordinates": [
          14.2956662,
          46.6229165
        ]
      }
    },
    {
      "type": "Feature",
      "properties": {
        "id": "6974241690",
        "osm_type": "node",
        "lat": 46.620924,
        "lon": 14.3124524,
        "addr:housenumber": "2",
        "addr:postcode": "9010",
        "addr:street": "Museumgasse",
        "amenity": "library",
        "name": "Bibliothek des Landesmuseums",
        "opening_hours": "Mo-Th 07:30-16:00; Fr 07:30-13:00",
        "operator": "Landesmuseum Kärnten",
        "phone": "+43 463 536-30 570",
        "ref:isil": "AT-LMK",
        "wikidata": "Q1795421"
      },
      "geometry": {
        "type": "Point",
        "coordinates": [
          14.3124524,
          46.620924
        ]
      }
    },
    {
      "type": "Feature",
      "properties": {
        "id": "11360043860",
        "osm_type": "node",
        "lat": 46.6225454,
        "lon": 14.3108601,
        "amenity": "library",
        "check_date": "2023-11-18",
        "name": "Bibliotheksverband Kärnten",
        "opening_hours": "Mo,We-Th 09:00-12:00"
      },
      "geometry": {
        "type": "Point",
        "coordinates": [
          14.3108601,
          46.6225454
        ]
      }
    }
  ],
  "children": []
}