{
  "bbox": {
    "south": 46.372652,
    "west": 15.253173,
    "north": 47.033758500000005,
    "east": 17.16058
  },
  "poiCount": 203,
  "leafCount": 0,
  "averagePosition": [
    16.101449856650248,
    46.72664562463054
  ],
  "data": [],
  "children": [
    {
      "bbox": {
        "south": 46.372652,
        "west": 15.253173,
        "north": 46.70320525,
        "east": 16.2068765
      },
      "poiCount": 57,
      "leafCount": 0,
      "averagePosition": [
        15.727271807017543,
        46.53259404736841
      ],
      "data": [],
      "children": [
        {
          "bbox": {
            "south": 46.372652,
            "west": 15.253173,
            "north": 46.537928625000006,
            "east": 15.73002475
          },
          "poiCount": 14,
          "leafCount": 14,
          "averagePosition": [
            15.564582435714286,
            46.48656898571429
          ],
          "data": [
            {
              "type": "Feature",
              "properties": {
                "id": "475205980",
                "osm_type": "node",
                "lat": 46.4558289,
                "lon": 15.3371515,
                "amenity": "fast_food",
                "name": "Uniorček"
              },
              "geometry": {
                "type": "Point",
                "coordinates": [
                  15.3371515,
                  46.4558289
                ]
              }
            },
            {
              "type": "Feature",
              "properties": {
                "id": "665871588",
                "osm_type": "node",
                "lat": 46.4991456,
                "lon": 15.4955048,
                "amenity": "fast_food",
                "name": "Okrepčevalnica Cojzarica"
              },
              "geometry": {
                "type": "Point",
                "coordinates": [
                  15.4955048,
                  46.4991456
                ]
              }
            },
            {
              "type": "Feature",
              "properties": {
                "id": "811916412",
                "osm_type": "node",
                "lat": 46.4436865,
                "lon": 15.4590469,
                "amenity": "fast_food",
                "name": "Rdeča kapica",
                "opening_hours": "\"winter ski season\""
              },
              "geometry": {
                "type": "Point",
                "coordinates": [
                  15.4590469,
                  46.4436865
                ]
              }
            },
            {
              "type": "Feature",
              "properties": {
                "id": "922742695",
                "osm_type": "node",
                "lat": 46.3750158,
                "lon": 15.3888061,
                "amenity": "fast_food",
                "name": "Okrepčevalnica Živ-Žav"
              },
              "geometry": {
                "type": "Point",
                "coordinates": [
                  15.3888061,
                  46.3750158
                ]
              }
            },
            {
              "type": "Feature",
              "properties": {
                "id": "988688057",
                "osm_type": "node",
                "lat": 46.4613543,
                "lon": 15.3368182,
                "amenity": "fast_food",
                "name": "Fun bar",
                "operator": "Snežni park Rogla"
              },
              "geometry": {
                "type": "Point",
                "coordinates": [
                  15.3368182,
                  46.4613543
                ]
              }
            },
            {
              "type": "Feature",
              "properties": {
                "id": "492163936",
                "osm_type": "node",
                "lat": 46.5023311,
                "lon": 15.7024101,
                "amenity": "fast_food",
                "name": "Galaksija"
              },
              "geometry": {
                "type": "Point",
                "coordinates": [
                  15.7024101,
                  46.5023311
                ]
              }
            },
            {
              "type": "Feature",
              "properties": {
                "id": "4706644162",
                "osm_type": "node",
                "lat": 46.5333642,
                "lon": 15.6993509,
                "amenity": "fast_food",
                "brand": "McDonald's",
                "brand:wikidata": "Q38076",
                "cuisine": "burger",
                "name": "McDonald's",
                "opening_hours": "Mo-Su 06:00-24:00",
                "takeaway": "yes",
                "website": "https://mcdonalds.si/restavracije/petrol-maribor",
                "wheelchair": "yes"
              },
              "geometry": {
                "type": "Point",
                "coordinates": [
                  15.6993509,
                  46.5333642
                ]
              }
            },
            {
              "type": "Feature",
              "properties": {
                "id": "5148317410",
                "osm_type": "node",
                "lat": 46.5282778,
                "lon": 15.6710011,
                "amenity": "fast_food",
                "name": "Kebap Paša",
                "opening_hours": "Su-Th 08:00-03:00; Fr,Sa 08:00-05:00",
                "wheelchair": "yes"
              },
              "geometry": {
                "type": "Point",
                "coordinates": [
                  15.6710011,
                  46.5282778
                ]
              }
            },
            {
              "type": "Feature",
              "properties": {
                "id": "5178974847",
                "osm_type": "node",
                "lat": 46.5332183,
                "lon": 15.6001259,
                "amenity": "fast_food",
                "name": "Okrepčevalnica Snežinka",
                "outdoor_seating": "yes"
              },
              "geometry": {
                "type": "Point",
                "coordinates": [
                  15.6001259,
                  46.5332183
                ]
              }
            },
            {
              "type": "Feature",
              "properties": {
                "id": "5700529947",
                "osm_type": "node",
                "lat": 46.5340154,
                "lon": 15.6645057,
                "addr:city": "Maribor",
                "addr:housenumber": "95",
                "addr:postcode": "2000",
                "addr:street": "Ptujska cesta",
                "amenity": "fast_food",
                "name": "Okrepčevalnica Zala",
                "operator": "Filip Audič s.p."
              },
              "geometry": {
                "type": "Point",
                "coordinates": [
                  15.6645057,
                  46.5340154
                ]
              }
            },
            {
              "type": "Feature",
              "properties": {
                "id": "12036646599",
                "osm_type": "node",
                "lat": 46.5250483,
                "lon": 15.6675631,
                "amenity": "fast_food",
                "check_date": "2024-07-06",
                "cuisine": "burger",
                "name": "OJGN",
                "payment:cards": "no",
                "payment:cash": "yes",
                "payment:credit_cards": "no",
                "payment:debit_cards": "no",
                "shop": "fast_food",
                "wheelchair": "yes"
              },
              "geometry": {
                "type": "Point",
                "coordinates": [
                  15.6675631,
                  46.5250483
                ]
              }
            },
            {
              "type": "Feature",
              "properties": {
                "id": "12251226628",
                "osm_type": "node",
                "lat": 46.3942315,
                "lon": 15.5667742,
                "addr:city": "Slovenska Bistrica",
                "addr:housenumber": "35",
                "addr:postcode": "2310",
                "addr:street": "Partizanska ulica",
                "amenity": "fast_food",
                "cuisine": "burger;balkan",
                "drive_through": "no",
                "name": "ŽAR BURGER",
                "operator": "ŽAR BURGER d.o.o.",
                "website": "http://www.zarburger.si"
              },
              "geometry": {
                "type": "Point",
                "coordinates": [
                  15.5667742,
                  46.3942315
                ]
              }
            },
            {
              "type": "Feature",
              "properties": {
                "id": "12851785569",
                "osm_type": "node",
                "lat": 46.5042385,
                "lon": 15.6623358,
                "amenity": "fast_food",
                "contact:mobile": "+38640245154",
                "contact:website": "https://black-smith.si",
                "name": "Black Smith",
                "opening_hours": "Tu-Th 10:00-22:00; Fr 10:00-23:00; Sa 11:00-23:00; Su 11:00-21:00"
              },
              "geometry": {
                "type": "Point",
                "coordinates": [
                  15.6623358,
                  46.5042385
                ]
              }
            },
            {
              "type": "Feature",
              "properties": {
                "id": "12888274957",
                "osm_type": "node",
                "lat": 46.5222096,
                "lon": 15.6527598,
                "addr:housenumber": "67a",
                "addr:street": "Tržaška cesta",
                "amenity": "fast_food",
                "check_date": "2025-06-05",
                "cuisine": "burger",
                "name": "D&D Fastfood Kebab & Hamburger",
                "opening_hours:drive_through": "Mo-Fr 08:00-20:00; Sa-Su off",
                "phone": "+386 41 286 692",
                "wheelchair": "yes"
              },
              "geometry": {
                "type": "Point",
                "coordinates": [
                  15.6527598,
                  46.5222096
                ]
              }
            }
          ],
          "children": []
        },
        {
          "bbox": {
            "south": 46.372652,
            "west": 15.73002475,
            "north": 46.537928625000006,
            "east": 16.2068765
          },
          "poiCount": 9,
          "leafCount": 9,
          "averagePosition": [
            15.916769244444444,
            46.43001467777778
          ],
          "data": [
            {
              "type": "Feature",
              "properties": {
                "id": "2836458716",
                "osm_type": "node",
                "lat": 46.4253437,
                "lon": 15.8775552,
                "amenity": "fast_food",
                "name": "Neli kebab",
                "wheelchair": "yes"
              },
              "geometry": {
                "type": "Point",
                "coordinates": [
                  15.8775552,
                  46.4253437
                ]
              }
            },
            {
              "type": "Feature",
              "properties": {
                "id": "7242496601",
                "osm_type": "node",
                "lat": 46.4195775,
                "lon": 15.8725591,
                "addr:city": "Ptuj",
                "addr:housenumber": "4",
                "addr:postcode": "2250",
                "addr:street": "Ulica heroja Lacka",
                "amenity": "fast_food",
                "cuisine": "burger;sausage",
                "name": "Alex Imbiss",
                "website": "https://visitptuj.eu/en/eat-drink/inns-restaurants/alex-imbiss/"
              },
              "geometry": {
                "type": "Point",
                "coordinates": [
                  15.8725591,
                  46.4195775
                ]
              }
            },
            {
              "type": "Feature",
              "properties": {
                "id": "7921278385",
                "osm_type": "node",
                "lat": 46.4045421,
                "lon": 15.7969401,
                "addr:housenumber": "21",
                "addr:postcode": "2325",
                "addr:street": "Kopališka ulica",
                "amenity": "fast_food",
                "cuisine": "kebab",
                "name": "Feti kebab",
                "name:sl": "Kebab Feti"
              },
              "geometry": {
                "type": "Point",
                "coordinates": [
                  15.7969401,
                  46.4045421
                ]
              }
            },
            {
              "type": "Feature",
              "properties": {
                "id": "11608381390",
                "osm_type": "node",
                "lat": 46.414965,
                "lon": 15.8642417,
                "addr:city": "Ptuj",
                "addr:housenumber": "5",
                "addr:postcode": "2250",
                "addr:street": "Zagrebška cesta",
                "amenity": "fast_food",
                "cuisine": "kebab;burger;hot_dog",
                "name": "Okrepčevalnica Pri Perotu"
              },
              "geometry": {
                "type": "Point",
                "coordinates": [
                  15.8642417,
                  46.414965
                ]
              }
            },
            {
              "type": "Feature",
              "properties": {
                "id": "11611294297",
                "osm_type": "node",
                "lat": 46.4282501,
                "lon": 15.8841662,
                "addr:city": "Ptuj",
                "addr:housenumber": "60A",
                "addr:postcode": "2250",
                "addr:street": "Potrčeva cesta",
                "amenity": "fast_food",
                "cuisine": "burger",
                "name": "KRTEK Burger",
                "operator": "Renata Ošlaj s.p.",
                "phone": "+386 51 235 925",
                "website": "https://poisci.me/sl/krtek-burger-renata-oslaj-s-p-ptuj/"
              },
              "geometry": {
                "type": "Point",
                "coordinates": [
                  15.8841662,
                  46.4282501
                ]
              }
            },
            {
              "type": "Feature",
              "properties": {
                "id": "11712040597",
                "osm_type": "node",
                "lat": 46.4227932,
                "lon": 15.8870817,
                "addr:city": "Ptuj",
                "addr:housenumber": "21",
                "addr:postcode": "2250",
                "addr:street": "Puhova ulica",
                "amenity": "fast_food",
                "covered": "yes",
                "cuisine": "burger;local;sausage",
                "email": "domaca.hrana.ptuj@gmail.com",
                "name": "Okrepčevalnica Na žlico",
                "opening_hours": "Mo-Fr 08:00-20:00; Sa 08:00-18:00",
                "phone": "+386 41 533 623",
                "website": "https://www.facebook.com/okrepcevalnica.na.zlico/"
              },
              "geometry": {
                "type": "Point",
                "coordinates": [
                  15.8870817,
                  46.4227932
                ]
              }
            },
            {
              "type": "Feature",
              "properties": {
                "id": "11725788762",
                "osm_type": "node",
                "lat": 46.4189255,
                "lon": 15.8772918,
                "addr:city": "Ptuj",
                "addr:country": "SI",
                "addr:housenumber": "3",
                "addr:postcode": "2250",
                "addr:street": "Ormoška cesta",
                "amenity": "fast_food",
                "brand": "McDonald's",
                "brand:wikidata": "Q38076",
                "brand:wikipedia": "en:McDonald's",
                "cuisine": "burger",
                "drive_through": "yes",
                "name": "McDonald's",
                "opening_hours": "Mo-Sa 08:00-00:00; Su 09:00-00:00",
                "opening_hours:drive_through": "Mo-Th 08:00-00:00; Fr-Sa 08:00-01:00; Su 09:00-00:00",
                "operator": "ALPE-PANON d.o.o.",
                "phone": "+386 59 689 721",
                "takeaway": "yes",
                "website": "https://www.mcdonalds.si/restavracije/ptuj/"
              },
              "geometry": {
                "type": "Point",
                "coordinates": [
                  15.8772918,
                  46.4189255
                ]
              }
            },
            {
              "type": "Feature",
              "properties": {
                "id": "12250110201",
                "osm_type": "node",
                "lat": 46.4172932,
                "lon": 15.9947256,
                "amenity": "fast_food",
                "name": "Fast food Čučo",
                "opening_hours": "Mo-Th 10:00-22:00; Fr 10:00-23:59; Sa 12:00-22:00; Su 15:00-22:00",
                "phone": "+38641387770"
              },
              "geometry": {
                "type": "Point",
                "coordinates": [
                  15.9947256,
                  46.4172932
                ]
              }
            },
            {
              "type": "Feature",
              "properties": {
                "id": "3380893278",
                "osm_type": "node",
                "lat": 46.5184418,
                "lon": 16.1963618,
                "addr:city": "Ljutomer",
                "addr:postcode": "9240",
                "addr:street": "Glavni trg",
                "amenity": "fast_food",
                "cuisine": "burger",
                "delivery": "yes",
                "email": "tara.bts@gmail.com",
                "name": "Grilbox",
                "phone": "+386 70 297 298",
                "takeaway": "yes",
                "website": "https://www.grilbox.com/"
              },
              "geometry": {
                "type": "Point",
                "coordinates": [
                  16.1963618,
                  46.5184418
                ]
              }
            }
          ],
          "children": []
        },
        {
          "bbox": {
            "south": 46.537928625000006,
            "west": 15.253173,
            "north": 46.70320525,
            "east": 15.73002475
          },
          "poiCount": 27,
          "leafCount": 27,
          "averagePosition": [
            15.64783402962963,
            46.56261367037037
          ],
          "data": [
            {
              "type": "Feature",
              "properties": {
                "id": "1842878208",
                "osm_type": "node",
                "lat": 46.5537629,
                "lon": 15.6515892,
                "amenity": "fast_food",
                "brand": "McDonald's",
                "brand:wikidata": "Q38076",
                "cuisine": "burger",
                "level": "0",
                "name": "McDonald's",
                "takeaway": "yes",
                "website": "https://mcdonalds.si/restavracije/europark-maribor"
              },
              "geometry": {
                "type": "Point",
                "coordinates": [
                  15.6515892,
                  46.5537629
                ]
              }
            },
            {
              "type": "Feature",
              "properties": {
                "id": "2231606697",
                "osm_type": "node",
                "lat": 46.6956075,
                "lon": 15.6376651,
                "addr:city": "Straß in Steiermark",
                "addr:country": "AT",
                "addr:housename": "Mefail",
                "addr:housenumber": "11",
                "addr:postcode": "8472",
                "addr:street": "Bundesstraße",
                "addr:suburb": "Spielfeld",
                "amenity": "fast_food",
                "at_bev:addr_date": "2018-04-02",
                "contact:phone": "+43 3453 33370",
                "name": "Imbisstube Adria",
                "operator": "Adria&Ismaili Mefail",
                "snack": "yes",
                "source": "TVB Südsteiermark",
                "weinmobil:note": "Bitte weinmobil:ref nicht entfernen, dient zum automatischen Update.",
                "weinmobil:ref": "82"
              },
              "geometry": {
                "type": "Point",
                "coordinates": [
                  15.6376651,
                  46.6956075
                ]
              }
            },
            {
              "type": "Feature",
              "properties": {
                "id": "2343249914",
                "osm_type": "node",
                "lat": 46.5590879,
                "lon": 15.6507283,
                "addr:city": "Maribor",
                "addr:housenumber": "5",
                "addr:postcode": "2000",
                "addr:street": "Ulica Vita Kraigherja",
                "amenity": "fast_food",
                "name": "MC Panda",
                "opening_hours": "Mo-Sa 9:00-21:00",
                "phone": "+386 7 048 6373",
                "website": "https://www.facebook.com/MC-PANDA-1598546286829603/"
              },
              "geometry": {
                "type": "Point",
                "coordinates": [
                  15.6507283,
                  46.5590879
                ]
              }
            },
            {
              "type": "Feature",
              "properties": {
                "id": "2561703197",
                "osm_type": "node",
                "lat": 46.5607639,
                "lon": 15.6393706,
                "addr:city": "Maribor",
                "addr:housenumber": "19",
                "addr:postcode": "2000",
                "addr:street": "Gosposvetska cesta",
                "amenity": "fast_food",
                "name": "Lunch Box Maribor",
                "opening_hours": "Mo-Th 6:30-20:00; Fr 6:30-16:00",
                "outdoor_seating": "yes",
                "phone": "+386 5 912 2150",
                "website": "https://www.facebook.com/Lunch-Box-1632896273665653/"
              },
              "geometry": {
                "type": "Point",
                "coordinates": [
                  15.6393706,
                  46.5607639
                ]
              }
            },
            {
              "type": "Feature",
              "properties": {
                "id": "2701196859",
                "osm_type": "node",
                "lat": 46.5606952,
                "lon": 15.6396732,
                "addr:city": "Maribor",
                "addr:housenumber": "15",
                "addr:postcode": "2000",
                "addr:street": "Gosposvetska cesta",
                "amenity": "fast_food",
                "cuisine": "sandwich",
                "email": "kanape.maribor@gmail.com",
                "name": "Kanape",
                "opening_hours": "Mo-Fr 7:30-20:00",
                "phone": "+386 70 773 549",
                "website": "https://www.facebook.com/Kanape0/"
              },
              "geometry": {
                "type": "Point",
                "coordinates": [
                  15.6396732,
                  46.5606952
                ]
              }
            },
            {
              "type": "Feature",
              "properties": {
                "id": "3010352401",
                "osm_type": "node",
                "lat": 46.5583579,
                "lon": 15.6447368,
                "addr:city": "Maribor",
                "addr:housenumber": "3",
                "addr:postcode": "2000",
                "addr:street": "Poštna ulica",
                "amenity": "fast_food",
                "check_date:currency:XBT": "2024-11-25",
                "cuisine": "pizza",
                "currency:XBT": "yes",
                "name": "La Pizza",
                "opening_hours": "Mo-Fr 10:00-22:30; Sa-Sun 11:00-22:30; Sa 9:00-2:00; Su 10:00-0:00",
                "outdoor_seating": "yes",
                "payment:lightning": "yes",
                "phone": "+386 51 300 027",
                "smoking": "outside",
                "takeaway": "yes",
                "website": "https://www.lapizza.si/"
              },
              "geometry": {
                "type": "Point",
                "coordinates": [
                  15.6447368,
                  46.5583579
                ]
              }
            },
            {
              "type": "Feature",
              "properties": {
                "id": "4845788522",
                "osm_type": "node",
                "lat": 46.5616615,
                "lon": 15.6572694,
                "addr:country": "SI",
                "addr:housenumber": "50",
                "addr:street": "Partizanska cesta",
                "amenity": "fast_food",
                "indoor_seating": "no",
                "level": "0",
                "name": "Okrepčevalnica pri Lokomotivi",
                "opening_hours": "Mo-Su 06:00-23:00",
                "operator": "Muharem Fejzulai s.p.",
                "outdoor_seating": "yes",
                "phone": "+386 30 384 940"
              },
              "geometry": {
                "type": "Point",
                "coordinates": [
                  15.6572694,
                  46.5616615
                ]
              }
            },
            {
              "type": "Feature",
              "properties": {
                "id": "4897852801",
                "osm_type": "node",
                "lat": 46.5595403,
                "lon": 15.6555145,
                "addr:housenumber": "1",
                "addr:street": "Mlinska ulica",
                "amenity": "fast_food",
                "name": "Okrepčevalnica Hambi"
              },
              "geometry": {
                "type": "Point",
                "coordinates": [
                  15.6555145,
                  46.5595403
                ]
              }
            },
            {
              "type": "Feature",
              "properties": {
                "id": "4897852818",
                "osm_type": "node",
                "lat": 46.5618973,
                "lon": 15.655704,
                "addr:city": "Maribor",
                "addr:housenumber": "2",
                "addr:postcode": "2000",
                "addr:street": "Trg Borisa Kidriča",
                "amenity": "fast_food",
                "cuisine": "sandwich;smoothies;salad",
                "name": "Fresh 4 Life",
                "opening_hours": "Mo-Fr 7:30-18:00",
                "outdoor_seating": "yes",
                "smoking": "outside"
              },
              "geometry": {
                "type": "Point",
                "coordinates": [
                  15.655704,
                  46.5618973
                ]
              }
            },
            {
              "type": "Feature",
              "properties": {
                "id": "4942463322",
                "osm_type": "node",
                "lat": 46.545998,
                "lon": 15.6437426,
                "addr:housenumber": "42",
                "addr:street": "Ljubljanska ulica",
                "amenity": "fast_food",
                "name": "Nočko",
                "name:sl": "Nočko"
              },
              "geometry": {
                "type": "Point",
                "coordinates": [
                  15.6437426,
                  46.545998
                ]
              }
            },
            {
              "type": "Feature",
              "properties": {
                "id": "5018458882",
                "osm_type": "node",
                "lat": 46.5546689,
                "lon": 15.6475635,
                "addr:housenumber": "2",
                "addr:street": "Taborska ulica",
                "amenity": "fast_food",
                "contact:facebook": "https://www.facebook.com/profile.php?id=61550687537091",
                "cuisine": "fries",
                "name": "Krompirček",
                "opening_hours": "Mo-Th 10:00-20:00; Fr,Sa 12:00-22:00",
                "takeaway": "yes",
                "website": "https://krompircek.com/"
              },
              "geometry": {
                "type": "Point",
                "coordinates": [
                  15.6475635,
                  46.5546689
                ]
              }
            },
            {
              "type": "Feature",
              "properties": {
                "id": "5124959021",
                "osm_type": "node",
                "lat": 46.5577173,
                "lon": 15.6431209,
                "addr:city": "Maribor",
                "addr:housenumber": "9",
                "addr:postcode": "2000",
                "addr:street": "Koroška cesta",
                "amenity": "fast_food",
                "name": "MM Panda",
                "opening_hours": "Mo-Fr 09:00-00:00; Sa 15:00-02:00; Su 15:00-23:00",
                "phone": "+38622208760",
                "wheelchair": "yes"
              },
              "geometry": {
                "type": "Point",
                "coordinates": [
                  15.6431209,
                  46.5577173
                ]
              }
            },
            {
              "type": "Feature",
              "properties": {
                "id": "5140328341",
                "osm_type": "node",
                "lat": 46.5590282,
                "lon": 15.6351087,
                "addr:housenumber": "59",
                "addr:street": "Koroška cesta",
                "amenity": "fast_food",
                "amenity_1": "cafe",
                "name": "Kavarna Stil burger",
                "opening_hours": "Mo-Fr 6:00-22:00; Sa 7:00-22:00; Su 8:00-15:00",
                "website": "https://www.facebook.com/Kavarna-stil-Burger-300298472047/"
              },
              "geometry": {
                "type": "Point",
                "coordinates": [
                  15.6351087,
                  46.5590282
                ]
              }
            },
            {
              "type": "Feature",
              "properties": {
                "id": "5140328363",
                "osm_type": "node",
                "lat": 46.5565995,
                "lon": 15.6464868,
                "amenity": "fast_food",
                "currency:XBT": "yes",
                "delivery": "yes",
                "drive_through": "no",
                "name": "Šiš Maribor",
                "opening_hours": "Mo-Th 9:00-0:00; Fr 9:00-2:00; Sa 12:00-2:00; Su 12:00-0:00",
                "payment:lightning": "yes",
                "phone": "+386 2 621 22 99",
                "survey:date": "2024-11-02",
                "website": "https://www.bacon.si/"
              },
              "geometry": {
                "type": "Point",
                "coordinates": [
                  15.6464868,
                  46.5565995
                ]
              }
            },
            {
              "type": "Feature",
              "properties": {
                "id": "5143942199",
                "osm_type": "node",
                "lat": 46.5504441,
                "lon": 15.6440082,
                "addr:housenumber": "8b",
                "addr:street": "Jezdarska ulica",
                "amenity": "fast_food",
                "email": "megusta.mb@gmail.com",
                "name": "Me Gusta",
                "opening_hours": "Mo-Fr 7:00-20:00"
              },
              "geometry": {
                "type": "Point",
                "coordinates": [
                  15.6440082,
                  46.5504441
                ]
              }
            },
            {
              "type": "Feature",
              "properties": {
                "id": "5225491969",
                "osm_type": "node",
                "lat": 46.5594284,
                "lon": 15.6477499,
                "addr:city": "Maribor",
                "addr:housenumber": "15",
                "addr:street": "Vetrinjska ulica",
                "amenity": "fast_food",
                "cuisine": "chinese",
                "name": "Wok Mix",
                "opening_hours": "Mo-Sa 10:00-20:00",
                "outdoor_seating": "yes",
                "phone": "+386 68 186 558",
                "takeaway": "yes",
                "website": "https://www.facebook.com/pg/WokMB/"
              },
              "geometry": {
                "type": "Point",
                "coordinates": [
                  15.6477499,
                  46.5594284
                ]
              }
            },
            {
              "type": "Feature",
              "properties": {
                "id": "5227211514",
                "osm_type": "node",
                "lat": 46.5613132,
                "lon": 15.6555015,
                "addr:housenumber": "4",
                "addr:street": "Cafova ulica",
                "amenity": "fast_food",
                "cuisine": "pizza;sandwich",
                "name": "Tasty snacks",
                "opening_hours": "Mo-Th 8:00-18:00; Fr 8:00-16:00",
                "outdoor_seating": "yes",
                "takeaway": "yes"
              },
              "geometry": {
                "type": "Point",
                "coordinates": [
                  15.6555015,
                  46.5613132
                ]
              }
            },
            {
              "type": "Feature",
              "properties": {
                "id": "5229582602",
                "osm_type": "node",
                "lat": 46.5612293,
                "lon": 15.6552051,
                "addr:city": "Maribor",
                "addr:housenumber": "5",
                "addr:postcode": "2000",
                "addr:street": "Cafova ulica",
                "amenity": "fast_food",
                "cuisine": "sushi",
                "email": "grega@njami-sushi.si",
                "name": "Njami sushi Maribor",
                "operator": "Gregor Jagodnik s.p.",
                "phone": "+386 31 212 165",
                "website": "https://www.njami-sushi.si/"
              },
              "geometry": {
                "type": "Point",
                "coordinates": [
                  15.6552051,
                  46.5612293
                ]
              }
            },
            {
              "type": "Feature",
              "properties": {
                "id": "5235619774",
                "osm_type": "node",
                "lat": 46.5585984,
                "lon": 15.6477338,
                "addr:city": "Maribor",
                "addr:housenumber": "9",
                "addr:street": "Vetrinjska ulica",
                "amenity": "fast_food",
                "name": "Fresh 4 life",
                "opening_hours": "Mo-Fr 07:30-18:00",
                "website": "https://www.facebook.com/Fresh-4-life-1593196114255574/"
              },
              "geometry": {
                "type": "Point",
                "coordinates": [
                  15.6477338,
                  46.5585984
                ]
              }
            },
            {
              "type": "Feature",
              "properties": {
                "id": "5290493919",
                "osm_type": "node",
                "lat": 46.5595252,
                "lon": 15.6417163,
                "addr:housenumber": "13",
                "addr:street": "Strossmayerjeva ulica",
                "amenity": "fast_food",
                "cuisine": "sandwich;smoothies;salad",
                "email": "eatsmart.mb@gmail.com",
                "name": "Eat Smart",
                "website": "http://www.eatsmart.si/eatsmart-strossmayerjeva-ulica-13"
              },
              "geometry": {
                "type": "Point",
                "coordinates": [
                  15.6417163,
                  46.5595252
                ]
              }
            },
            {
              "type": "Feature",
              "properties": {
                "id": "5699202681",
                "osm_type": "node",
                "lat": 46.5603768,
                "lon": 15.6461184,
                "addr:city": "Maribor",
                "addr:housenumber": "18",
                "addr:postcode": "2000",
                "addr:street": "Slovenska ulica",
                "amenity": "fast_food",
                "name": "City Grill",
                "opening_hours": "Mo-Sa 09:00-20:00",
                "phone": "+386 2 251 3887"
              },
              "geometry": {
                "type": "Point",
                "coordinates": [
                  15.6461184,
                  46.5603768
                ]
              }
            },
            {
              "type": "Feature",
              "properties": {
                "id": "5762279590",
                "osm_type": "node",
                "lat": 46.5455759,
                "lon": 15.6433149,
                "amenity": "fast_food",
                "name": "Okrepčevalnica Čao-Čao",
                "outdoor_seating": "yes",
                "website": "https://www.facebook.com/okrepcevalnica.caocao.35"
              },
              "geometry": {
                "type": "Point",
                "coordinates": [
                  15.6433149,
                  46.5455759
                ]
              }
            },
            {
              "type": "Feature",
              "properties": {
                "id": "8618704663",
                "osm_type": "node",
                "lat": 46.5546894,
                "lon": 15.6720107,
                "addr:housenumber": "21",
                "addr:street": "Čufarjeva cesta",
                "amenity": "fast_food",
                "email": "rushit_rushiti@icloud.com",
                "name": "Fast food Pobrežje",
                "phone": "+386 70 338 393",
                "website": "https://www.facebook.com/Fast-food-Pobre%C5%BEje-102084278284603/"
              },
              "geometry": {
                "type": "Point",
                "coordinates": [
                  15.6720107,
                  46.5546894
                ]
              }
            },
            {
              "type": "Feature",
              "properties": {
                "id": "10998346734",
                "osm_type": "node",
                "lat": 46.558982,
                "lon": 15.6455505,
                "amenity": "fast_food",
                "cuisine": "fish"
              },
              "geometry": {
                "type": "Point",
                "coordinates": [
                  15.6455505,
                  46.558982
                ]
              }
            },
            {
              "type": "Feature",
              "properties": {
                "id": "11023602165",
                "osm_type": "node",
                "lat": 46.5606639,
                "lon": 15.6398412,
                "amenity": "fast_food",
                "check_date": "2023-07-09",
                "email": "pikapolonicamaribor@gmail.com",
                "image:0": "https://i.imgur.com/kZV9lzj.jpg",
                "name": "Pikapolonica",
                "opening_hours": "Mo-Su 07:00-20:00",
                "outdoor_seating": "yes",
                "phone": "+386 70 459 645",
                "website": "https://www.gostilnapikapolonica.si"
              },
              "geometry": {
                "type": "Point",
                "coordinates": [
                  15.6398412,
                  46.5606639
                ]
              }
            },
            {
              "type": "Feature",
              "properties": {
                "id": "13063852433",
                "osm_type": "node",
                "lat": 46.5522651,
                "lon": 15.647591,
                "amenity": "fast_food"
              },
              "geometry": {
                "type": "Point",
                "coordinates": [
                  15.647591,
                  46.5522651
                ]
              }
            },
            {
              "type": "Feature",
              "properties": {
                "id": "13089586101",
                "osm_type": "node",
                "lat": 46.5620911,
                "lon": 15.6569037,
                "amenity": "fast_food",
                "opening_hours": "Mo-Fr 09:00-22:00; Sa 14:00-22:00"
              },
              "geometry": {
                "type": "Point",
                "coordinates": [
                  15.6569037,
                  46.5620911
                ]
              }
            }
          ],
          "children": []
        },
        {
          "bbox": {
            "south": 46.537928625000006,
            "west": 15.73002475,
            "north": 46.70320525,
            "east": 16.2068765
          },
          "poiCount": 7,
          "leafCount": 7,
          "averagePosition": [
            16.115413842857144,
            46.64074195714285
          ],
          "data": [
            {
              "type": "Feature",
              "properties": {
                "id": "5543374374",
                "osm_type": "node",
                "lat": 46.5767352,
                "lon": 15.8301735,
                "amenity": "fast_food",
                "name": "Fast food Lenart"
              },
              "geometry": {
                "type": "Point",
                "coordinates": [
                  15.8301735,
                  46.5767352
                ]
              }
            },
            {
              "type": "Feature",
              "properties": {
                "id": "3098275272",
                "osm_type": "node",
                "lat": 46.6601143,
                "lon": 16.163707,
                "addr:city": "Murska Sobota",
                "addr:housenumber": "5",
                "addr:postcode": "9000",
                "addr:street": "Kocljeva ulica",
                "amenity": "fast_food",
                "check_date": "2025-01-26",
                "cuisine": "burger;kebab",
                "drive_through": "no",
                "name": "Pajdaš",
                "opening_hours": "Mo-Th,Su 08:00-24:00; Fr-Sa 08:00-01:00",
                "ref:gurs:hs_mid": "13525811",
                "source:addr": "GURS"
              },
              "geometry": {
                "type": "Point",
                "coordinates": [
                  16.163707,
                  46.6601143
                ]
              }
            },
            {
              "type": "Feature",
              "properties": {
                "id": "3098275274",
                "osm_type": "node",
                "lat": 46.6605901,
                "lon": 16.163655,
                "addr:city": "Murska Sobota",
                "addr:housenumber": "1a",
                "addr:postcode": "9000",
                "addr:street": "Kocljeva ulica",
                "amenity": "fast_food",
                "check_date": "2025-01-26",
                "cuisine": "kebab",
                "name": "Kebapči Aga",
                "opening_hours": "Mo-Sa 08:30-23:30; Su 11:00-23:30"
              },
              "geometry": {
                "type": "Point",
                "coordinates": [
                  16.163655,
                  46.6605901
                ]
              }
            },
            {
              "type": "Feature",
              "properties": {
                "id": "3109187966",
                "osm_type": "node",
                "lat": 46.6609616,
                "lon": 16.1645953,
                "addr:city": "Murska Sobota",
                "addr:housenumber": "8",
                "addr:postcode": "9000",
                "addr:street": "Trg Zmage",
                "amenity": "fast_food",
                "check_date": "2025-01-26",
                "cuisine": "kebab",
                "name": "Beli",
                "opening_hours": "Mo-Th 08:00-24:00; Fr-Sa 08:00-04:00; Su 12:00-24:00"
              },
              "geometry": {
                "type": "Point",
                "coordinates": [
                  16.1645953,
                  46.6609616
                ]
              }
            },
            {
              "type": "Feature",
              "properties": {
                "id": "3677149942",
                "osm_type": "node",
                "lat": 46.6112973,
                "lon": 16.1478009,
                "addr:city": "Murska Sobota",
                "addr:housenumber": "25",
                "addr:postcode": "9000",
                "addr:street": "Ribiška ulica",
                "addr:village": "Bakovci",
                "amenity": "fast_food",
                "cuisine": "pizza",
                "name": "Okrepčevalnica Stara Möra",
                "ref:gurs:hs_mid": "13413240"
              },
              "geometry": {
                "type": "Point",
                "coordinates": [
                  16.1478009,
                  46.6112973
                ]
              }
            },
            {
              "type": "Feature",
              "properties": {
                "id": "11687528451",
                "osm_type": "node",
                "lat": 46.6569892,
                "lon": 16.1744969,
                "addr:housenumber": "2",
                "addr:postcode": "9000",
                "addr:street": "Plese",
                "amenity": "fast_food",
                "name": "Jasha Brewing",
                "opening_hours": "Mo-We 07:00-20:00; Th 07:00-22:00; Fr 07:00-24:00; Sa 09:00-24:00",
                "website": "https://www.facebook.com/JashaBrewing/"
              },
              "geometry": {
                "type": "Point",
                "coordinates": [
                  16.1744969,
                  46.6569892
                ]
              }
            },
            {
              "type": "Feature",
              "properties": {
                "id": "12739546075",
                "osm_type": "node",
                "lat": 46.658506,
                "lon": 16.1634683,
                "amenity": "fast_food",
                "check_date": "2025-04-10",
                "name": "Frunca StreetFood"
              },
              "geometry": {
                "type": "Point",
                "coordinates": [
                  16.1634683,
                  46.658506
                ]
              }
            }
          ],
          "children": []
        }
      ]
    },
    {
      "bbox": {
        "south": 46.372652,
        "west": 16.2068765,
        "north": 46.70320525,
        "east": 17.16058
      },
      "poiCount": 33,
      "leafCount": 33,
      "averagePosition": [
        16.719788609090912,
        46.478592575757574
      ],
      "data": [
        {
          "type": "Feature",
          "properties": {
            "id": "3034002298",
            "osm_type": "node",
            "lat": 46.3879298,
            "lon": 16.4408272,
            "addr:city": "Čakovec",
            "addr:housenumber": "3",
            "addr:postcode": "40000",
            "addr:street": "Ulica dr. Ante Starčevića",
            "amenity": "fast_food",
            "name": "KING Fast Food",
            "opening_hours": "Mo-Th 16:00-23:45; Fr-Sa 16:00-02:00 Su 16:00-23:45"
          },
          "geometry": {
            "type": "Point",
            "coordinates": [
              16.4408272,
              46.3879298
            ]
          }
        },
        {
          "type": "Feature",
          "properties": {
            "id": "3468083361",
            "osm_type": "node",
            "lat": 46.58649,
            "lon": 16.50936,
            "amenity": "fast_food",
            "name": "Tó büfé",
            "source": "turistautak.hu",
            "source:date": "2011-09-19",
            "url": "http://turistautak.hu/poi.php?id=18372"
          },
          "geometry": {
            "type": "Point",
            "coordinates": [
              16.50936,
              46.58649
            ]
          }
        },
        {
          "type": "Feature",
          "properties": {
            "id": "3815606868",
            "osm_type": "node",
            "lat": 46.3906864,
            "lon": 16.4361782,
            "addr:city": "Čakovec",
            "addr:housenumber": "2",
            "addr:postcode": "40000",
            "addr:street": "Katarine Zrinski",
            "amenity": "fast_food",
            "name": "Pajdaš",
            "opening_hours": "Mo-Th 08:00-24:00; Fr-Sa 08:00-02:00; Su 10:00-12:00",
            "phone": "+385 99 575 1389"
          },
          "geometry": {
            "type": "Point",
            "coordinates": [
              16.4361782,
              46.3906864
            ]
          }
        },
        {
          "type": "Feature",
          "properties": {
            "id": "3815606869",
            "osm_type": "node",
            "lat": 46.3907778,
            "lon": 16.4360069,
            "amenity": "fast_food",
            "name": "XXL"
          },
          "geometry": {
            "type": "Point",
            "coordinates": [
              16.4360069,
              46.3907778
            ]
          }
        },
        {
          "type": "Feature",
          "properties": {
            "id": "3815606870",
            "osm_type": "node",
            "lat": 46.3908532,
            "lon": 16.4353383,
            "addr:city": "Čakovec",
            "addr:housenumber": "6",
            "addr:postcode": "40000",
            "addr:street": "Trg Republike",
            "amenity": "fast_food",
            "name": "Fast food Döner",
            "opening_hours": "Mo-Fr 07:00-19:00, Sa 07.00 - 13.00, Su 07:00-22:00",
            "phone": "+385 97 798 3847"
          },
          "geometry": {
            "type": "Point",
            "coordinates": [
              16.4353383,
              46.3908532
            ]
          }
        },
        {
          "type": "Feature",
          "properties": {
            "id": "3887518373",
            "osm_type": "node",
            "lat": 46.3896335,
            "lon": 16.4377453,
            "addr:city": "Čakovec",
            "addr:housenumber": "14",
            "addr:postcode": "40000",
            "addr:street": "Ulica kralja Tomislava",
            "amenity": "fast_food",
            "cuisine": "pizza;kebab;burger",
            "name": "Doner House",
            "phone": "+385 95 355 2888",
            "website": "https://www.facebook.com/profile.php?id=100078125650462"
          },
          "geometry": {
            "type": "Point",
            "coordinates": [
              16.4377453,
              46.3896335
            ]
          }
        },
        {
          "type": "Feature",
          "properties": {
            "id": "5245998244",
            "osm_type": "node",
            "lat": 46.5627839,
            "lon": 16.4513887,
            "addr:city": "Lendava",
            "addr:postcode": "9220",
            "addr:street": "Mlinska ulica / Malom utca",
            "amenity": "fast_food",
            "name": "Okrepčevalnica 9 do 10",
            "operator": "Zok d.o.o.",
            "website": "https://www.zok.si/"
          },
          "geometry": {
            "type": "Point",
            "coordinates": [
              16.4513887,
              46.5627839
            ]
          }
        },
        {
          "type": "Feature",
          "properties": {
            "id": "6080808499",
            "osm_type": "node",
            "lat": 46.6155531,
            "lon": 16.4792281,
            "amenity": "fast_food",
            "name": "Büfé Falatozó",
            "source": "route4u"
          },
          "geometry": {
            "type": "Point",
            "coordinates": [
              16.4792281,
              46.6155531
            ]
          }
        },
        {
          "type": "Feature",
          "properties": {
            "id": "6612628508",
            "osm_type": "node",
            "lat": 46.394286,
            "lon": 16.435212,
            "addr:city": "Čakovec",
            "addr:housenumber": "1E",
            "addr:postcode": "40000",
            "addr:street": "Ulica Ivana Gorana Kovačića",
            "amenity": "fast_food",
            "name": "Fašeranec",
            "opening_hours": "Mo-Fr 07:00-20:00; Sa-Su 09:00-20:00"
          },
          "geometry": {
            "type": "Point",
            "coordinates": [
              16.435212,
              46.394286
            ]
          }
        },
        {
          "type": "Feature",
          "properties": {
            "id": "9147737529",
            "osm_type": "node",
            "lat": 46.3890138,
            "lon": 16.4138835,
            "amenity": "fast_food",
            "name": "Kaufland Roštilj",
            "takeaway": "yes",
            "wheelchair": "yes"
          },
          "geometry": {
            "type": "Point",
            "coordinates": [
              16.4138835,
              46.3890138
            ]
          }
        },
        {
          "type": "Feature",
          "properties": {
            "id": "12196669020",
            "osm_type": "node",
            "lat": 46.3993585,
            "lon": 16.4500188,
            "addr:city": "Čakovec",
            "addr:postcode": "40000",
            "addr:street": "Mihovljanska ulica",
            "amenity": "fast_food",
            "cuisine": "burger;grill",
            "name": "Pušiona",
            "phone": "+385 92 416 2773",
            "website": "https://www.facebook.com/pusiona"
          },
          "geometry": {
            "type": "Point",
            "coordinates": [
              16.4500188,
              46.3993585
            ]
          }
        },
        {
          "type": "Feature",
          "properties": {
            "id": "12196669021",
            "osm_type": "node",
            "lat": 46.3904948,
            "lon": 16.4348548,
            "addr:city": "Čakovec",
            "addr:housenumber": "6",
            "addr:postcode": "40000",
            "addr:street": "Trg Republike",
            "amenity": "fast_food",
            "name": "Sarajka Ćevabdžinica",
            "phone": "+385 40 314 328"
          },
          "geometry": {
            "type": "Point",
            "coordinates": [
              16.4348548,
              46.3904948
            ]
          }
        },
        {
          "type": "Feature",
          "properties": {
            "id": "12196669022",
            "osm_type": "node",
            "lat": 46.3903541,
            "lon": 16.4362751,
            "addr:city": "Čakovec",
            "addr:housenumber": "2",
            "addr:postcode": "40000",
            "addr:street": "Ulica Katarine Zrinski",
            "amenity": "fast_food",
            "name": "Fast Food Paradajz",
            "phone": "+385 40 313 032"
          },
          "geometry": {
            "type": "Point",
            "coordinates": [
              16.4362751,
              46.3903541
            ]
          }
        },
        {
          "type": "Feature",
          "properties": {
            "id": "12196669023",
            "osm_type": "node",
            "lat": 46.3923007,
            "lon": 16.4182024,
            "addr:city": "Čakovec",
            "addr:housenumber": "2",
            "addr:postcode": "40000",
            "addr:street": "Športska ulica",
            "amenity": "fast_food",
            "name": "Objekt brze prehrane \"Bazen\"",
            "opening_hours": "Su - Thu 08:00-22:00, Fr - Sa 08:00 - 24:00",
            "phone": "+385 40 328 210",
            "website": "https://ekom.hr/ugostiteljstvo/"
          },
          "geometry": {
            "type": "Point",
            "coordinates": [
              16.4182024,
              46.3923007
            ]
          }
        },
        {
          "type": "Feature",
          "properties": {
            "id": "2366239514",
            "osm_type": "node",
            "lat": 46.4553836,
            "lon": 16.9879702,
            "amenity": "fast_food",
            "cuisine": "kebab",
            "drive_through": "no",
            "name": "Ankara kebab"
          },
          "geometry": {
            "type": "Point",
            "coordinates": [
              16.9879702,
              46.4553836
            ]
          }
        },
        {
          "type": "Feature",
          "properties": {
            "id": "2366239568",
            "osm_type": "node",
            "lat": 46.4545349,
            "lon": 16.9927732,
            "amenity": "fast_food",
            "name": "Centrum Burger",
            "toilets:wheelchair": "no",
            "wheelchair": "limited"
          },
          "geometry": {
            "type": "Point",
            "coordinates": [
              16.9927732,
              46.4545349
            ]
          }
        },
        {
          "type": "Feature",
          "properties": {
            "id": "2505001542",
            "osm_type": "node",
            "lat": 46.45546,
            "lon": 16.9920034,
            "amenity": "fast_food",
            "level": "0",
            "name": "Piramis",
            "opening_hours": "Mo-Fr 10:00-21:00; Sa 16:00-22:00"
          },
          "geometry": {
            "type": "Point",
            "coordinates": [
              16.9920034,
              46.45546
            ]
          }
        },
        {
          "type": "Feature",
          "properties": {
            "id": "2508600787",
            "osm_type": "node",
            "lat": 46.4540621,
            "lon": 16.9897657,
            "amenity": "fast_food",
            "cuisine": "greek",
            "name": "Gyros Ételbár"
          },
          "geometry": {
            "type": "Point",
            "coordinates": [
              16.9897657,
              46.4540621
            ]
          }
        },
        {
          "type": "Feature",
          "properties": {
            "id": "2862051951",
            "osm_type": "node",
            "lat": 46.6226399,
            "lon": 16.5414657,
            "amenity": "fast_food",
            "name": "Kebab"
          },
          "geometry": {
            "type": "Point",
            "coordinates": [
              16.5414657,
              46.6226399
            ]
          }
        },
        {
          "type": "Feature",
          "properties": {
            "id": "2960685179",
            "osm_type": "node",
            "lat": 46.4483338,
            "lon": 16.9938591,
            "amenity": "fast_food"
          },
          "geometry": {
            "type": "Point",
            "coordinates": [
              16.9938591,
              46.4483338
            ]
          }
        },
        {
          "type": "Feature",
          "properties": {
            "id": "3468083296",
            "osm_type": "node",
            "lat": 46.5934769,
            "lon": 16.5480859,
            "amenity": "fast_food",
            "email": "dalma@t-online.hu",
            "name": "Hegyibolt büfé",
            "phone": "+36 70 384 6600",
            "source": "turistautak.hu",
            "source:date": "2013-09-04",
            "url": "http://turistautak.hu/poi.php?id=50394;http://turistautak.hu/poi.php?id=18362"
          },
          "geometry": {
            "type": "Point",
            "coordinates": [
              16.5480859,
              46.5934769
            ]
          }
        },
        {
          "type": "Feature",
          "properties": {
            "id": "4933470394",
            "osm_type": "node",
            "lat": 46.5549871,
            "lon": 16.5502688,
            "amenity": "fast_food",
            "fixme": "verify",
            "name": "Kultúr Büfé Lovászi",
            "source": "route4u"
          },
          "geometry": {
            "type": "Point",
            "coordinates": [
              16.5502688,
              46.5549871
            ]
          }
        },
        {
          "type": "Feature",
          "properties": {
            "id": "6083664196",
            "osm_type": "node",
            "lat": 46.4539839,
            "lon": 16.9897571,
            "amenity": "fast_food",
            "contact:facebook": "https://www.facebook.com/Partisan-P%C3%A9ks%C3%A9g-220523288884532",
            "contact:instagram": "partisanpekseg",
            "contact:website": "https://partisanpekseg.hu/",
            "description:hu": "büfé",
            "name": "Partisan Kézműves Pékség",
            "opening_hours": "Mo-Fr 06:00-18:00",
            "shop": "bakery"
          },
          "geometry": {
            "type": "Point",
            "coordinates": [
              16.9897571,
              46.4539839
            ]
          }
        },
        {
          "type": "Feature",
          "properties": {
            "id": "7645810781",
            "osm_type": "node",
            "lat": 46.4938122,
            "lon": 16.7433918,
            "addr:city": "Kistolmács",
            "addr:housenumber": "45",
            "addr:postcode": "8868",
            "addr:street": "Petőfi Sándor utca",
            "amenity": "fast_food",
            "cuisine": "lángos;burger;frissensült",
            "drive_through": "no",
            "name": "Nefelejcs",
            "opening_hours": "Mo-Su 12:00-20:00",
            "phone": "+36 30 398 1256",
            "website": "https://kistolmacs-szallas.hu/"
          },
          "geometry": {
            "type": "Point",
            "coordinates": [
              16.7433918,
              46.4938122
            ]
          }
        },
        {
          "type": "Feature",
          "properties": {
            "id": "9582239426",
            "osm_type": "node",
            "lat": 46.459737,
            "lon": 17.0093435,
            "amenity": "fast_food",
            "name": "Pizza Karván",
            "phone": "+3693951622",
            "website": "https://www.pizzakaravan.hu/"
          },
          "geometry": {
            "type": "Point",
            "coordinates": [
              17.0093435,
              46.459737
            ]
          }
        },
        {
          "type": "Feature",
          "properties": {
            "id": "9917225389",
            "osm_type": "node",
            "lat": 46.4541669,
            "lon": 17.0114245,
            "air_conditioning": "no",
            "amenity": "fast_food",
            "indoor_seating": "no",
            "name": "Torkos box",
            "outdoor_seating": "yes"
          },
          "geometry": {
            "type": "Point",
            "coordinates": [
              17.0114245,
              46.4541669
            ]
          }
        },
        {
          "type": "Feature",
          "properties": {
            "id": "10840359759",
            "osm_type": "node",
            "lat": 46.4648749,
            "lon": 17.0073599,
            "alt_name": "Kentucky Fried Chicken",
            "amenity": "fast_food",
            "brand": "KFC",
            "brand:wikidata": "Q524757",
            "cuisine": "chicken",
            "name": "KFC",
            "takeaway": "yes"
          },
          "geometry": {
            "type": "Point",
            "coordinates": [
              17.0073599,
              46.4648749
            ]
          }
        },
        {
          "type": "Feature",
          "properties": {
            "id": "10938079362",
            "osm_type": "node",
            "lat": 46.6447483,
            "lon": 16.8340622,
            "amenity": "fast_food",
            "name": "büfé"
          },
          "geometry": {
            "type": "Point",
            "coordinates": [
              16.8340622,
              46.6447483
            ]
          }
        },
        {
          "type": "Feature",
          "properties": {
            "id": "11763909656",
            "osm_type": "node",
            "lat": 46.4551521,
            "lon": 16.990286,
            "addr:city": "Nagykanizsa",
            "addr:housenumber": "3/1",
            "addr:postcode": "8800",
            "addr:street": "Fő út",
            "amenity": "fast_food",
            "contact:email": "berenyi.cukraszda@gmail.com",
            "contact:facebook": "berenyicafe",
            "contact:phone": "+36 93 571 082",
            "cuisine": "pizza",
            "fixme": "verify. Bár elvileg 0-24, március 16-án (tehát még nem is ünnepnap) zárva volt.",
            "name": "Berényi Cukrászda és Pizzéria",
            "opening_hours": "24/7"
          },
          "geometry": {
            "type": "Point",
            "coordinates": [
              16.990286,
              46.4551521
            ]
          }
        },
        {
          "type": "Feature",
          "properties": {
            "id": "11881339499",
            "osm_type": "node",
            "lat": 46.4540839,
            "lon": 16.998493,
            "amenity": "fast_food",
            "brand": "Burger King",
            "brand:wikidata": "Q177054",
            "cuisine": "burger",
            "drive_through": "yes",
            "name": "Burger King",
            "takeaway": "yes"
          },
          "geometry": {
            "type": "Point",
            "coordinates": [
              16.998493,
              46.4540839
            ]
          }
        },
        {
          "type": "Feature",
          "properties": {
            "id": "3423392910",
            "osm_type": "node",
            "lat": 46.551606,
            "lon": 17.1238095,
            "amenity": "fast_food",
            "fixme": "verify",
            "name": "Önkiszolgáló étterem",
            "source": "turistautak.hu",
            "url": "http://turistautak.hu/poi.php?id=121835"
          },
          "geometry": {
            "type": "Point",
            "coordinates": [
              17.1238095,
              46.551606
            ]
          }
        },
        {
          "type": "Feature",
          "properties": {
            "id": "3454648845",
            "osm_type": "node",
            "lat": 46.7006944,
            "lon": 17.107842,
            "amenity": "fast_food",
            "name": "Presszó",
            "source": "turistautak.hu",
            "source:date": "2011-09-19",
            "url": "http://turistautak.hu/poi.php?id=122095"
          },
          "geometry": {
            "type": "Point",
            "coordinates": [
              17.107842,
              46.7006944
            ]
          }
        },
        {
          "type": "Feature",
          "properties": {
            "id": "11401361482",
            "osm_type": "node",
            "lat": 46.5513015,
            "lon": 17.1265433,
            "addr:city": "Zalakaros",
            "addr:housenumber": "6",
            "addr:postcode": "8749",
            "addr:street": "Gyógyfürdő tér",
            "amenity": "fast_food",
            "contact:email": "docepizzazalakaros@gmail.com",
            "contact:website": "https://docepizza.hu",
            "cuisine": "pizza",
            "fixme": "position",
            "name": "Doce Pizza",
            "opening_hours": "Tu-Fr 16:00-20:30; Sa 12:00-20:30"
          },
          "geometry": {
            "type": "Point",
            "coordinates": [
              17.1265433,
              46.5513015
            ]
          }
        }
      ],
      "children": []
    },
    {
      "bbox": {
        "south": 46.70320525,
        "west": 15.253173,
        "north": 47.033758500000005,
        "east": 16.2068765
      },
      "poiCount": 57,
      "leafCount": 0,
      "averagePosition": [
        15.516471921052633,
        46.9232083122807
      ],
      "data": [],
      "children": [
        {
          "bbox": {
            "south": 46.70320525,
            "west": 15.253173,
            "north": 46.868481875,
            "east": 15.73002475
          },
          "poiCount": 16,
          "leafCount": 16,
          "averagePosition": [
            15.4598131,
            46.77847724375
          ],
          "data": [
            {
              "type": "Feature",
              "properties": {
                "id": "1720250664",
                "osm_type": "node",
                "lat": 46.7574137,
                "lon": 15.3743278,
                "addr:city": "Gleinstätten",
                "addr:country": "AT",
                "addr:housenumber": "193",
                "addr:place": "Pistorf",
                "addr:postcode": "8443",
                "amenity": "fast_food",
                "cuisine": "pizza",
                "designation": "EKZ Pistorf",
                "name": "Pizza Box"
              },
              "geometry": {
                "type": "Point",
                "coordinates": [
                  15.3743278,
                  46.7574137
                ]
              }
            },
            {
              "type": "Feature",
              "properties": {
                "id": "1720250669",
                "osm_type": "node",
                "lat": 46.7573925,
                "lon": 15.3741715,
                "addr:city": "Gleinstätten",
                "addr:country": "AT",
                "addr:housenumber": "193",
                "addr:place": "Pistorf",
                "addr:postcode": "8443",
                "amenity": "fast_food",
                "at_bev:addr_date": "2018-10-01",
                "designation": "EKZ Pistorf, Cafe, Bakery",
                "fast_food": "cafeteria",
                "name": "Cafe Delight",
                "website": "http://www.cafedelight.at/de/"
              },
              "geometry": {
                "type": "Point",
                "coordinates": [
                  15.3741715,
                  46.7573925
                ]
              }
            },
            {
              "type": "Feature",
              "properties": {
                "id": "2318684145",
                "osm_type": "node",
                "lat": 46.7519083,
                "lon": 15.3613812,
                "amenity": "fast_food",
                "cuisine": "pizza;kebab",
                "name": "See Pavillon"
              },
              "geometry": {
                "type": "Point",
                "coordinates": [
                  15.3613812,
                  46.7519083
                ]
              }
            },
            {
              "type": "Feature",
              "properties": {
                "id": "5808108551",
                "osm_type": "node",
                "lat": 46.7897405,
                "lon": 15.5297708,
                "amenity": "fast_food",
                "ice_cream": "yes",
                "name": "Sulmbad Kiosk",
                "outdoor_seating": "yes"
              },
              "geometry": {
                "type": "Point",
                "coordinates": [
                  15.5297708,
                  46.7897405
                ]
              }
            },
            {
              "type": "Feature",
              "properties": {
                "id": "6807511800",
                "osm_type": "node",
                "lat": 46.7193936,
                "lon": 15.271305,
                "addr:city": "Wies",
                "addr:housenumber": "1",
                "addr:postcode": "8551",
                "addr:street": "Unterer Markt",
                "amenity": "fast_food",
                "cuisine": "pizza;kebab;burger",
                "drive_through": "no",
                "name": "Pizzeria Milano",
                "opening_hours": "Mo off; Tu-Su 11:00-21:00; PH Tu-Su 11:00-21:00",
                "phone": "+43346520668"
              },
              "geometry": {
                "type": "Point",
                "coordinates": [
                  15.271305,
                  46.7193936
                ]
              }
            },
            {
              "type": "Feature",
              "properties": {
                "id": "6807511801",
                "osm_type": "node",
                "lat": 46.7198649,
                "lon": 15.271775,
                "addr:city": "Wies",
                "addr:housenumber": "13",
                "addr:postcode": "8551",
                "addr:street": "Unterer Markt",
                "amenity": "fast_food",
                "cuisine": "pizza;burger;kebab",
                "name": "Pizzeria Cafe Venezia",
                "opening_hours": "Mo-Su,PH 11:00-22:00",
                "phone": "+43346520080"
              },
              "geometry": {
                "type": "Point",
                "coordinates": [
                  15.271775,
                  46.7198649
                ]
              }
            },
            {
              "type": "Feature",
              "properties": {
                "id": "11198324184",
                "osm_type": "node",
                "lat": 46.84264,
                "lon": 15.377453,
                "amenity": "fast_food",
                "brewery": "Puntigamer",
                "fixme": "absolut position",
                "name": "Kirchmeier"
              },
              "geometry": {
                "type": "Point",
                "coordinates": [
                  15.377453,
                  46.84264
                ]
              }
            },
            {
              "type": "Feature",
              "properties": {
                "id": "11198364168",
                "osm_type": "node",
                "lat": 46.8441132,
                "lon": 15.3791267,
                "amenity": "fast_food",
                "fixme": "exact location",
                "name": "Imbiss Steirerhans"
              },
              "geometry": {
                "type": "Point",
                "coordinates": [
                  15.3791267,
                  46.8441132
                ]
              }
            },
            {
              "type": "Feature",
              "properties": {
                "id": "1643402173",
                "osm_type": "node",
                "lat": 46.7809311,
                "lon": 15.5377487,
                "addr:city": "Leibnitz",
                "addr:postcode": "8430",
                "addr:street": "Hauptplatz",
                "amenity": "fast_food",
                "cuisine": "chinese",
                "name": "Ada´s Wok"
              },
              "geometry": {
                "type": "Point",
                "coordinates": [
                  15.5377487,
                  46.7809311
                ]
              }
            },
            {
              "type": "Feature",
              "properties": {
                "id": "2210242466",
                "osm_type": "node",
                "lat": 46.745529,
                "lon": 15.57191,
                "addr:city": "Straß in Steiermark",
                "addr:country": "AT",
                "addr:housenumber": "20",
                "addr:postcode": "8461",
                "addr:street": "Murauenstraße",
                "addr:suburb": "Obervogau",
                "amenity": "fast_food",
                "contact:phone": "+43 3453 71783",
                "operator": "Hannes Rath",
                "source": "TVB Südsteiermark",
                "weinmobil:note": "Bitte weinmobil:ref nicht entfernen, dient zum automatischen Update.",
                "weinmobil:ref": "29"
              },
              "geometry": {
                "type": "Point",
                "coordinates": [
                  15.57191,
                  46.745529
                ]
              }
            },
            {
              "type": "Feature",
              "properties": {
                "id": "7410886194",
                "osm_type": "node",
                "lat": 46.8062902,
                "lon": 15.563697,
                "addr:housename": "Fandl Hendl-Grill GmbH",
                "amenity": "fast_food",
                "building": "manufacture",
                "cuisine": "chicken",
                "name": "Fandl Hendl-Grill",
                "website": "https://www.fandl-hendl.com/"
              },
              "geometry": {
                "type": "Point",
                "coordinates": [
                  15.563697,
                  46.8062902
                ]
              }
            },
            {
              "type": "Feature",
              "properties": {
                "id": "7835603866",
                "osm_type": "node",
                "lat": 46.7213442,
                "lon": 15.5678063,
                "addr:city": "Gamlitz",
                "addr:country": "AT",
                "addr:housenumber": "322",
                "addr:postcode": "8462",
                "addr:street": "Untere Hauptstraße",
                "amenity": "fast_food",
                "contact:phone": "+43 664 753 62 297",
                "cuisine": "burger",
                "name": "Lakeside, 50's Cafe & Diner",
                "website": "https://lakeside.metro.rest/?lang=de#contact"
              },
              "geometry": {
                "type": "Point",
                "coordinates": [
                  15.5678063,
                  46.7213442
                ]
              }
            },
            {
              "type": "Feature",
              "properties": {
                "id": "10770196038",
                "osm_type": "node",
                "lat": 46.8506173,
                "lon": 15.5398591,
                "amenity": "fast_food",
                "fast_food": "cafeteria"
              },
              "geometry": {
                "type": "Point",
                "coordinates": [
                  15.5398591,
                  46.8506173
                ]
              }
            },
            {
              "type": "Feature",
              "properties": {
                "id": "11555201026",
                "osm_type": "node",
                "lat": 46.7805606,
                "lon": 15.5372531,
                "amenity": "fast_food",
                "cuisine": "hot_dog",
                "drive_through": "no",
                "name": "Wildingers Hotboxx",
                "opening_hours": "Mo-Fr 09:00-17:00"
              },
              "geometry": {
                "type": "Point",
                "coordinates": [
                  15.5372531,
                  46.7805606
                ]
              }
            },
            {
              "type": "Feature",
              "properties": {
                "id": "11555201049",
                "osm_type": "node",
                "lat": 46.7812307,
                "lon": 15.5375636,
                "addr:city": "Leibnitz",
                "addr:housenumber": "30",
                "addr:postcode": "8430",
                "addr:street": "Hauptplatz",
                "amenity": "fast_food",
                "cuisine": "turkish",
                "name": "PASCHA Kebaphaus"
              },
              "geometry": {
                "type": "Point",
                "coordinates": [
                  15.5375636,
                  46.7812307
                ]
              }
            },
            {
              "type": "Feature",
              "properties": {
                "id": "12719760297",
                "osm_type": "node",
                "lat": 46.8066661,
                "lon": 15.5618608,
                "addr:housenumber": "19",
                "addr:postcode": "8431",
                "addr:street": "Gewerbepark Nord",
                "amenity": "fast_food",
                "brand": "Noodle King",
                "brand:wikidata": "Q112571654",
                "cuisine": "noodle",
                "drive_through": "no",
                "name": "Noodle King",
                "opening_hours": "Mo-Su 10:00-21:00",
                "takeaway": "yes"
              },
              "geometry": {
                "type": "Point",
                "coordinates": [
                  15.5618608,
                  46.8066661
                ]
              }
            }
          ],
          "children": []
        },
        {
          "bbox": {
            "south": 46.70320525,
            "west": 15.73002475,
            "north": 46.868481875,
            "east": 16.2068765
          },
          "poiCount": 4,
          "leafCount": 4,
          "averagePosition": [
            15.9026899,
            46.803432725
          ],
          "data": [
            {
              "type": "Feature",
              "properties": {
                "id": "620113221",
                "osm_type": "node",
                "lat": 46.8639048,
                "lon": 15.9028735,
                "amenity": "fast_food"
              },
              "geometry": {
                "type": "Point",
                "coordinates": [
                  15.9028735,
                  46.8639048
                ]
              }
            },
            {
              "type": "Feature",
              "properties": {
                "id": "671598253",
                "osm_type": "node",
                "lat": 46.8419145,
                "lon": 15.9001469,
                "amenity": "fast_food",
                "cuisine": "fast_food",
                "name": "Goglwirt"
              },
              "geometry": {
                "type": "Point",
                "coordinates": [
                  15.9001469,
                  46.8419145
                ]
              }
            },
            {
              "type": "Feature",
              "properties": {
                "id": "2411316491",
                "osm_type": "node",
                "lat": 46.7038034,
                "lon": 15.7722212,
                "amenity": "fast_food",
                "name": "Bade Buffett",
                "wheelchair": "yes"
              },
              "geometry": {
                "type": "Point",
                "coordinates": [
                  15.7722212,
                  46.7038034
                ]
              }
            },
            {
              "type": "Feature",
              "properties": {
                "id": "4756929530",
                "osm_type": "node",
                "lat": 46.8041082,
                "lon": 16.035518,
                "amenity": "fast_food",
                "name": "Hitra hrana Imbiss",
                "website": "https://foursquare.com/v/hitra-hrana-imbiss/505f6574e4b0a707688a9dd5"
              },
              "geometry": {
                "type": "Point",
                "coordinates": [
                  16.035518,
                  46.8041082
                ]
              }
            }
          ],
          "children": []
        },
        {
          "bbox": {
            "south": 46.868481875,
            "west": 15.253173,
            "north": 47.033758500000005,
            "east": 15.73002475
          },
          "poiCount": 31,
          "leafCount": 31,
          "averagePosition": [
            15.426751406451613,
            47.01029780645162
          ],
          "data": [
            {
              "type": "Feature",
              "properties": {
                "id": "31617713",
                "osm_type": "node",
                "lat": 47.0123702,
                "lon": 15.4100643,
                "addr:city": "Seiersberg",
                "addr:housenumber": "3",
                "addr:postcode": "8055",
                "addr:street": "Shopping City",
                "amenity": "fast_food",
                "brand": "McDonald's",
                "brand:wikidata": "Q38076",
                "brand:wikipedia": "en:McDonald's",
                "cuisine": "burger",
                "drive_through": "no",
                "level": "0",
                "name": "McDonald's",
                "operator": "McDonald's",
                "outdoor_seating": "yes",
                "takeaway": "yes",
                "wheelchair": "yes"
              },
              "geometry": {
                "type": "Point",
                "coordinates": [
                  15.4100643,
                  47.0123702
                ]
              }
            },
            {
              "type": "Feature",
              "properties": {
                "id": "886773312",
                "osm_type": "node",
                "lat": 47.0334698,
                "lon": 15.4171582,
                "amenity": "fast_food",
                "cuisine": "kebab",
                "level": "0",
                "name": "Rayhan Kebap Pizza",
                "wheelchair": "yes"
              },
              "geometry": {
                "type": "Point",
                "coordinates": [
                  15.4171582,
                  47.0334698
                ]
              }
            },
            {
              "type": "Feature",
              "properties": {
                "id": "911035765",
                "osm_type": "node",
                "lat": 47.0332933,
                "lon": 15.4228323,
                "addr:city": "Graz",
                "addr:country": "AT",
                "addr:housenumber": "31",
                "addr:postcode": "8054",
                "addr:street": "Weblinger Gürtel",
                "amenity": "fast_food",
                "brand": "IKEA",
                "brand:wikidata": "Q54078",
                "brand:wikipedia": "en:IKEA",
                "cuisine": "swedish",
                "level": "1",
                "name": "IKEA Restaurant",
                "opening_hours": "Mo-Fr 08:30-20:30; Sa 08:30-17:30",
                "operator": "Ikea",
                "smoking": "no",
                "source": "survey",
                "takeaway": "yes",
                "toilets:wheelchair": "yes",
                "wheelchair": "yes",
                "wheelchair:description": "Barrierefreies WC im Einkaufszentrum"
              },
              "geometry": {
                "type": "Point",
                "coordinates": [
                  15.4228323,
                  47.0332933
                ]
              }
            },
            {
              "type": "Feature",
              "properties": {
                "id": "1532856179",
                "osm_type": "node",
                "lat": 46.9715136,
                "lon": 15.4953247,
                "addr:city": "Fernitz",
                "addr:housenumber": "6",
                "addr:postcode": "8072",
                "addr:street": "Kalsdorfer Straße",
                "amenity": "fast_food",
                "contact:phone": "+43 3135 21 205",
                "cuisine": "kebab;pizza",
                "name": "Cem´s Kebap & Pizza",
                "website": "https://www.cemspizza.at/kontakt/"
              },
              "geometry": {
                "type": "Point",
                "coordinates": [
                  15.4953247,
                  46.9715136
                ]
              }
            },
            {
              "type": "Feature",
              "properties": {
                "id": "1710470351",
                "osm_type": "node",
                "lat": 46.9800742,
                "lon": 15.4292635,
                "addr:housename": "Puder Bosna Ranch",
                "amenity": "fast_food",
                "cuisine": "burger;hot_dog",
                "name": "Burger Box",
                "website": "https://www.schwarzlsee.at/gastronomie/gastronomie/biergarten"
              },
              "geometry": {
                "type": "Point",
                "coordinates": [
                  15.4292635,
                  46.9800742
                ]
              }
            },
            {
              "type": "Feature",
              "properties": {
                "id": "1829873883",
                "osm_type": "node",
                "lat": 47.0315368,
                "lon": 15.4939964,
                "amenity": "fast_food",
                "cuisine": "chicken;schnitzel",
                "source": "survey"
              },
              "geometry": {
                "type": "Point",
                "coordinates": [
                  15.4939964,
                  47.0315368
                ]
              }
            },
            {
              "type": "Feature",
              "properties": {
                "id": "2958486587",
                "osm_type": "node",
                "lat": 47.0149746,
                "lon": 15.4743143,
                "addr:city": "Graz",
                "addr:country": "AT",
                "addr:housenumber": "363",
                "addr:postcode": "8041",
                "addr:street": "Liebenauer Hauptstraße",
                "amenity": "fast_food",
                "name": "Imbiß zur Holzhüttn"
              },
              "geometry": {
                "type": "Point",
                "coordinates": [
                  15.4743143,
                  47.0149746
                ]
              }
            },
            {
              "type": "Feature",
              "properties": {
                "id": "3046925724",
                "osm_type": "node",
                "lat": 47.0090078,
                "lon": 15.4089032,
                "amenity": "fast_food",
                "cuisine": "sausages",
                "name": "Imbiss & Co",
                "operator": "Stefan Wochinz",
                "snack": "yes",
                "source": "survey",
                "wheelchair": "yes"
              },
              "geometry": {
                "type": "Point",
                "coordinates": [
                  15.4089032,
                  47.0090078
                ]
              }
            },
            {
              "type": "Feature",
              "properties": {
                "id": "3048174260",
                "osm_type": "node",
                "lat": 47.022273,
                "lon": 15.4000558,
                "addr:city": "Graz",
                "addr:country": "AT",
                "addr:housenumber": "416",
                "addr:postcode": "8054",
                "addr:street": "Kärntner Straße",
                "amenity": "fast_food",
                "contact:phone": "+43 664 8731949",
                "cuisine": "kebab;pizza",
                "dog": "no",
                "name": "Toscana",
                "source": "survey",
                "wheelchair": "no"
              },
              "geometry": {
                "type": "Point",
                "coordinates": [
                  15.4000558,
                  47.022273
                ]
              }
            },
            {
              "type": "Feature",
              "properties": {
                "id": "3053649651",
                "osm_type": "node",
                "lat": 47.0176343,
                "lon": 15.4725645,
                "addr:city": "Graz",
                "addr:country": "AT",
                "addr:housenumber": "326",
                "addr:postcode": "8041",
                "addr:street": "Liebenauer Hauptstraße",
                "amenity": "fast_food",
                "contact:phone": "+43 316 40 33 66",
                "cuisine": "kebab;pizza",
                "name": "Pizza Point",
                "old_name": "Valentino",
                "opening_hours": "Mo-Su 09:00-23:00",
                "wheelchair": "yes"
              },
              "geometry": {
                "type": "Point",
                "coordinates": [
                  15.4725645,
                  47.0176343
                ]
              }
            },
            {
              "type": "Feature",
              "properties": {
                "id": "4111414790",
                "osm_type": "node",
                "lat": 47.0333459,
                "lon": 15.4441603,
                "addr:city": "Graz",
                "addr:country": "AT",
                "addr:housenumber": "125",
                "addr:postcode": "8055",
                "addr:street": "Puntigamer Straße",
                "amenity": "fast_food",
                "contact:mobile": "+43 650 2519255",
                "contact:phone": "+43 676 7129252",
                "cuisine": "burger",
                "delivery": "yes",
                "name": "Abu Burger",
                "opening_hours": "Mo-Su 10:30-03:30",
                "source": "GeoImage.at"
              },
              "geometry": {
                "type": "Point",
                "coordinates": [
                  15.4441603,
                  47.0333459
                ]
              }
            },
            {
              "type": "Feature",
              "properties": {
                "id": "4424187869",
                "osm_type": "node",
                "lat": 47.0126519,
                "lon": 15.4301994,
                "amenity": "fast_food",
                "cuisine": "kebab;pizza",
                "name": "Kent"
              },
              "geometry": {
                "type": "Point",
                "coordinates": [
                  15.4301994,
                  47.0126519
                ]
              }
            },
            {
              "type": "Feature",
              "properties": {
                "id": "4902035121",
                "osm_type": "node",
                "lat": 46.9948121,
                "lon": 15.4541002,
                "addr:housenumber": "211",
                "addr:postcode": "8073",
                "addr:street": "Triester Straße",
                "amenity": "fast_food",
                "contact:phone": "+43 316 29 15 11",
                "cuisine": "kebab;pizza",
                "name": "Hot Kebap Pizza",
                "opening_hours": "Mo-Su 08:30-22:00"
              },
              "geometry": {
                "type": "Point",
                "coordinates": [
                  15.4541002,
                  46.9948121
                ]
              }
            },
            {
              "type": "Feature",
              "properties": {
                "id": "4912435629",
                "osm_type": "node",
                "lat": 46.9173066,
                "lon": 15.4796196,
                "addr:city": "Werndorf",
                "addr:country": "AT",
                "addr:housenumber": "180",
                "addr:postcode": "8402",
                "addr:street": "Bundesstraße",
                "amenity": "fast_food",
                "at_bev:addr_date": "2018-10-01",
                "contact:mobile": "+43 664 5521064",
                "cuisine": "pizza;kebab;burger",
                "name": "Pizzeria Arena",
                "opening_hours": "Mo-Su 10:30-21:30",
                "outdoor_seating": "yes",
                "website": "https://www.pizzeria-arena-werndorf.at/",
                "wheelchair": "no"
              },
              "geometry": {
                "type": "Point",
                "coordinates": [
                  15.4796196,
                  46.9173066
                ]
              }
            },
            {
              "type": "Feature",
              "properties": {
                "id": "6082664954",
                "osm_type": "node",
                "lat": 47.0136058,
                "lon": 15.4626741,
                "amenity": "fast_food",
                "cuisine": "ice_cream;fingerfood",
                "delivery": "no",
                "drive_through": "no",
                "note": "Saisonal vor Ort",
                "outdoor_seating": "no",
                "takeaway": "yes"
              },
              "geometry": {
                "type": "Point",
                "coordinates": [
                  15.4626741,
                  47.0136058
                ]
              }
            },
            {
              "type": "Feature",
              "properties": {
                "id": "7661619800",
                "osm_type": "node",
                "lat": 47.0038154,
                "lon": 15.2675702,
                "amenity": "fast_food",
                "name": "Dolfis Schmankerln"
              },
              "geometry": {
                "type": "Point",
                "coordinates": [
                  15.2675702,
                  47.0038154
                ]
              }
            },
            {
              "type": "Feature",
              "properties": {
                "id": "8486841295",
                "osm_type": "node",
                "lat": 47.0193575,
                "lon": 15.471858,
                "addr:city": "Graz",
                "addr:country": "AT",
                "addr:housenumber": "314",
                "addr:postcode": "8041",
                "addr:street": "Liebenauer Hauptstraße",
                "amenity": "fast_food",
                "cuisine": "pizza;burger",
                "name": "Bistro Box",
                "opening_hours": "24/7",
                "vending": "pizza"
              },
              "geometry": {
                "type": "Point",
                "coordinates": [
                  15.471858,
                  47.0193575
                ]
              }
            },
            {
              "type": "Feature",
              "properties": {
                "id": "9750235339",
                "osm_type": "node",
                "lat": 47.0135009,
                "lon": 15.4131084,
                "amenity": "fast_food",
                "cuisine": "juice",
                "level": "0",
                "name": "Juice Market"
              },
              "geometry": {
                "type": "Point",
                "coordinates": [
                  15.4131084,
                  47.0135009
                ]
              }
            },
            {
              "type": "Feature",
              "properties": {
                "id": "9750235340",
                "osm_type": "node",
                "lat": 47.013494,
                "lon": 15.4129729,
                "amenity": "fast_food",
                "cuisine": "waffle",
                "level": "0",
                "name": "SWEET POINT"
              },
              "geometry": {
                "type": "Point",
                "coordinates": [
                  15.4129729,
                  47.013494
                ]
              }
            },
            {
              "type": "Feature",
              "properties": {
                "id": "9750235342",
                "osm_type": "node",
                "lat": 47.0133727,
                "lon": 15.4125282,
                "amenity": "fast_food",
                "brand": "Noodle King",
                "brand:wikidata": "Q112571654",
                "cuisine": "noodle",
                "level": "0",
                "name": "Noodle King",
                "payment:cash": "yes",
                "payment:debit_cards": "yes",
                "takeaway": "yes",
                "website": "https://www.noodleking.at/",
                "wheelchair": "yes"
              },
              "geometry": {
                "type": "Point",
                "coordinates": [
                  15.4125282,
                  47.0133727
                ]
              }
            },
            {
              "type": "Feature",
              "properties": {
                "id": "9750235344",
                "osm_type": "node",
                "lat": 47.0132032,
                "lon": 15.4125666,
                "amenity": "fast_food",
                "cuisine": "kebab",
                "level": "0",
                "name": "Ali mit Alles",
                "wheelchair": "yes"
              },
              "geometry": {
                "type": "Point",
                "coordinates": [
                  15.4125666,
                  47.0132032
                ]
              }
            },
            {
              "type": "Feature",
              "properties": {
                "id": "9750235391",
                "osm_type": "node",
                "lat": 47.01234,
                "lon": 15.4105708,
                "amenity": "fast_food",
                "brand": "Nordsee",
                "brand:wikidata": "Q74866",
                "cuisine": "seafood",
                "drive_through": "no",
                "indoor_seating": "yes",
                "level": "0",
                "name": "Nordsee",
                "outdoor_seating": "no",
                "takeaway": "yes",
                "wheelchair": "yes"
              },
              "geometry": {
                "type": "Point",
                "coordinates": [
                  15.4105708,
                  47.01234
                ]
              }
            },
            {
              "type": "Feature",
              "properties": {
                "id": "9750235392",
                "osm_type": "node",
                "lat": 47.0124206,
                "lon": 15.4106845,
                "amenity": "fast_food",
                "cuisine": "kebab",
                "level": "0",
                "name": "Rosamunde Keba",
                "wheelchair": "yes"
              },
              "geometry": {
                "type": "Point",
                "coordinates": [
                  15.4106845,
                  47.0124206
                ]
              }
            },
            {
              "type": "Feature",
              "properties": {
                "id": "9750235395",
                "osm_type": "node",
                "lat": 47.0121113,
                "lon": 15.4102573,
                "amenity": "fast_food",
                "cuisine": "donut",
                "level": "0",
                "name": "Tasty Donuts",
                "wheelchair": "yes"
              },
              "geometry": {
                "type": "Point",
                "coordinates": [
                  15.4102573,
                  47.0121113
                ]
              }
            },
            {
              "type": "Feature",
              "properties": {
                "id": "9750235397",
                "osm_type": "node",
                "lat": 47.0121286,
                "lon": 15.4103721,
                "amenity": "fast_food",
                "cuisine": "waffle",
                "level": "0",
                "wheelchair": "yes"
              },
              "geometry": {
                "type": "Point",
                "coordinates": [
                  15.4103721,
                  47.0121286
                ]
              }
            },
            {
              "type": "Feature",
              "properties": {
                "id": "9750235418",
                "osm_type": "node",
                "lat": 47.0120557,
                "lon": 15.411716,
                "amenity": "fast_food",
                "cuisine": "hot_dog",
                "name": "Crazy Dogs"
              },
              "geometry": {
                "type": "Point",
                "coordinates": [
                  15.411716,
                  47.0120557
                ]
              }
            },
            {
              "type": "Feature",
              "properties": {
                "id": "9750235435",
                "osm_type": "node",
                "lat": 47.0126312,
                "lon": 15.4129796,
                "amenity": "fast_food",
                "cuisine": "ice_cream",
                "level": "1",
                "name": "Let ́s Roll"
              },
              "geometry": {
                "type": "Point",
                "coordinates": [
                  15.4129796,
                  47.0126312
                ]
              }
            },
            {
              "type": "Feature",
              "properties": {
                "id": "9759297836",
                "osm_type": "node",
                "lat": 46.9760183,
                "lon": 15.4027855,
                "addr:city": "Premstätten",
                "addr:housenumber": "102",
                "addr:postcode": "8141",
                "addr:street": "Hauptstraße",
                "amenity": "fast_food",
                "drive_through": "no",
                "name": "Premstättner Pizza Kebab",
                "outdoor_seating": "yes",
                "phone": "+436606648131",
                "source": "survey",
                "website": "https://www.pizzeria-premstaettner.at"
              },
              "geometry": {
                "type": "Point",
                "coordinates": [
                  15.4027855,
                  46.9760183
                ]
              }
            },
            {
              "type": "Feature",
              "properties": {
                "id": "10758339188",
                "osm_type": "node",
                "lat": 47.0333945,
                "lon": 15.4172129,
                "amenity": "fast_food",
                "cuisine": "chinese",
                "name": "WOK City",
                "toilets:wheelchair": "yes",
                "wheelchair": "yes"
              },
              "geometry": {
                "type": "Point",
                "coordinates": [
                  15.4172129,
                  47.0333945
                ]
              }
            },
            {
              "type": "Feature",
              "properties": {
                "id": "11209926523",
                "osm_type": "node",
                "lat": 47.0332617,
                "lon": 15.4229074,
                "addr:city": "Graz",
                "addr:country": "AT",
                "addr:housenumber": "31",
                "addr:postcode": "8054",
                "addr:street": "Weblinger Gürtel",
                "amenity": "fast_food",
                "brand": "IKEA",
                "brand:wikidata": "Q54078",
                "brand:wikipedia": "en:IKEA",
                "cuisine": "swedish",
                "level": "0",
                "name": "IKEA Bistro",
                "opening_hours": "Mo-Fr 08:30-20:30; Sa 08:30-17:30",
                "operator": "Ikea",
                "smoking": "no",
                "source": "survey",
                "takeaway": "yes",
                "toilets:wheelchair": "yes",
                "wheelchair": "yes",
                "wheelchair:description": "Barrierefreies WC im Einkaufszentrum"
              },
              "geometry": {
                "type": "Point",
                "coordinates": [
                  15.4229074,
                  47.0332617
                ]
              }
            },
            {
              "type": "Feature",
              "properties": {
                "id": "13058474975",
                "osm_type": "node",
                "lat": 47.0282565,
                "lon": 15.4339724,
                "amenity": "fast_food",
                "brand": "Noodle King",
                "brand:wikidata": "Q112571654",
                "cuisine": "noodle",
                "indoor_seating": "yes",
                "name": "Noodle King",
                "takeaway": "yes",
                "wheelchair": "yes"
              },
              "geometry": {
                "type": "Point",
                "coordinates": [
                  15.4339724,
                  47.0282565
                ]
              }
            }
          ],
          "children": []
        },
        {
          "bbox": {
            "south": 46.868481875,
            "west": 15.73002475,
            "north": 47.033758500000005,
            "east": 16.2068765
          },
          "poiCount": 6,
          "leafCount": 6,
          "averagePosition": [
            15.873639449999999,
            46.93904583333333
          ],
          "data": [
            {
              "type": "Feature",
              "properties": {
                "id": "1723725405",
                "osm_type": "node",
                "lat": 46.8687752,
                "lon": 15.8885061,
                "amenity": "fast_food"
              },
              "geometry": {
                "type": "Point",
                "coordinates": [
                  15.8885061,
                  46.8687752
                ]
              }
            },
            {
              "type": "Feature",
              "properties": {
                "id": "620119080",
                "osm_type": "node",
                "lat": 46.8779159,
                "lon": 15.896962,
                "amenity": "fast_food"
              },
              "geometry": {
                "type": "Point",
                "coordinates": [
                  15.896962,
                  46.8779159
                ]
              }
            },
            {
              "type": "Feature",
              "properties": {
                "id": "2317526511",
                "osm_type": "node",
                "lat": 46.9920308,
                "lon": 15.9084985,
                "amenity": "fast_food",
                "cuisine": "sausages",
                "name": "Würstelstand",
                "organic": "only"
              },
              "geometry": {
                "type": "Point",
                "coordinates": [
                  15.9084985,
                  46.9920308
                ]
              }
            },
            {
              "type": "Feature",
              "properties": {
                "id": "2818242389",
                "osm_type": "node",
                "lat": 46.9908659,
                "lon": 15.7611899,
                "amenity": "fast_food"
              },
              "geometry": {
                "type": "Point",
                "coordinates": [
                  15.7611899,
                  46.9908659
                ]
              }
            },
            {
              "type": "Feature",
              "properties": {
                "id": "5755397992",
                "osm_type": "node",
                "lat": 46.9536439,
                "lon": 15.8897447,
                "addr:city": "Feldbach",
                "addr:housenumber": "28",
                "addr:postcode": "8330",
                "addr:street": "Bürgergasse",
                "amenity": "fast_food",
                "cuisine": "kebab",
                "delivery": "no",
                "drive_through": "no",
                "name": "Euro Kebab",
                "opening_hours": "Mo-Su 08:00-20:00",
                "operator": "Yildirim KG",
                "smoking": "outside",
                "takeaway": "yes"
              },
              "geometry": {
                "type": "Point",
                "coordinates": [
                  15.8897447,
                  46.9536439
                ]
              }
            },
            {
              "type": "Feature",
              "properties": {
                "id": "7221992599",
                "osm_type": "node",
                "lat": 46.9510433,
                "lon": 15.8969355,
                "amenity": "fast_food",
                "cuisine": "turkish",
                "delivery": "yes",
                "name": "King Pizza",
                "phone": "+43 664 3846637",
                "takeaway": "yes"
              },
              "geometry": {
                "type": "Point",
                "coordinates": [
                  15.8969355,
                  46.9510433
                ]
              }
            }
          ],
          "children": []
        }
      ]
    },
    {
      "bbox": {
        "south": 46.70320525,
        "west": 16.2068765,
        "north": 47.033758500000005,
        "east": 17.16058
      },
      "poiCount": 56,
      "leafCount": 0,
      "averagePosition": [
        16.713355433928573,
        46.87026379107142
      ],
      "data": [],
      "children": [
        {
          "bbox": {
            "south": 46.70320525,
            "west": 16.2068765,
            "north": 46.868481875,
            "east": 16.68372825
          },
          "poiCount": 9,
          "leafCount": 9,
          "averagePosition": [
            16.531403477777776,
            46.81429681111111
          ],
          "data": [
            {
              "type": "Feature",
              "properties": {
                "id": "3010052590",
                "osm_type": "node",
                "lat": 46.8646206,
                "lon": 16.3400454,
                "amenity": "fast_food",
                "name": "Pityerszeri büfé",
                "outdoor_seating": "yes",
                "payment:debit_cards": "yes"
              },
              "geometry": {
                "type": "Point",
                "coordinates": [
                  16.3400454,
                  46.8646206
                ]
              }
            },
            {
              "type": "Feature",
              "properties": {
                "id": "4940534717",
                "osm_type": "node",
                "lat": 46.8379717,
                "lon": 16.417988,
                "amenity": "fast_food",
                "name": "Mosó büfé",
                "opening_hours": "Mo-Fr 08:00-17:00; Sa 08:00-12:00",
                "outdoor_seating": "yes",
                "toilets:wheelchair": "limited",
                "wheelchair": "limited"
              },
              "geometry": {
                "type": "Point",
                "coordinates": [
                  16.417988,
                  46.8379717
                ]
              }
            },
            {
              "type": "Feature",
              "properties": {
                "id": "12136352494",
                "osm_type": "node",
                "lat": 46.7168108,
                "lon": 16.5146224,
                "amenity": "fast_food",
                "cuisine": "burger",
                "name": "Ka Ra Büfé",
                "outdoor_seating": "yes"
              },
              "geometry": {
                "type": "Point",
                "coordinates": [
                  16.5146224,
                  46.7168108
                ]
              }
            },
            {
              "type": "Feature",
              "properties": {
                "id": "12136352539",
                "osm_type": "node",
                "lat": 46.7193347,
                "lon": 16.5167025,
                "amenity": "fast_food",
                "outdoor_seating": "yes"
              },
              "geometry": {
                "type": "Point",
                "coordinates": [
                  16.5167025,
                  46.7193347
                ]
              }
            },
            {
              "type": "Feature",
              "properties": {
                "id": "3383419379",
                "osm_type": "node",
                "lat": 46.791995,
                "lon": 16.679418,
                "amenity": "fast_food",
                "name": "Ho-Ho büfé",
                "source": "turistautak.hu",
                "url": "http://turistautak.hu/poi.php?id=56716"
              },
              "geometry": {
                "type": "Point",
                "coordinates": [
                  16.679418,
                  46.791995
                ]
              }
            },
            {
              "type": "Feature",
              "properties": {
                "id": "7750403813",
                "osm_type": "node",
                "lat": 46.8470118,
                "lon": 16.5875664,
                "amenity": "fast_food",
                "description:hu": "büfé",
                "name": "Salla büfé"
              },
              "geometry": {
                "type": "Point",
                "coordinates": [
                  16.5875664,
                  46.8470118
                ]
              }
            },
            {
              "type": "Feature",
              "properties": {
                "id": "11824462964",
                "osm_type": "node",
                "lat": 46.8522467,
                "lon": 16.569749,
                "amenity": "fast_food",
                "indoor_seating": "no",
                "name": "Borostyán terasz",
                "opening_hours": "Mo-Th,Su 11:00-20:00; Fr,Sa 11:00-22:00",
                "outdoor_seating": "yes"
              },
              "geometry": {
                "type": "Point",
                "coordinates": [
                  16.569749,
                  46.8522467
                ]
              }
            },
            {
              "type": "Feature",
              "properties": {
                "id": "11824488644",
                "osm_type": "node",
                "lat": 46.8524935,
                "lon": 16.5699159,
                "amenity": "fast_food",
                "name": "Sellő büfé"
              },
              "geometry": {
                "type": "Point",
                "coordinates": [
                  16.5699159,
                  46.8524935
                ]
              }
            },
            {
              "type": "Feature",
              "properties": {
                "id": "12127553641",
                "osm_type": "node",
                "lat": 46.8461865,
                "lon": 16.5866237,
                "amenity": "fast_food",
                "contact:phone": "+36 30 881 8587; +36 30 727 6398",
                "name": "CSAbisztró",
                "opening_hours": "Mo-Sa 10:00-20:00"
              },
              "geometry": {
                "type": "Point",
                "coordinates": [
                  16.5866237,
                  46.8461865
                ]
              }
            }
          ],
          "children": []
        },
        {
          "bbox": {
            "south": 46.70320525,
            "west": 16.68372825,
            "north": 46.868481875,
            "east": 17.16058
          },
          "poiCount": 25,
          "leafCount": 25,
          "averagePosition": [
            16.856888552,
            46.830666359999995
          ],
          "data": [
            {
              "type": "Feature",
              "properties": {
                "id": "514999732",
                "osm_type": "node",
                "lat": 46.8370098,
                "lon": 16.8289658,
                "amenity": "fast_food",
                "name": "Atlantis Pizzéria"
              },
              "geometry": {
                "type": "Point",
                "coordinates": [
                  16.8289658,
                  46.8370098
                ]
              }
            },
            {
              "type": "Feature",
              "properties": {
                "id": "1255834639",
                "osm_type": "node",
                "lat": 46.8450078,
                "lon": 16.8459736,
                "addr:city": "Zalaegerszeg",
                "addr:housenumber": "1",
                "addr:postcode": "8900",
                "addr:street": "Széchenyi tér",
                "amenity": "fast_food",
                "brand": "McDonald's",
                "brand:wikidata": "Q38076",
                "brand:wikipedia": "en:McDonald's",
                "check_date:opening_hours": "2025-08-30",
                "cuisine": "burger",
                "name": "McDonald's",
                "opening_hours": "Mo-Th 07:00-22:00; Fr,Sa 07:00-23:00; Su 07:00-22:00",
                "smoking": "no",
                "takeaway": "yes",
                "website": "https://www.mcdonalds.hu/",
                "wheelchair": "yes"
              },
              "geometry": {
                "type": "Point",
                "coordinates": [
                  16.8459736,
                  46.8450078
                ]
              }
            },
            {
              "type": "Feature",
              "properties": {
                "id": "3372993471",
                "osm_type": "node",
                "lat": 46.7672944,
                "lon": 16.7859353,
                "amenity": "fast_food",
                "name": "Fornetti büfé",
                "shop": "bakery",
                "source": "turistautak.hu",
                "url": "http://turistautak.hu/poi.php?id=27397"
              },
              "geometry": {
                "type": "Point",
                "coordinates": [
                  16.7859353,
                  46.7672944
                ]
              }
            },
            {
              "type": "Feature",
              "properties": {
                "id": "3383419380",
                "osm_type": "node",
                "lat": 46.800505,
                "lon": 16.719796,
                "amenity": "fast_food",
                "name": "Hársfa büfé",
                "source": "turistautak.hu",
                "url": "http://turistautak.hu/poi.php?id=176628"
              },
              "geometry": {
                "type": "Point",
                "coordinates": [
                  16.719796,
                  46.800505
                ]
              }
            },
            {
              "type": "Feature",
              "properties": {
                "id": "3446767184",
                "osm_type": "node",
                "lat": 46.80905,
                "lon": 16.984213,
                "addr:city": "Misefa",
                "addr:housenumber": "51",
                "addr:postcode": "8935",
                "addr:street": "Ország utca",
                "amenity": "fast_food",
                "drive_through": "no",
                "name": "Tó büfé",
                "source": "turistautak.hu",
                "source:date": "2013-09-04",
                "url": "http://turistautak.hu/poi.php?id=141507"
              },
              "geometry": {
                "type": "Point",
                "coordinates": [
                  16.984213,
                  46.80905
                ]
              }
            },
            {
              "type": "Feature",
              "properties": {
                "id": "3479932388",
                "osm_type": "node",
                "lat": 46.8203785,
                "lon": 16.8276031,
                "addr:street": "Budai völgy",
                "amenity": "fast_food",
                "name": "Csülök büfé",
                "source": "turistautak.hu",
                "source:date": "2012-01-20",
                "url": "http://turistautak.hu/poi.php?id=99364"
              },
              "geometry": {
                "type": "Point",
                "coordinates": [
                  16.8276031,
                  46.8203785
                ]
              }
            },
            {
              "type": "Feature",
              "properties": {
                "id": "3479942029",
                "osm_type": "node",
                "lat": 46.865763,
                "lon": 16.816923,
                "amenity": "fast_food",
                "source": "turistautak.hu",
                "source:date": "2011-09-19",
                "url": "http://turistautak.hu/poi.php?id=30765"
              },
              "geometry": {
                "type": "Point",
                "coordinates": [
                  16.816923,
                  46.865763
                ]
              }
            },
            {
              "type": "Feature",
              "properties": {
                "id": "4883616249",
                "osm_type": "node",
                "lat": 46.8433763,
                "lon": 16.8474393,
                "amenity": "fast_food",
                "name": "Kebab King",
                "opening_hours": "Mo-Sa 11:00-22:00"
              },
              "geometry": {
                "type": "Point",
                "coordinates": [
                  16.8474393,
                  46.8433763
                ]
              }
            },
            {
              "type": "Feature",
              "properties": {
                "id": "4933471493",
                "osm_type": "node",
                "lat": 46.8030179,
                "lon": 16.8502565,
                "amenity": "fast_food",
                "fixme": "verify",
                "name": "Kristály Büfé",
                "source": "route4u",
                "toilets:wheelchair": "no",
                "wheelchair": "no"
              },
              "geometry": {
                "type": "Point",
                "coordinates": [
                  16.8502565,
                  46.8030179
                ]
              }
            },
            {
              "type": "Feature",
              "properties": {
                "id": "4933471603",
                "osm_type": "node",
                "lat": 46.8434662,
                "lon": 16.8802169,
                "amenity": "fast_food",
                "fixme": "verify",
                "name": "Patkó Büfé",
                "source": "route4u",
                "toilets:wheelchair": "limited",
                "wheelchair": "limited"
              },
              "geometry": {
                "type": "Point",
                "coordinates": [
                  16.8802169,
                  46.8434662
                ]
              }
            },
            {
              "type": "Feature",
              "properties": {
                "id": "5036902999",
                "osm_type": "node",
                "lat": 46.831575,
                "lon": 16.8362191,
                "amenity": "fast_food",
                "delivery": "yes",
                "name": "König PIzza",
                "takeaway": "yes"
              },
              "geometry": {
                "type": "Point",
                "coordinates": [
                  16.8362191,
                  46.831575
                ]
              }
            },
            {
              "type": "Feature",
              "properties": {
                "id": "6175197057",
                "osm_type": "node",
                "lat": 46.8343236,
                "lon": 16.8280955,
                "amenity": "fast_food",
                "cuisine": "burger",
                "internet_access": "no",
                "level": "0",
                "name": "Big Ben Burger",
                "opening_hours": "Tu-Sa 11:00-20:00; PH off",
                "outdoor_seating": "yes",
                "smoking": "outside",
                "takeaway": "yes",
                "toilets": "yes",
                "toilets:access": "customers",
                "wheelchair": "limited"
              },
              "geometry": {
                "type": "Point",
                "coordinates": [
                  16.8280955,
                  46.8343236
                ]
              }
            },
            {
              "type": "Feature",
              "properties": {
                "id": "6175197061",
                "osm_type": "node",
                "lat": 46.8409147,
                "lon": 16.8322021,
                "addr:city": "Zalaegerszeg",
                "addr:housenumber": "2",
                "addr:postcode": "8900",
                "addr:street": "Landorhegyi út",
                "amenity": "fast_food",
                "description:hu": "büfé",
                "internet_access": "wlan",
                "internet_access:fee": "no",
                "level": "0",
                "name": "Oázis Pizza & Hamburger",
                "opening_hours": "Mo-Th 10:00-24:00; Fr 10:00-02:00; Sa 11:00-02:00",
                "operator": "Best Bakers kft.",
                "outdoor_seating": "yes",
                "payment:american_express": "yes",
                "payment:cash": "yes",
                "payment:contactless": "yes",
                "payment:maestro": "yes",
                "payment:mastercard": "yes",
                "payment:v_pay": "yes",
                "payment:visa": "yes",
                "payment:visa_debit": "yes",
                "payment:visa_electron": "yes",
                "phone": "+36 30 863 1454",
                "smoking": "outside",
                "takeaway": "yes",
                "website": "https://www.oazisburger.hu",
                "wheelchair": "no"
              },
              "geometry": {
                "type": "Point",
                "coordinates": [
                  16.8322021,
                  46.8409147
                ]
              }
            },
            {
              "type": "Feature",
              "properties": {
                "id": "9429647778",
                "osm_type": "node",
                "lat": 46.8434133,
                "lon": 16.8470652,
                "addr:city": "Zalaegerszeg",
                "addr:housenumber": "8",
                "addr:postcode": "8900",
                "addr:street": "Berzsenyi Dániel utca",
                "amenity": "fast_food",
                "name": "ElDorado hamburger",
                "opening_hours": "Tu-Fr 09:00-17:00"
              },
              "geometry": {
                "type": "Point",
                "coordinates": [
                  16.8470652,
                  46.8434133
                ]
              }
            },
            {
              "type": "Feature",
              "properties": {
                "id": "9429647792",
                "osm_type": "node",
                "lat": 46.8402835,
                "lon": 16.8401739,
                "amenity": "fast_food",
                "cuisine": "pizza",
                "name": "Park Pizza",
                "opening_hours": "Tu-Sa 11:00-13:00, Tu,We 16:30-20:30, Th-Sa 17:00-21:00; Su,Mo off",
                "outdoor_seating": "yes",
                "takeaway": "yes",
                "wheelchair": "no"
              },
              "geometry": {
                "type": "Point",
                "coordinates": [
                  16.8401739,
                  46.8402835
                ]
              }
            },
            {
              "type": "Feature",
              "properties": {
                "id": "10219774806",
                "osm_type": "node",
                "lat": 46.8437637,
                "lon": 16.8455975,
                "amenity": "fast_food",
                "cuisine": "burger",
                "level": "0",
                "name": "Dom's",
                "opening_hours": "Mo-Sa 11:00-19:00"
              },
              "geometry": {
                "type": "Point",
                "coordinates": [
                  16.8455975,
                  46.8437637
                ]
              }
            },
            {
              "type": "Feature",
              "properties": {
                "id": "11105911824",
                "osm_type": "node",
                "lat": 46.8127399,
                "lon": 16.8240675,
                "amenity": "fast_food",
                "check_date": "2025-08-12",
                "cuisine": "hot_dog;sandwich;ice_cream",
                "opening_hours": "10:00-20:00",
                "outdoor_seating": "yes",
                "payment:mastercard": "yes",
                "payment:visa": "yes",
                "wheelchair": "yes"
              },
              "geometry": {
                "type": "Point",
                "coordinates": [
                  16.8240675,
                  46.8127399
                ]
              }
            },
            {
              "type": "Feature",
              "properties": {
                "id": "11827239886",
                "osm_type": "node",
                "lat": 46.8428082,
                "lon": 16.8600742,
                "air_conditioning": "yes",
                "amenity": "fast_food",
                "cuisine": "chinese;thai",
                "diet:vegetarian": "yes",
                "indoor_seating": "yes",
                "name": "Kedves Wok",
                "outdoor_seating": "no",
                "payment:credit_cards": "yes",
                "payment:debit_cards": "yes"
              },
              "geometry": {
                "type": "Point",
                "coordinates": [
                  16.8600742,
                  46.8428082
                ]
              }
            },
            {
              "type": "Feature",
              "properties": {
                "id": "11833271413",
                "osm_type": "node",
                "lat": 46.8413858,
                "lon": 16.8463626,
                "amenity": "fast_food",
                "cuisine": "chinese",
                "indoor_seating": "yes",
                "name": "jázmin",
                "opening_hours": "Mo-Su 09:00-21:00",
                "outdoor_seating": "pedestrian_zone",
                "payment:credit_cards": "yes",
                "payment:debit_cards": "yes",
                "smoking": "no",
                "wheelchair": "limited"
              },
              "geometry": {
                "type": "Point",
                "coordinates": [
                  16.8463626,
                  46.8413858
                ]
              }
            },
            {
              "type": "Feature",
              "properties": {
                "id": "11833289226",
                "osm_type": "node",
                "lat": 46.841149,
                "lon": 16.8466908,
                "amenity": "fast_food",
                "contact:phone": "+36 30 741 4114",
                "cuisine": "pizza",
                "name": "Pizza boy",
                "opening_hours": "Tu-Th 11:00-20:00; Fr-Sa 10:00-21:00"
              },
              "geometry": {
                "type": "Point",
                "coordinates": [
                  16.8466908,
                  46.841149
                ]
              }
            },
            {
              "type": "Feature",
              "properties": {
                "id": "12041526526",
                "osm_type": "node",
                "lat": 46.8603717,
                "lon": 16.8153393,
                "amenity": "fast_food",
                "cuisine": "fried_food;pancake;fish",
                "diet:vegetarian": "yes",
                "indoor_seating": "no",
                "name": "Rút kiskacsa",
                "opening_hours": "Sa,Su 11:00-20:00",
                "outdoor_seating": "terrace",
                "payment:credit_cards": "yes",
                "payment:debit_cards": "yes",
                "smoking": "separated"
              },
              "geometry": {
                "type": "Point",
                "coordinates": [
                  16.8153393,
                  46.8603717
                ]
              }
            },
            {
              "type": "Feature",
              "properties": {
                "id": "12112721197",
                "osm_type": "node",
                "lat": 46.841797,
                "lon": 16.846645,
                "amenity": "fast_food",
                "cuisine": "burger",
                "name": "Ping-Win Szeráj",
                "opening_hours": "Tu,We,Su 11:00-23:00; Th 14:00-23:00; Fr,Sa 11:00-03:00"
              },
              "geometry": {
                "type": "Point",
                "coordinates": [
                  16.846645,
                  46.841797
                ]
              }
            },
            {
              "type": "Feature",
              "properties": {
                "id": "12710166291",
                "osm_type": "node",
                "lat": 46.8659643,
                "lon": 16.8218555,
                "amenity": "fast_food",
                "cuisine": "burger;hungarian",
                "name": "Thermal bistro"
              },
              "geometry": {
                "type": "Point",
                "coordinates": [
                  16.8218555,
                  46.8659643
                ]
              }
            },
            {
              "type": "Feature",
              "properties": {
                "id": "3446767303",
                "osm_type": "node",
                "lat": 46.758915,
                "lon": 17.037611,
                "amenity": "fast_food",
                "name": "Véndiófa bisztró",
                "source": "turistautak.hu",
                "source:date": "2011-09-19",
                "url": "http://turistautak.hu/poi.php?id=121337"
              },
              "geometry": {
                "type": "Point",
                "coordinates": [
                  17.037611,
                  46.758915
                ]
              }
            },
            {
              "type": "Feature",
              "properties": {
                "id": "12823531723",
                "osm_type": "node",
                "lat": 46.8323854,
                "lon": 17.1068921,
                "amenity": "fast_food",
                "check_date": "2025-05-09",
                "name": "Falatozó",
                "opening_hours": "10:00-19:00",
                "payment:cash": "yes",
                "payment:credit_cards": "yes",
                "payment:debit_cards": "yes",
                "wheelchair": "yes"
              },
              "geometry": {
                "type": "Point",
                "coordinates": [
                  17.1068921,
                  46.8323854
                ]
              }
            }
          ],
          "children": []
        },
        {
          "bbox": {
            "south": 46.868481875,
            "west": 16.2068765,
            "north": 47.033758500000005,
            "east": 16.68372825
          },
          "poiCount": 15,
          "leafCount": 15,
          "averagePosition": [
            16.482598513333333,
            46.94296102
          ],
          "data": [
            {
              "type": "Feature",
              "properties": {
                "id": "3465190562",
                "osm_type": "node",
                "lat": 46.97905,
                "lon": 16.328033,
                "amenity": "fast_food",
                "source": "turistautak.hu",
                "source:date": "2010-03-30",
                "url": "http://turistautak.hu/poi.php?id=39176"
              },
              "geometry": {
                "type": "Point",
                "coordinates": [
                  16.328033,
                  46.97905
                ]
              }
            },
            {
              "type": "Feature",
              "properties": {
                "id": "4939179580",
                "osm_type": "node",
                "lat": 46.957158,
                "lon": 16.2742039,
                "amenity": "fast_food",
                "name": "Fábián Büfé",
                "source": "route4u"
              },
              "geometry": {
                "type": "Point",
                "coordinates": [
                  16.2742039,
                  46.957158
                ]
              }
            },
            {
              "type": "Feature",
              "properties": {
                "id": "5012539167",
                "osm_type": "node",
                "lat": 46.9335864,
                "lon": 16.3132416,
                "addr:city": "Szentgotthárd",
                "addr:housenumber": "151",
                "addr:postcode": "9970",
                "addr:street": "Máriaújfalui út",
                "amenity": "fast_food",
                "contact:facebook": "https://www.facebook.com/p/L%C3%A1ngosb%C3%BCf%C3%A9-H%C3%A1rsas-t%C3%B3-100057033416782/",
                "cuisine": "lángos",
                "name": "Lángos Büfé",
                "opening_hours": "Mo-Su 11:00-20:00",
                "phone": "+36 30 699 4397",
                "website:menu": "https://www.facebook.com/photo/?fbid=932343448676760&set=pb.100057033416782.-2207520000"
              },
              "geometry": {
                "type": "Point",
                "coordinates": [
                  16.3132416,
                  46.9335864
                ]
              }
            },
            {
              "type": "Feature",
              "properties": {
                "id": "12146754283",
                "osm_type": "node",
                "lat": 46.953784,
                "lon": 16.2735267,
                "addr:city": "Szentgotthárd",
                "addr:housenumber": "14",
                "addr:postcode": "9970",
                "addr:street": "Széll Kálmán tér",
                "amenity": "fast_food",
                "cuisine": "kebab;pljeskavica",
                "name": "City Grill Büfé",
                "opening_hours": "Mo-Su 10:00-21:00",
                "outdoor_seating": "yes",
                "payment:cards": "yes",
                "payment:cash": "yes",
                "payment:contactless": "yes",
                "takeaway": "yes"
              },
              "geometry": {
                "type": "Point",
                "coordinates": [
                  16.2735267,
                  46.953784
                ]
              }
            },
            {
              "type": "Feature",
              "properties": {
                "id": "12980768638",
                "osm_type": "node",
                "lat": 46.9530749,
                "lon": 16.2729709,
                "addr:city": "Szentgotthárd",
                "addr:housenumber": "3",
                "addr:postcode": "9970",
                "addr:street": "Deák Ferenc utca",
                "amenity": "fast_food",
                "contact:facebook": "https://www.facebook.com/people/Alibaba-Kebab-Szentgotth%C3%A1rd-hivatalos/61572466794513/",
                "cuisine": "kebab;pizza;burger;salad;hasábburgonya",
                "delivery": "yes",
                "name": "Alibaba Kebab",
                "opening_hours": "Mo-Tu 11:00-20:30; We-Th 11:00-20:30; Sa 16:00-20:30",
                "outdoor_seating": "yes",
                "payment:cards": "yes",
                "payment:cash": "yes",
                "payment:contactless": "yes",
                "phone": "+36 94 380 180",
                "takeaway": "yes",
                "toilets": "yes",
                "website": "https://alibaba-kebab-szentgotthard.webnode.hu/",
                "website:menu": "https://alibaba-kebab-szentgotthard.webnode.hu/menu/"
              },
              "geometry": {
                "type": "Point",
                "coordinates": [
                  16.2729709,
                  46.9530749
                ]
              }
            },
            {
              "type": "Feature",
              "properties": {
                "id": "2506207698",
                "osm_type": "node",
                "lat": 46.8770625,
                "lon": 16.5502854,
                "amenity": "fast_food",
                "noname": "yes"
              },
              "geometry": {
                "type": "Point",
                "coordinates": [
                  16.5502854,
                  46.8770625
                ]
              }
            },
            {
              "type": "Feature",
              "properties": {
                "id": "4933469039",
                "osm_type": "node",
                "lat": 46.9652637,
                "lon": 16.6044427,
                "amenity": "fast_food",
                "name": "Büfé",
                "source": "route4u",
                "toilets:wheelchair": "no",
                "wheelchair": "no"
              },
              "geometry": {
                "type": "Point",
                "coordinates": [
                  16.6044427,
                  46.9652637
                ]
              }
            },
            {
              "type": "Feature",
              "properties": {
                "id": "5841723984",
                "osm_type": "node",
                "lat": 47.0093084,
                "lon": 16.6004423,
                "addr:city": "Körmend",
                "addr:housenumber": "16",
                "addr:postcode": "9900",
                "addr:street": "Bástya utca",
                "amenity": "fast_food",
                "contact:email": "crushclubkormend@gmail.com",
                "contact:facebook": "https://www.facebook.com/Novanni0510",
                "contact:instagram": "https://www.instagram.com/novannipizzeria/",
                "contact:phone": "+36 30 556 5627",
                "contact:tiktok": "https://www.tiktok.com/@novannipizza",
                "cuisine": "pizza;kebab",
                "delivery": "yes",
                "name": "Novanni Pizzeria & Kebab",
                "old_name": "Quattro Kebap&Salat",
                "opening_hours": "We-Sa 11:00-22:00; Su 16:00-22:00",
                "start_date": "2023-11-22",
                "takeaway": "yes"
              },
              "geometry": {
                "type": "Point",
                "coordinates": [
                  16.6004423,
                  47.0093084
                ]
              }
            },
            {
              "type": "Feature",
              "properties": {
                "id": "5882730653",
                "osm_type": "node",
                "lat": 47.0101017,
                "lon": 16.6013172,
                "amenity": "fast_food",
                "name": "Royal Kebab & Pizza"
              },
              "geometry": {
                "type": "Point",
                "coordinates": [
                  16.6013172,
                  47.0101017
                ]
              }
            },
            {
              "type": "Feature",
              "properties": {
                "id": "5893663221",
                "osm_type": "node",
                "lat": 46.9878239,
                "lon": 16.6185472,
                "amenity": "fast_food",
                "name": "Non-Stop Grill büfé",
                "opening_hours": "24/7"
              },
              "geometry": {
                "type": "Point",
                "coordinates": [
                  16.6185472,
                  46.9878239
                ]
              }
            },
            {
              "type": "Feature",
              "properties": {
                "id": "6187966751",
                "osm_type": "node",
                "lat": 46.8778432,
                "lon": 16.5522168,
                "amenity": "fast_food",
                "delivery": "no",
                "drive_through": "no",
                "name": "Bolla Hot-Dog",
                "operator": "Bolla Group Kft",
                "outdoor_seating": "yes",
                "takeaway": "yes"
              },
              "geometry": {
                "type": "Point",
                "coordinates": [
                  16.5522168,
                  46.8778432
                ]
              }
            },
            {
              "type": "Feature",
              "properties": {
                "id": "6688051333",
                "osm_type": "node",
                "lat": 46.8769035,
                "lon": 16.5497548,
                "addr:city": "Hegyhátszentjakab",
                "addr:postcode": "9934",
                "addr:street": "Vadása utca",
                "amenity": "fast_food",
                "cuisine": "fish_and_chips",
                "name": "Baján Pecsenye Halsütő",
                "opening_hours": "Mo-Fr 14:00-19:00; Sa-Su 12:00-20:00"
              },
              "geometry": {
                "type": "Point",
                "coordinates": [
                  16.5497548,
                  46.8769035
                ]
              }
            },
            {
              "type": "Feature",
              "properties": {
                "id": "6688051334",
                "osm_type": "node",
                "lat": 46.8770016,
                "lon": 16.5496528,
                "addr:city": "Hegyhátszentjakab",
                "addr:postcode": "9934",
                "addr:street": "Vadása utca",
                "amenity": "fast_food",
                "cuisine": "langos",
                "name": "Miki Lángos"
              },
              "geometry": {
                "type": "Point",
                "coordinates": [
                  16.5496528,
                  46.8770016
                ]
              }
            },
            {
              "type": "Feature",
              "properties": {
                "id": "6688051335",
                "osm_type": "node",
                "lat": 46.8771409,
                "lon": 16.549567,
                "addr:city": "Hegyhátszentjakab",
                "addr:postcode": "9934",
                "addr:street": "Vadása utca",
                "amenity": "fast_food",
                "cuisine": "pizza",
                "name": "Kikötő Pizzeria"
              },
              "geometry": {
                "type": "Point",
                "coordinates": [
                  16.549567,
                  46.8771409
                ]
              }
            },
            {
              "type": "Feature",
              "properties": {
                "id": "8396211306",
                "osm_type": "node",
                "lat": 47.0093126,
                "lon": 16.6007754,
                "amenity": "fast_food",
                "name": "Eat Bar"
              },
              "geometry": {
                "type": "Point",
                "coordinates": [
                  16.6007754,
                  47.0093126
                ]
              }
            }
          ],
          "children": []
        },
        {
          "bbox": {
            "south": 46.868481875,
            "west": 16.68372825,
            "north": 47.033758500000005,
            "east": 17.16058
          },
          "poiCount": 7,
          "leafCount": 7,
          "averagePosition": [
            16.9291545,
            46.927860957142855
          ],
          "data": [
            {
              "type": "Feature",
              "properties": {
                "id": "3039410088",
                "osm_type": "node",
                "lat": 46.8738228,
                "lon": 16.8587839,
                "addr:street": "Külső Kórház utca",
                "amenity": "fast_food"
              },
              "geometry": {
                "type": "Point",
                "coordinates": [
                  16.8587839,
                  46.8738228
                ]
              }
            },
            {
              "type": "Feature",
              "properties": {
                "id": "3039469756",
                "osm_type": "node",
                "lat": 46.8737387,
                "lon": 16.8583015,
                "addr:postcode": "8900",
                "addr:street": "Külső Kórház utca",
                "amenity": "fast_food"
              },
              "geometry": {
                "type": "Point",
                "coordinates": [
                  16.8583015,
                  46.8737387
                ]
              }
            },
            {
              "type": "Feature",
              "properties": {
                "id": "3446767160",
                "osm_type": "node",
                "lat": 46.928996,
                "lon": 16.971004,
                "amenity": "fast_food",
                "name": "Pálma büfé",
                "source": "turistautak.hu",
                "source:date": "2011-09-19",
                "url": "http://turistautak.hu/poi.php?id=85437"
              },
              "geometry": {
                "type": "Point",
                "coordinates": [
                  16.971004,
                  46.928996
                ]
              }
            },
            {
              "type": "Feature",
              "properties": {
                "id": "3469985789",
                "osm_type": "node",
                "lat": 46.9625703,
                "lon": 16.7565265,
                "amenity": "fast_food",
                "name": "Strand büfé",
                "outdoor_seating": "yes",
                "url": "http://turistautak.hu/poi.php?id=121035"
              },
              "geometry": {
                "type": "Point",
                "coordinates": [
                  16.7565265,
                  46.9625703
                ]
              }
            },
            {
              "type": "Feature",
              "properties": {
                "id": "3470021925",
                "osm_type": "node",
                "lat": 46.9528565,
                "lon": 16.9920478,
                "amenity": "fast_food",
                "name": "Éden büfé",
                "source": "turistautak.hu",
                "source:date": "2011-09-06",
                "url": "http://turistautak.hu/poi.php?id=85496"
              },
              "geometry": {
                "type": "Point",
                "coordinates": [
                  16.9920478,
                  46.9528565
                ]
              }
            },
            {
              "type": "Feature",
              "properties": {
                "id": "6127153329",
                "osm_type": "node",
                "lat": 46.9598904,
                "lon": 16.9988698,
                "amenity": "fast_food",
                "name": "Tatuka Büfé",
                "source": "route4u"
              },
              "geometry": {
                "type": "Point",
                "coordinates": [
                  16.9988698,
                  46.9598904
                ]
              }
            },
            {
              "type": "Feature",
              "properties": {
                "id": "3470021547",
                "osm_type": "node",
                "lat": 46.943152,
                "lon": 17.068548,
                "amenity": "fast_food",
                "indoor_seating": "yes",
                "name": "Bisztró",
                "outdoor_seating": "yes",
                "source": "turistautak.hu",
                "source:date": "2012-06-01",
                "url": "http://turistautak.hu/poi.php?id=139340"
              },
              "geometry": {
                "type": "Point",
                "coordinates": [
                  17.068548,
                  46.943152
                ]
              }
            }
          ],
          "children": []
        }
      ]
    }
  ]
}