{
  "bbox": {
    "south": 47.033758500000005,
    "west": 13.345766,
    "north": 47.694865,
    "east": 15.253173
  },
  "poiCount": 103,
  "leafCount": 0,
  "averagePosition": [
    14.463782436893206,
    47.34214294563107
  ],
  "data": [],
  "children": [
    {
      "bbox": {
        "south": 47.033758500000005,
        "west": 13.345766,
        "north": 47.36431175,
        "east": 14.2994695
      },
      "poiCount": 12,
      "leafCount": 12,
      "averagePosition": [
        13.757779025,
        47.190707941666666
      ],
      "data": [
        {
          "type": "Feature",
          "properties": {
            "id": "661571266",
            "osm_type": "node",
            "lat": 47.3627231,
            "lon": 13.3827675,
            "amenity": "fast_food",
            "name": "Hünchen Grill",
            "opening_hours": "Mo-Fr 07:30-19:00; Sa 07:30-18:00"
          },
          "geometry": {
            "type": "Point",
            "coordinates": [
              13.3827675,
              47.3627231
            ]
          }
        },
        {
          "type": "Feature",
          "properties": {
            "id": "661571269",
            "osm_type": "node",
            "lat": 47.3628647,
            "lon": 13.3832552,
            "amenity": "fast_food",
            "name": "Dani's Imbiss",
            "opening_hours": "Mo-Sa 09:00-20:00",
            "snack": "yes"
          },
          "geometry": {
            "type": "Point",
            "coordinates": [
              13.3832552,
              47.3628647
            ]
          }
        },
        {
          "type": "Feature",
          "properties": {
            "id": "1088140887",
            "osm_type": "node",
            "lat": 47.0889709,
            "lon": 13.9887847,
            "amenity": "fast_food",
            "cuisine": "regional",
            "ele": "897.509765625",
            "name": "da Brauhäuser",
            "phone": "+43 664 1246093",
            "type": "Jausenstation",
            "website": "https://www.pichlerpaul-urlaub.at/",
            "wpt_description": "05-JAN-11 10:12:26",
            "wpt_symbol": "Restaurant"
          },
          "geometry": {
            "type": "Point",
            "coordinates": [
              13.9887847,
              47.0889709
            ]
          }
        },
        {
          "type": "Feature",
          "properties": {
            "id": "3066339526",
            "osm_type": "node",
            "lat": 47.0968421,
            "lon": 13.6321339,
            "addr:city": "Sankt Michael im Lungau",
            "addr:housenumber": "582",
            "addr:street": "Murtalstraße",
            "amenity": "fast_food",
            "contact:email": "imbiss@palas.at",
            "contact:phone": "+43 660 57 999 82",
            "contact:website": "https://www.palas.at",
            "name": "Palas Kebab-Pizza-Grill",
            "opening_hours": "Tu-Su 10:00-21:00"
          },
          "geometry": {
            "type": "Point",
            "coordinates": [
              13.6321339,
              47.0968421
            ]
          }
        },
        {
          "type": "Feature",
          "properties": {
            "id": "3364544721",
            "osm_type": "node",
            "lat": 47.1256881,
            "lon": 13.8095499,
            "amenity": "fast_food",
            "cuisine": "kebab",
            "name": "Lungau Pizza & Kebap Haus"
          },
          "geometry": {
            "type": "Point",
            "coordinates": [
              13.8095499,
              47.1256881
            ]
          }
        },
        {
          "type": "Feature",
          "properties": {
            "id": "7856243602",
            "osm_type": "node",
            "lat": 47.0956625,
            "lon": 13.6337851,
            "addr:city": "Sankt Michael im Lungau",
            "addr:housenumber": "580",
            "addr:street": "Gewerbestraße",
            "amenity": "fast_food",
            "contact:website": "https://www.ebster-gruppe.at/blog/die-ladnerei-st-michael/",
            "name": "Die Ladnerei",
            "opening_hours": "Mo-Fr 00:00-18:00; Sa 07:00-13:00",
            "operator": "S&P Catering GmbH"
          },
          "geometry": {
            "type": "Point",
            "coordinates": [
              13.6337851,
              47.0956625
            ]
          }
        },
        {
          "type": "Feature",
          "properties": {
            "id": "10771861068",
            "osm_type": "node",
            "lat": 47.2489999,
            "lon": 13.5566618,
            "addr:city": "Obertauern",
            "addr:country": "AT",
            "addr:housenumber": "51",
            "addr:postcode": "5562",
            "addr:street": "Römerstraße",
            "amenity": "fast_food",
            "contact:facebook": "istanbullobertauern",
            "contact:phone": "+436641313036",
            "name": "Istan Bull Kebab",
            "opening_hours": "11:00-04:00"
          },
          "geometry": {
            "type": "Point",
            "coordinates": [
              13.5566618,
              47.2489999
            ]
          }
        },
        {
          "type": "Feature",
          "properties": {
            "id": "10776599211",
            "osm_type": "node",
            "lat": 47.248503,
            "lon": 13.5628459,
            "amenity": "fast_food",
            "contact:website": "https://www.luerzeralm.at/drunken-pig/",
            "name": "Drunken Pig"
          },
          "geometry": {
            "type": "Point",
            "coordinates": [
              13.5628459,
              47.248503
            ]
          }
        },
        {
          "type": "Feature",
          "properties": {
            "id": "12876977239",
            "osm_type": "node",
            "lat": 47.0914986,
            "lon": 13.6279275,
            "addr:housenumber": "406",
            "addr:street": "Sägestraße",
            "amenity": "fast_food",
            "changing_table": "yes",
            "description": "Kunstausstellung mit integriertem Cafe, Sitzgelegenheit innen und außen, Snackautomaten mit warmen Gerichten, Süßigkeiten, Kaffee.",
            "fee": "no",
            "indoor_seating": "yes",
            "name": "Galerie Lungau",
            "opening_hours": "Mo-Su 06:00-22:00",
            "outdoor_seating": "veranda",
            "payment:credit_cards": "yes",
            "payment:debit_cards": "yes",
            "self_service": "only",
            "toilets": "yes",
            "tourism": "gallery",
            "website": "https://www.galerie-lungau.com/#bistro",
            "wheelchair": "yes"
          },
          "geometry": {
            "type": "Point",
            "coordinates": [
              13.6279275,
              47.0914986
            ]
          }
        },
        {
          "type": "Feature",
          "properties": {
            "id": "3137480002",
            "osm_type": "node",
            "lat": 47.1838764,
            "lon": 14.1878164,
            "amenity": "fast_food"
          },
          "geometry": {
            "type": "Point",
            "coordinates": [
              14.1878164,
              47.1838764
            ]
          }
        },
        {
          "type": "Feature",
          "properties": {
            "id": "4938397675",
            "osm_type": "node",
            "lat": 47.2720544,
            "lon": 14.1567944,
            "addr:city": "Oberwölz",
            "addr:country": "AT",
            "addr:housenumber": "37",
            "addr:place": "Eselsberg",
            "addr:postcode": "8832",
            "amenity": "fast_food",
            "at_bev:addr_date": "2018-10-01",
            "cuisine": "regional",
            "name": "Knolli Hütte",
            "tourism": "guest_house"
          },
          "geometry": {
            "type": "Point",
            "coordinates": [
              14.1567944,
              47.2720544
            ]
          }
        },
        {
          "type": "Feature",
          "properties": {
            "id": "7627184504",
            "osm_type": "node",
            "lat": 47.1108116,
            "lon": 14.171026,
            "addr:city": "Murau",
            "addr:housenumber": "1",
            "addr:postcode": "8850",
            "addr:street": "Schwarzenbergstraße",
            "amenity": "fast_food",
            "cuisine": "sausage",
            "cuisine:ja": "regional",
            "name": "Die KAILerei",
            "shop": "butcher",
            "website": "https://www.kailerei.at/"
          },
          "geometry": {
            "type": "Point",
            "coordinates": [
              14.171026,
              47.1108116
            ]
          }
        }
      ],
      "children": []
    },
    {
      "bbox": {
        "south": 47.033758500000005,
        "west": 14.2994695,
        "north": 47.36431175,
        "east": 15.253173
      },
      "poiCount": 37,
      "leafCount": 37,
      "averagePosition": [
        14.79973785945946,
        47.17398748648649
      ],
      "data": [
        {
          "type": "Feature",
          "properties": {
            "id": "1001411507",
            "osm_type": "node",
            "lat": 47.0731774,
            "lon": 14.4262911,
            "addr:city": "Neumarkt in der Steiermark",
            "addr:country": "AT",
            "addr:housenumber": "26",
            "addr:postcode": "8820",
            "addr:street": "Hauptplatz",
            "amenity": "fast_food",
            "brewery": "Puntigamer",
            "cuisine": "kebab",
            "name": "Robert's Kebap- & Pizzahaus",
            "opening_hours": "We-Mo 11:00-22:00"
          },
          "geometry": {
            "type": "Point",
            "coordinates": [
              14.4262911,
              47.0731774
            ]
          }
        },
        {
          "type": "Feature",
          "properties": {
            "id": "9137809321",
            "osm_type": "node",
            "lat": 47.0738528,
            "lon": 14.4259442,
            "amenity": "fast_food",
            "cuisine": "kebab",
            "entrance": "main",
            "name": "Ava Pizza & Kebap"
          },
          "geometry": {
            "type": "Point",
            "coordinates": [
              14.4259442,
              47.0738528
            ]
          }
        },
        {
          "type": "Feature",
          "properties": {
            "id": "339715595",
            "osm_type": "node",
            "lat": 47.172194,
            "lon": 14.631462,
            "addr:city": "Judenburg",
            "addr:housenumber": "138",
            "addr:street": "Burggasse",
            "air_conditioning": "yes",
            "amenity": "fast_food",
            "brand": "McDonald's",
            "brand:wikidata": "Q38076",
            "brand:wikipedia": "en:McDonald's",
            "changing_table": "no",
            "contact:mobile": "+43 676 4699 093",
            "cuisine": "burger",
            "indoor_seating": "yes",
            "name": "McDonald's",
            "opening_hours": "Su-Th 07:00-24:00; Fr, Sa 07:00-01:00",
            "operator": "McDonald's",
            "outdoor_seating": "yes",
            "takeaway": "yes",
            "website": "https://www.teamgamsjaeger.at/kontakt",
            "wheelchair": "yes"
          },
          "geometry": {
            "type": "Point",
            "coordinates": [
              14.631462,
              47.172194
            ]
          }
        },
        {
          "type": "Feature",
          "properties": {
            "id": "1613990527",
            "osm_type": "node",
            "lat": 47.1899889,
            "lon": 14.7534545,
            "addr:city": "Zeltweg",
            "addr:country": "AT",
            "addr:housenumber": "40",
            "addr:postcode": "8740",
            "addr:street": "Bahnhofstraße",
            "amenity": "fast_food",
            "cuisine": "kebab",
            "name": "Dilman Pizza & Kebap",
            "opening_hours": "PH,Mo-Su 11:00-22:00",
            "phone": "+43 664 8729070"
          },
          "geometry": {
            "type": "Point",
            "coordinates": [
              14.7534545,
              47.1899889
            ]
          }
        },
        {
          "type": "Feature",
          "properties": {
            "id": "1620604158",
            "osm_type": "node",
            "lat": 47.1929462,
            "lon": 14.7591511,
            "addr:city": "Zeltweg",
            "addr:country": "AT",
            "addr:housenumber": "52",
            "addr:postcode": "8740",
            "addr:street": "Hauptstraße",
            "amenity": "fast_food",
            "cuisine": "pizza",
            "name": "1A Pizza",
            "website": "https://www.1apizza.at/"
          },
          "geometry": {
            "type": "Point",
            "coordinates": [
              14.7591511,
              47.1929462
            ]
          }
        },
        {
          "type": "Feature",
          "properties": {
            "id": "1677373195",
            "osm_type": "node",
            "lat": 47.1682227,
            "lon": 14.660925,
            "addr:city": "Judenburg",
            "addr:country": "AT",
            "addr:housenumber": "19",
            "addr:postcode": "8750",
            "addr:street": "Hauptplatz",
            "amenity": "fast_food",
            "cuisine": "kebab",
            "name": "Euro Pizza & Kebab",
            "phone": "+43 3572 42181"
          },
          "geometry": {
            "type": "Point",
            "coordinates": [
              14.660925,
              47.1682227
            ]
          }
        },
        {
          "type": "Feature",
          "properties": {
            "id": "4340747891",
            "osm_type": "node",
            "lat": 47.2153712,
            "lon": 14.8285242,
            "addr:city": "Knittelfeld",
            "addr:housenumber": "14",
            "addr:postcode": "8720",
            "addr:street": "Frauengasse",
            "amenity": "fast_food",
            "cuisine": "kebab;pizza",
            "name": "Pizzeria Schabanack",
            "opening_hours": "Mo-Th 10:00-23:00; Fr,Sa 10:00-00:00; PH,Su 10:00-22:00",
            "phone": "+43 800 240 43 15 95",
            "website": "https://www.pizza-schabanack.at/"
          },
          "geometry": {
            "type": "Point",
            "coordinates": [
              14.8285242,
              47.2153712
            ]
          }
        },
        {
          "type": "Feature",
          "properties": {
            "id": "5478304843",
            "osm_type": "node",
            "lat": 47.1832131,
            "lon": 14.6812186,
            "amenity": "fast_food",
            "email": "info@denos-kebab.de",
            "name": "kebab DENOS",
            "opening_hours": "Mo-Su 10:00-21:00",
            "phone": "+43 6644043292",
            "smoking": "yes",
            "website": "https://denos-kebab.at/",
            "wheelchair": "yes"
          },
          "geometry": {
            "type": "Point",
            "coordinates": [
              14.6812186,
              47.1832131
            ]
          }
        },
        {
          "type": "Feature",
          "properties": {
            "id": "5573487587",
            "osm_type": "node",
            "lat": 47.1979571,
            "lon": 14.7669044,
            "addr:city": "Zeltweg",
            "addr:country": "AT",
            "addr:housenumber": "52",
            "addr:postcode": "8740",
            "addr:street": "Triesterstraße",
            "amenity": "fast_food",
            "cuisine": "pizza;kebab",
            "name": "Milano Pizza und Kebap Haus",
            "phone": "+4376/4330476"
          },
          "geometry": {
            "type": "Point",
            "coordinates": [
              14.7669044,
              47.1979571
            ]
          }
        },
        {
          "type": "Feature",
          "properties": {
            "id": "5578472839",
            "osm_type": "node",
            "lat": 47.189913,
            "lon": 14.7540298,
            "addr:city": "Zeltweg",
            "addr:country": "AT",
            "addr:housenumber": "43",
            "addr:postcode": "8740",
            "addr:street": "Bahnhofstraße",
            "amenity": "fast_food",
            "cuisine": "german",
            "name": "Ottos Schmankerl",
            "outdoor_seating": "yes"
          },
          "geometry": {
            "type": "Point",
            "coordinates": [
              14.7540298,
              47.189913
            ]
          }
        },
        {
          "type": "Feature",
          "properties": {
            "id": "5585754104",
            "osm_type": "node",
            "lat": 47.2076308,
            "lon": 14.7971839,
            "addr:city": "Spielberg",
            "addr:country": "AT",
            "addr:housenumber": "1",
            "addr:postcode": "8724",
            "addr:street": "Marktpassage",
            "amenity": "fast_food",
            "cuisine": "kebab",
            "name": "Döner König",
            "opening_hours": "Mo-Su 11:00-22:00; Fr,Sa 11:00-23:00",
            "phone": "+43 664 6483571"
          },
          "geometry": {
            "type": "Point",
            "coordinates": [
              14.7971839,
              47.2076308
            ]
          }
        },
        {
          "type": "Feature",
          "properties": {
            "id": "5589061844",
            "osm_type": "node",
            "lat": 47.2075191,
            "lon": 14.7959236,
            "addr:city": "Spielberg",
            "addr:country": "AT",
            "addr:district": "Murtal",
            "addr:housenumber": "6",
            "addr:postcode": "8724",
            "addr:street": "Marktplatz",
            "amenity": "fast_food",
            "name": "Backhendlwirt",
            "opening_hours": "Mo-Su 11:00-22:00; Tu off",
            "outdoor_seating": "yes",
            "phone": "+43 664 4584493"
          },
          "geometry": {
            "type": "Point",
            "coordinates": [
              14.7959236,
              47.2075191
            ]
          }
        },
        {
          "type": "Feature",
          "properties": {
            "id": "5596295968",
            "osm_type": "node",
            "lat": 47.1678312,
            "lon": 14.6621722,
            "addr:city": "Judenburg",
            "addr:country": "AT",
            "addr:housenumber": "2",
            "addr:postcode": "8750",
            "addr:street": "Wickenburgstraße",
            "amenity": "fast_food",
            "name": "Steira Stüberl",
            "opening_hours": "Tu-Sa 10:00-22:00",
            "phone": "+4367761161697",
            "takeaway": "yes",
            "website": "https://www.judenburgcatering.at/leere-seite2/"
          },
          "geometry": {
            "type": "Point",
            "coordinates": [
              14.6621722,
              47.1678312
            ]
          }
        },
        {
          "type": "Feature",
          "properties": {
            "id": "5598770514",
            "osm_type": "node",
            "lat": 47.1746945,
            "lon": 14.6657959,
            "addr:city": "Judenburg",
            "addr:country": "AT",
            "addr:district": "Murtal",
            "addr:housenumber": "22",
            "addr:postcode": "8750",
            "addr:street": "Gußstahlwerkstraße",
            "amenity": "fast_food",
            "at_bev:addr_date": "2019-10-01",
            "cuisine": "german",
            "name": "Jause Gratzl"
          },
          "geometry": {
            "type": "Point",
            "coordinates": [
              14.6657959,
              47.1746945
            ]
          }
        },
        {
          "type": "Feature",
          "properties": {
            "id": "5607528583",
            "osm_type": "node",
            "lat": 47.1537501,
            "lon": 14.7386393,
            "amenity": "fast_food",
            "name": "Pizzeria Davit 2"
          },
          "geometry": {
            "type": "Point",
            "coordinates": [
              14.7386393,
              47.1537501
            ]
          }
        },
        {
          "type": "Feature",
          "properties": {
            "id": "5607615369",
            "osm_type": "node",
            "lat": 47.1761531,
            "lon": 14.6758139,
            "amenity": "fast_food",
            "name": "Sultan's",
            "outdoor_seating": "yes"
          },
          "geometry": {
            "type": "Point",
            "coordinates": [
              14.6758139,
              47.1761531
            ]
          }
        },
        {
          "type": "Feature",
          "properties": {
            "id": "5609823879",
            "osm_type": "node",
            "lat": 47.2082412,
            "lon": 14.6780334,
            "amenity": "fast_food",
            "name": "Kebap Haus"
          },
          "geometry": {
            "type": "Point",
            "coordinates": [
              14.6780334,
              47.2082412
            ]
          }
        },
        {
          "type": "Feature",
          "properties": {
            "id": "5611024293",
            "osm_type": "node",
            "lat": 47.207813,
            "lon": 14.6748403,
            "amenity": "fast_food",
            "name": "Pizzeria La Rosa",
            "phone": "+43 3573-27548"
          },
          "geometry": {
            "type": "Point",
            "coordinates": [
              14.6748403,
              47.207813
            ]
          }
        },
        {
          "type": "Feature",
          "properties": {
            "id": "5611770149",
            "osm_type": "node",
            "lat": 47.2059717,
            "lon": 14.6686497,
            "amenity": "fast_food",
            "name": "Pizzeria Salii",
            "phone": "+43 3573 20179",
            "website": "http://pizzeria-salii.at/"
          },
          "geometry": {
            "type": "Point",
            "coordinates": [
              14.6686497,
              47.2059717
            ]
          }
        },
        {
          "type": "Feature",
          "properties": {
            "id": "5617462018",
            "osm_type": "node",
            "lat": 47.2157204,
            "lon": 14.8326006,
            "addr:city": "Knittelfeld",
            "addr:country": "AT",
            "addr:district": "Murtal",
            "addr:housenumber": "14",
            "addr:postcode": "8720",
            "addr:street": "Bahnstraße",
            "amenity": "fast_food",
            "name": "ERTEM Kebap",
            "phone": "+43 6764439601",
            "website": "https://www.ertem.at/"
          },
          "geometry": {
            "type": "Point",
            "coordinates": [
              14.8326006,
              47.2157204
            ]
          }
        },
        {
          "type": "Feature",
          "properties": {
            "id": "5617463734",
            "osm_type": "node",
            "lat": 47.2195991,
            "lon": 14.8285979,
            "addr:city": "Knittelfeld",
            "addr:country": "AT",
            "addr:housenumber": "43",
            "addr:postcode": "8720",
            "addr:street": "Wiener Straße",
            "amenity": "fast_food",
            "name": "Stadt Pizzeria",
            "phone": "+43 3512 46704"
          },
          "geometry": {
            "type": "Point",
            "coordinates": [
              14.8285979,
              47.2195991
            ]
          }
        },
        {
          "type": "Feature",
          "properties": {
            "id": "5618031003",
            "osm_type": "node",
            "lat": 47.2153352,
            "lon": 14.8292081,
            "amenity": "fast_food",
            "name": "El Camino 2",
            "website": "https://www.elcamino2-knittelfeld.at/"
          },
          "geometry": {
            "type": "Point",
            "coordinates": [
              14.8292081,
              47.2153352
            ]
          }
        },
        {
          "type": "Feature",
          "properties": {
            "id": "5621334594",
            "osm_type": "node",
            "lat": 47.2126396,
            "lon": 14.8301482,
            "addr:city": "Knittelfeld",
            "addr:country": "AT",
            "addr:district": "Murtal",
            "addr:housenumber": "2",
            "addr:postcode": "8720",
            "addr:street": "Sandgasse",
            "amenity": "fast_food",
            "cuisine": "pizza",
            "name": "Il Gusto",
            "opening_hours": "Mo-Su 11:00-22:00; We 11:00-14:00; Th off",
            "website": "https://www.facebook.com/ristorantepizzeriailgusto/"
          },
          "geometry": {
            "type": "Point",
            "coordinates": [
              14.8301482,
              47.2126396
            ]
          }
        },
        {
          "type": "Feature",
          "properties": {
            "id": "5628930606",
            "osm_type": "node",
            "lat": 47.2107818,
            "lon": 14.8200628,
            "amenity": "fast_food",
            "cuisine": "german",
            "name": "Hendl Station"
          },
          "geometry": {
            "type": "Point",
            "coordinates": [
              14.8200628,
              47.2107818
            ]
          }
        },
        {
          "type": "Feature",
          "properties": {
            "id": "5630875816",
            "osm_type": "node",
            "lat": 47.2137683,
            "lon": 14.8293811,
            "addr:city": "Knittelfeld",
            "addr:country": "AT",
            "addr:housenumber": "8",
            "addr:postcode": "8720",
            "addr:street": "Hauptplatz",
            "amenity": "fast_food",
            "name": "Schmankerl-Küche"
          },
          "geometry": {
            "type": "Point",
            "coordinates": [
              14.8293811,
              47.2137683
            ]
          }
        },
        {
          "type": "Feature",
          "properties": {
            "id": "5630903583",
            "osm_type": "node",
            "lat": 47.2137255,
            "lon": 14.8302796,
            "addr:city": "Knittelfeld",
            "addr:country": "AT",
            "addr:housenumber": "5",
            "addr:postcode": "8720",
            "addr:street": "Kirchengasse",
            "amenity": "fast_food",
            "name": "Oriental"
          },
          "geometry": {
            "type": "Point",
            "coordinates": [
              14.8302796,
              47.2137255
            ]
          }
        },
        {
          "type": "Feature",
          "properties": {
            "id": "5890688210",
            "osm_type": "node",
            "lat": 47.1907382,
            "lon": 14.7460482,
            "addr:city": "Zeltweg",
            "addr:country": "AT",
            "addr:postcode": "8740",
            "addr:street": "Hauptstraße",
            "amenity": "fast_food",
            "cuisine": "kebab;pizza",
            "name": "Sultan Kebap&Pizza",
            "website": "https://www.sultansrestaurant.at/"
          },
          "geometry": {
            "type": "Point",
            "coordinates": [
              14.7460482,
              47.1907382
            ]
          }
        },
        {
          "type": "Feature",
          "properties": {
            "id": "6650194407",
            "osm_type": "node",
            "lat": 47.0696487,
            "lon": 14.6947382,
            "amenity": "fast_food",
            "cuisine": "kebab",
            "delivery": "yes",
            "name": "Döner König Obdach",
            "opening_hours": "Mo-Su 11:00-22:00",
            "outdoor_seating": "yes",
            "phone": "+43 664 366 32 83",
            "takeaway": "yes",
            "wheelchair": "yes"
          },
          "geometry": {
            "type": "Point",
            "coordinates": [
              14.6947382,
              47.0696487
            ]
          }
        },
        {
          "type": "Feature",
          "properties": {
            "id": "7438142850",
            "osm_type": "node",
            "lat": 47.1837262,
            "lon": 14.6804206,
            "amenity": "fast_food",
            "name": "El Bolero",
            "opening_hours": "Mo-Sa 10:00-21:00",
            "wheelchair": "yes"
          },
          "geometry": {
            "type": "Point",
            "coordinates": [
              14.6804206,
              47.1837262
            ]
          }
        },
        {
          "type": "Feature",
          "properties": {
            "id": "12718476673",
            "osm_type": "node",
            "lat": 47.1565701,
            "lon": 14.728855,
            "amenity": "fast_food",
            "name": "Toni's Grill",
            "opening_hours": "Mo-Su 10:00-22:00"
          },
          "geometry": {
            "type": "Point",
            "coordinates": [
              14.728855,
              47.1565701
            ]
          }
        },
        {
          "type": "Feature",
          "properties": {
            "id": "2339426887",
            "osm_type": "node",
            "lat": 47.0450188,
            "lon": 15.1531988,
            "addr:city": "Voitsberg",
            "addr:housename": "King Kebab Voitsberg",
            "addr:housenumber": "19",
            "addr:postcode": "8570",
            "addr:street": "Mühlgasse",
            "amenity": "fast_food",
            "cuisine": "kebab;pizza",
            "name": "King Kebab Voitsberg",
            "note": "MO–FR: 08–22 Uhr Sa–So: 10–22 Uhr GRATIS ZUSTELLUNG: Voitsberg, Köflach, Bärnbach, Rosental a. d. Kainach, Krems",
            "phone": "0664/97 02 770",
            "website": "http://www.king-kebab.at"
          },
          "geometry": {
            "type": "Point",
            "coordinates": [
              15.1531988,
              47.0450188
            ]
          }
        },
        {
          "type": "Feature",
          "properties": {
            "id": "3832366340",
            "osm_type": "node",
            "lat": 47.3617605,
            "lon": 15.097446,
            "amenity": "fast_food",
            "source": "survey"
          },
          "geometry": {
            "type": "Point",
            "coordinates": [
              15.097446,
              47.3617605
            ]
          }
        },
        {
          "type": "Feature",
          "properties": {
            "id": "4023754757",
            "osm_type": "node",
            "lat": 47.0641228,
            "lon": 15.0847885,
            "addr:city": "Köflach",
            "addr:country": "AT",
            "addr:housenumber": "15",
            "addr:postcode": "8580",
            "addr:street": "Hauptplatz",
            "amenity": "fast_food",
            "cuisine": "pizza",
            "name": "Pizza Taxi",
            "phone": "+43 3144 70800",
            "website": "https://www.pizzataxi.at/"
          },
          "geometry": {
            "type": "Point",
            "coordinates": [
              15.0847885,
              47.0641228
            ]
          }
        },
        {
          "type": "Feature",
          "properties": {
            "id": "4304320370",
            "osm_type": "node",
            "lat": 47.3307439,
            "lon": 15.2042381,
            "amenity": "fast_food",
            "note": "Sadly, there is no \"Jausenstation\", yet."
          },
          "geometry": {
            "type": "Point",
            "coordinates": [
              15.2042381,
              47.3307439
            ]
          }
        },
        {
          "type": "Feature",
          "properties": {
            "id": "4970888056",
            "osm_type": "node",
            "lat": 47.0501063,
            "lon": 15.1487873,
            "addr:city": "Voitsberg",
            "addr:country": "AT",
            "addr:housenumber": "25",
            "addr:postcode": "8570",
            "addr:street": "Hauptplatz",
            "amenity": "fast_food",
            "cuisine": "kebab;pizza",
            "name": "Sara",
            "opening_hours": "Mo-Su 10:30-22:00",
            "website": "https://www.pizzeria-kebab-haus-sara.at/",
            "wheelchair": "yes"
          },
          "geometry": {
            "type": "Point",
            "coordinates": [
              15.1487873,
              47.0501063
            ]
          }
        },
        {
          "type": "Feature",
          "properties": {
            "id": "6625019684",
            "osm_type": "node",
            "lat": 47.0526184,
            "lon": 15.1231752,
            "amenity": "fast_food",
            "cuisine": "pizza",
            "name": "Pizza und Würstl Standl Rosental"
          },
          "geometry": {
            "type": "Point",
            "coordinates": [
              15.1231752,
              47.0526184
            ]
          }
        },
        {
          "type": "Feature",
          "properties": {
            "id": "9238697002",
            "osm_type": "node",
            "lat": 47.0644721,
            "lon": 15.0833695,
            "addr:city": "Köflach",
            "addr:country": "AT",
            "addr:postcode": "8580",
            "amenity": "fast_food",
            "contact:phone": "+43 660 182 71 71",
            "cuisine": "kebab;pizza",
            "name": "Speed Pizza & Kebap Haus",
            "opening_hours": "Mo-Sa 10:00-22:00; Su 10:00-21:00"
          },
          "geometry": {
            "type": "Point",
            "coordinates": [
              15.0833695,
              47.0644721
            ]
          }
        }
      ],
      "children": []
    },
    {
      "bbox": {
        "south": 47.36431175,
        "west": 13.345766,
        "north": 47.694865,
        "east": 14.2994695
      },
      "poiCount": 27,
      "leafCount": 27,
      "averagePosition": [
        13.831210788888889,
        47.53669527407407
      ],
      "data": [
        {
          "type": "Feature",
          "properties": {
            "id": "1184554217",
            "osm_type": "node",
            "lat": 47.3847288,
            "lon": 13.4635073,
            "addr:city": "Radstadt",
            "addr:housenumber": "6",
            "addr:postcode": "5550",
            "addr:street": "Schernbergstrasse",
            "amenity": "fast_food",
            "cuisine": "kebab;pizza;falafel",
            "name": "Radstädter Kebap",
            "opening_hours": "Mo-Su 10:00-24:00",
            "opening_hours:signed": "no",
            "phone": "+43 6452 5755"
          },
          "geometry": {
            "type": "Point",
            "coordinates": [
              13.4635073,
              47.3847288
            ]
          }
        },
        {
          "type": "Feature",
          "properties": {
            "id": "8856551853",
            "osm_type": "node",
            "lat": 47.3790636,
            "lon": 13.4236235,
            "addr:city": "Altenmarkt im Pongau",
            "addr:housenumber": "5a",
            "addr:postcode": "5541",
            "addr:street": "Untere Marktstraße",
            "amenity": "fast_food",
            "cuisine": "kebab;pizza",
            "name": "FEROZES Kebap&Pizza",
            "opening_hours": "Mo-Su 11:00-22:00",
            "phone": "+43 452 6199"
          },
          "geometry": {
            "type": "Point",
            "coordinates": [
              13.4236235,
              47.3790636
            ]
          }
        },
        {
          "type": "Feature",
          "properties": {
            "id": "8856635336",
            "osm_type": "node",
            "lat": 47.3816102,
            "lon": 13.4176696,
            "amenity": "fast_food",
            "cuisine": "kebab"
          },
          "geometry": {
            "type": "Point",
            "coordinates": [
              13.4176696,
              47.3816102
            ]
          }
        },
        {
          "type": "Feature",
          "properties": {
            "id": "12198119082",
            "osm_type": "node",
            "lat": 47.3849066,
            "lon": 13.4644243,
            "amenity": "fast_food",
            "cuisine": "kebab;indian;pizza",
            "name": "Radstädter Kebap"
          },
          "geometry": {
            "type": "Point",
            "coordinates": [
              13.4644243,
              47.3849066
            ]
          }
        },
        {
          "type": "Feature",
          "properties": {
            "id": "452974968",
            "osm_type": "node",
            "lat": 47.6858751,
            "lon": 13.6263313,
            "addr:city": "Bad Ischl",
            "addr:housenumber": "1",
            "addr:postcode": "4820",
            "addr:street": "Brunnleitenstraße",
            "amenity": "fast_food",
            "cuisine": "regional",
            "email": "spitzer@gilly.at",
            "name": "Gilly's Fischbrathütte",
            "opening_hours": "Mo, Tu, Th-Su 11:00-20:00",
            "phone": "+43 664 75023017",
            "website": "https://www.gilly.at/"
          },
          "geometry": {
            "type": "Point",
            "coordinates": [
              13.6263313,
              47.6858751
            ]
          }
        },
        {
          "type": "Feature",
          "properties": {
            "id": "1044751264",
            "osm_type": "node",
            "lat": 47.3937292,
            "lon": 13.6836557,
            "addr:city": "Schladming",
            "addr:housenumber": "797",
            "addr:postcode": "8970",
            "addr:street": "Bahnhofstraße",
            "amenity": "fast_food",
            "name": "Stefan Wochnitz Imbiss & Co.",
            "snack": "yes"
          },
          "geometry": {
            "type": "Point",
            "coordinates": [
              13.6836557,
              47.3937292
            ]
          }
        },
        {
          "type": "Feature",
          "properties": {
            "id": "1044802048",
            "osm_type": "node",
            "lat": 47.3919061,
            "lon": 13.6849652,
            "amenity": "fast_food",
            "email": "wacholderspeck.wanke@aon.at",
            "name": "A.Wanke Fleisch&Wurst",
            "opening_hours": "Mo-Fr 07:00-18:00; Sa 07:00-12:00; PH,Su off",
            "shop": "butcher"
          },
          "geometry": {
            "type": "Point",
            "coordinates": [
              13.6849652,
              47.3919061
            ]
          }
        },
        {
          "type": "Feature",
          "properties": {
            "id": "2416057955",
            "osm_type": "node",
            "lat": 47.5551873,
            "lon": 13.9305764,
            "addr:city": "Bad Mitterndorf",
            "addr:country": "AT",
            "addr:postcode": "8983",
            "amenity": "fast_food",
            "check_date": "2025-02-21",
            "contact:phone": "+43 3623 2321",
            "contact:website": "https://www.diechtl.at",
            "name": "Fleischerei Diechtl",
            "opening_hours": "Mo-Fr 07:30-18:00; Sa 07:30-12:30",
            "shop": "butcher"
          },
          "geometry": {
            "type": "Point",
            "coordinates": [
              13.9305764,
              47.5551873
            ]
          }
        },
        {
          "type": "Feature",
          "properties": {
            "id": "4792380024",
            "osm_type": "node",
            "lat": 47.5572872,
            "lon": 13.6468709,
            "addr:city": "Hallstatt",
            "addr:country": "AT",
            "addr:housenumber": "155",
            "addr:postcode": "4830",
            "addr:street": "Seestraße",
            "amenity": "fast_food",
            "contact:phone": "+43 660 5078131",
            "name": "Maik's Heisse Hutte"
          },
          "geometry": {
            "type": "Point",
            "coordinates": [
              13.6468709,
              47.5572872
            ]
          }
        },
        {
          "type": "Feature",
          "properties": {
            "id": "5037664144",
            "osm_type": "node",
            "lat": 47.6423187,
            "lon": 13.616631,
            "amenity": "fast_food",
            "cuisine": "kebab;pizza",
            "name": "mustis"
          },
          "geometry": {
            "type": "Point",
            "coordinates": [
              13.616631,
              47.6423187
            ]
          }
        },
        {
          "type": "Feature",
          "properties": {
            "id": "5640448521",
            "osm_type": "node",
            "lat": 47.6428829,
            "lon": 13.6164799,
            "addr:city": "Bad Goisern am Hallstättersee",
            "addr:country": "AT",
            "addr:housenumber": "12",
            "addr:postcode": "4822",
            "addr:street": "Kirchengasse",
            "amenity": "fast_food",
            "contact:phone": "+43 677 614 26 933",
            "cuisine": "burger",
            "name": "Kostbar Syriana"
          },
          "geometry": {
            "type": "Point",
            "coordinates": [
              13.6164799,
              47.6428829
            ]
          }
        },
        {
          "type": "Feature",
          "properties": {
            "id": "6900640106",
            "osm_type": "node",
            "lat": 47.5555492,
            "lon": 13.9322255,
            "amenity": "fast_food",
            "contact:phone": "+43 3623 21 152",
            "cuisine": "pizza;kebab",
            "name": "Istanbul Pizzeria, Kebap",
            "opening_hours": "Su-Mo 10:00 -21:00",
            "website": "https://www.istanbul-mitterndorf.at/"
          },
          "geometry": {
            "type": "Point",
            "coordinates": [
              13.9322255,
              47.5555492
            ]
          }
        },
        {
          "type": "Feature",
          "properties": {
            "id": "7796191708",
            "osm_type": "node",
            "lat": 47.6899701,
            "lon": 13.6232402,
            "amenity": "fast_food",
            "cuisine": "kebab",
            "name": "Goiserer Kebap"
          },
          "geometry": {
            "type": "Point",
            "coordinates": [
              13.6232402,
              47.6899701
            ]
          }
        },
        {
          "type": "Feature",
          "properties": {
            "id": "8896908870",
            "osm_type": "node",
            "lat": 47.3910237,
            "lon": 13.6701331,
            "addr:city": "Schladming",
            "addr:country": "AT",
            "addr:housenumber": "643",
            "addr:postcode": "8970",
            "addr:street": "Salzburgerstraße",
            "amenity": "fast_food",
            "brewery": "Schladminger Bier",
            "name": "Tennisstüberl"
          },
          "geometry": {
            "type": "Point",
            "coordinates": [
              13.6701331,
              47.3910237
            ]
          }
        },
        {
          "type": "Feature",
          "properties": {
            "id": "8913813682",
            "osm_type": "node",
            "lat": 47.5558425,
            "lon": 13.6458073,
            "amenity": "fast_food",
            "cuisine": "burger",
            "name": "Burger Man"
          },
          "geometry": {
            "type": "Point",
            "coordinates": [
              13.6458073,
              47.5558425
            ]
          }
        },
        {
          "type": "Feature",
          "properties": {
            "id": "11257803142",
            "osm_type": "node",
            "lat": 47.6084177,
            "lon": 13.7836501,
            "addr:city": "Bad Aussee",
            "addr:housenumber": "132",
            "addr:postcode": "8990",
            "addr:street": "Bahnhofstraße",
            "amenity": "fast_food",
            "name": "Elite‘s Restaurant"
          },
          "geometry": {
            "type": "Point",
            "coordinates": [
              13.7836501,
              47.6084177
            ]
          }
        },
        {
          "type": "Feature",
          "properties": {
            "id": "11659755852",
            "osm_type": "node",
            "lat": 47.5933777,
            "lon": 13.9860366,
            "amenity": "fast_food",
            "name": "s'ALMBUFFet",
            "outdoor_seating": "yes",
            "website": "https://s-almbuffet.business.site"
          },
          "geometry": {
            "type": "Point",
            "coordinates": [
              13.9860366,
              47.5933777
            ]
          }
        },
        {
          "type": "Feature",
          "properties": {
            "id": "12198666818",
            "osm_type": "node",
            "lat": 47.5286598,
            "lon": 13.924263,
            "amenity": "fast_food",
            "name": "Salsaseeklause"
          },
          "geometry": {
            "type": "Point",
            "coordinates": [
              13.924263,
              47.5286598
            ]
          }
        },
        {
          "type": "Feature",
          "properties": {
            "id": "12848625725",
            "osm_type": "node",
            "lat": 47.6384982,
            "lon": 13.7696484,
            "amenity": "fast_food",
            "name": "Seelounge"
          },
          "geometry": {
            "type": "Point",
            "coordinates": [
              13.7696484,
              47.6384982
            ]
          }
        },
        {
          "type": "Feature",
          "properties": {
            "id": "1081753211",
            "osm_type": "node",
            "lat": 47.5680401,
            "lon": 14.2429236,
            "amenity": "fast_food",
            "contact:phone": "+43 3612 26271",
            "cuisine": "pizza;regional",
            "name": "My Schnitzel & Pizza",
            "opening_hours": "Mo-Su 10:00-21:00",
            "operator": "Ekici Mustafa, Tuc Mustafa",
            "takeaway": "yes"
          },
          "geometry": {
            "type": "Point",
            "coordinates": [
              14.2429236,
              47.5680401
            ]
          }
        },
        {
          "type": "Feature",
          "properties": {
            "id": "2957681792",
            "osm_type": "node",
            "lat": 47.5875614,
            "lon": 14.089459,
            "amenity": "fast_food",
            "name": "Hechlhütte"
          },
          "geometry": {
            "type": "Point",
            "coordinates": [
              14.089459,
              47.5875614
            ]
          }
        },
        {
          "type": "Feature",
          "properties": {
            "id": "2957681793",
            "osm_type": "node",
            "lat": 47.5883701,
            "lon": 14.0890377,
            "addr:city": "Stainach-Pürgg",
            "addr:country": "AT",
            "addr:housenumber": "75",
            "addr:place": "Zlem",
            "addr:postcode": "8982",
            "amenity": "fast_food",
            "at_bev:addr_date": "2018-10-01",
            "email": "magarethe.reinbacher@gmx.at",
            "name": "Johnsleitnerhütte",
            "phone": "+436645737759"
          },
          "geometry": {
            "type": "Point",
            "coordinates": [
              14.0890377,
              47.5883701
            ]
          }
        },
        {
          "type": "Feature",
          "properties": {
            "id": "4345621338",
            "osm_type": "node",
            "lat": 47.569148,
            "lon": 14.240308,
            "amenity": "fast_food",
            "cuisine": "kebab",
            "name": "Kings Pizza",
            "opening_hours": "Mo-Su 11:00-21:00",
            "phone": "+43 3612 24295"
          },
          "geometry": {
            "type": "Point",
            "coordinates": [
              14.240308,
              47.569148
            ]
          }
        },
        {
          "type": "Feature",
          "properties": {
            "id": "6823348782",
            "osm_type": "node",
            "lat": 47.5594449,
            "lon": 14.2532716,
            "addr:city": "Liezen",
            "addr:country": "AT",
            "addr:housenumber": "16",
            "addr:postcode": "8940",
            "addr:street": "Gesäusestraße",
            "amenity": "fast_food",
            "at_bev:addr_date": "2020-04-01",
            "brand": "Subway",
            "brand:wikidata": "Q244457",
            "brand:wikipedia": "en:Subway (restaurant)",
            "cuisine": "sandwich",
            "name": "Subway",
            "takeaway": "yes"
          },
          "geometry": {
            "type": "Point",
            "coordinates": [
              14.2532716,
              47.5594449
            ]
          }
        },
        {
          "type": "Feature",
          "properties": {
            "id": "6987132125",
            "osm_type": "node",
            "lat": 47.5680066,
            "lon": 14.2420743,
            "addr:city": "Liezen",
            "addr:country": "AT",
            "addr:housenumber": "4",
            "addr:postcode": "8940",
            "addr:street": "Rathausplatz",
            "amenity": "fast_food",
            "at_bev:addr_date": "2018-10-01",
            "contact:phone": "+43 3612 24434",
            "cuisine": "pizza;kebab",
            "delivery": "Tu-Su 11:00-21:00",
            "name": "El Monte",
            "opening_hours": "Mo-Su 10:00-22:00"
          },
          "geometry": {
            "type": "Point",
            "coordinates": [
              14.2420743,
              47.5680066
            ]
          }
        },
        {
          "type": "Feature",
          "properties": {
            "id": "10690311120",
            "osm_type": "node",
            "lat": 47.5602703,
            "lon": 14.2574917,
            "addr:city": "Liezen",
            "addr:housenumber": "31",
            "addr:postcode": "8940",
            "addr:street": "Gesäusestraße",
            "amenity": "fast_food",
            "cuisine": "pizza;burger;kebab;salad;pasta",
            "name": "Bistro El Paso"
          },
          "geometry": {
            "type": "Point",
            "coordinates": [
              14.2574917,
              47.5602703
            ]
          }
        },
        {
          "type": "Feature",
          "properties": {
            "id": "12131313917",
            "osm_type": "node",
            "lat": 47.5290964,
            "lon": 14.1183861,
            "amenity": "fast_food",
            "survey:date": "2024-08-23"
          },
          "geometry": {
            "type": "Point",
            "coordinates": [
              14.1183861,
              47.5290964
            ]
          }
        }
      ],
      "children": []
    },
    {
      "bbox": {
        "south": 47.36431175,
        "west": 14.2994695,
        "north": 47.694865,
        "east": 15.253173
      },
      "poiCount": 27,
      "leafCount": 27,
      "averagePosition": [
        14.949750022222222,
        47.44533032222222
      ],
      "data": [
        {
          "type": "Feature",
          "properties": {
            "id": "2259018669",
            "osm_type": "node",
            "lat": 47.368042,
            "lon": 15.0933023,
            "amenity": "fast_food",
            "name": "Currywurstundco",
            "opening_hours": "Mo-Th 10:00-24:00; Fr 10:00-5:00; Sa 14:00-05:00; Su off",
            "snack": "yes"
          },
          "geometry": {
            "type": "Point",
            "coordinates": [
              15.0933023,
              47.368042
            ]
          }
        },
        {
          "type": "Feature",
          "properties": {
            "id": "4216389013",
            "osm_type": "node",
            "lat": 47.3700432,
            "lon": 15.091631,
            "amenity": "fast_food",
            "cuisine": "chicken",
            "name": "Backhendlstation"
          },
          "geometry": {
            "type": "Point",
            "coordinates": [
              15.091631,
              47.3700432
            ]
          }
        },
        {
          "type": "Feature",
          "properties": {
            "id": "1242983104",
            "osm_type": "node",
            "lat": 47.5252562,
            "lon": 14.3572903,
            "addr:city": "Rottenmann",
            "addr:housenumber": "61",
            "addr:postcode": "8786",
            "addr:street": "Hauptstraße",
            "amenity": "fast_food",
            "cuisine": "kebab",
            "drive_through": "no",
            "email": "office@koenigpizza.at",
            "name": "König Pizzeria & Kebap",
            "operator": "Bozkurt & Görgün OG",
            "outdoor_seating": "yes",
            "phone": "0361421031",
            "wheelchair": "limited"
          },
          "geometry": {
            "type": "Point",
            "coordinates": [
              14.3572903,
              47.5252562
            ]
          }
        },
        {
          "type": "Feature",
          "properties": {
            "id": "3606546259",
            "osm_type": "node",
            "lat": 47.4881388,
            "lon": 14.4861087,
            "amenity": "fast_food",
            "indoor_seating": "yes",
            "outdoor_seating": "yes"
          },
          "geometry": {
            "type": "Point",
            "coordinates": [
              14.4861087,
              47.4881388
            ]
          }
        },
        {
          "type": "Feature",
          "properties": {
            "id": "4956627021",
            "osm_type": "node",
            "lat": 47.578128,
            "lon": 14.460183,
            "amenity": "fast_food",
            "name": "Mustis Wursteleck",
            "name:de": "Mustis Wursteleck"
          },
          "geometry": {
            "type": "Point",
            "coordinates": [
              14.460183,
              47.578128
            ]
          }
        },
        {
          "type": "Feature",
          "properties": {
            "id": "10310766279",
            "osm_type": "node",
            "lat": 47.4941293,
            "lon": 14.4838264,
            "amenity": "fast_food"
          },
          "geometry": {
            "type": "Point",
            "coordinates": [
              14.4838264,
              47.4941293
            ]
          }
        },
        {
          "type": "Feature",
          "properties": {
            "id": "11412985528",
            "osm_type": "node",
            "lat": 47.5778253,
            "lon": 14.4602448,
            "amenity": "fast_food",
            "name": "Best Pizza & Kebab"
          },
          "geometry": {
            "type": "Point",
            "coordinates": [
              14.4602448,
              47.5778253
            ]
          }
        },
        {
          "type": "Feature",
          "properties": {
            "id": "1344333082",
            "osm_type": "node",
            "lat": 47.5411882,
            "lon": 14.8880237,
            "amenity": "fast_food",
            "cuisine": "kebab;pizza",
            "name": "Efe Kebap und Pizza"
          },
          "geometry": {
            "type": "Point",
            "coordinates": [
              14.8880237,
              47.5411882
            ]
          }
        },
        {
          "type": "Feature",
          "properties": {
            "id": "1654136991",
            "osm_type": "node",
            "lat": 47.5410295,
            "lon": 14.8875536,
            "addr:city": "Eisenerz",
            "addr:country": "AT",
            "addr:housenumber": "9",
            "addr:postcode": "8790",
            "addr:street": "Dr.-Karl-Renner-Straße",
            "amenity": "fast_food",
            "contact:phone": "+43 3848 3095",
            "cuisine": "regional",
            "name": "Imbiss Stube Moser",
            "opening_hours": "Mo-Fr 08:00-19:00; Sa 08:00-14:00"
          },
          "geometry": {
            "type": "Point",
            "coordinates": [
              14.8875536,
              47.5410295
            ]
          }
        },
        {
          "type": "Feature",
          "properties": {
            "id": "3973511231",
            "osm_type": "node",
            "lat": 47.4874998,
            "lon": 14.9936403,
            "addr:city": "Vordernberg",
            "addr:housenumber": "4",
            "addr:postcode": "8794",
            "addr:street": "Hauptplatz",
            "amenity": "fast_food",
            "cuisine": "pizza",
            "name": "Pizza & Kebap Schabanack",
            "phone": "+433849/21 913"
          },
          "geometry": {
            "type": "Point",
            "coordinates": [
              14.9936403,
              47.4874998
            ]
          }
        },
        {
          "type": "Feature",
          "properties": {
            "id": "10870324493",
            "osm_type": "node",
            "lat": 47.5805081,
            "lon": 14.5911728,
            "amenity": "fast_food",
            "name": "Foodtruck",
            "note": "genauer Standort unbekannt, siehe https://www.openstreetmap.org/note/3356117"
          },
          "geometry": {
            "type": "Point",
            "coordinates": [
              14.5911728,
              47.5805081
            ]
          }
        },
        {
          "type": "Feature",
          "properties": {
            "id": "840572615",
            "osm_type": "node",
            "lat": 47.3846786,
            "lon": 15.0924857,
            "addr:city": "Leoben",
            "addr:country": "AT",
            "addr:housenumber": "17",
            "addr:postcode": "8700",
            "addr:street": "Franz Josef-Straße",
            "addr:suburb": "Leoben",
            "amenity": "fast_food",
            "name": "Hubi's Imbiß",
            "source": "survey",
            "wheelchair": "no"
          },
          "geometry": {
            "type": "Point",
            "coordinates": [
              15.0924857,
              47.3846786
            ]
          }
        },
        {
          "type": "Feature",
          "properties": {
            "id": "840572638",
            "osm_type": "node",
            "lat": 47.3801743,
            "lon": 15.0928729,
            "amenity": "fast_food",
            "cuisine": "kebab",
            "diet:vegetarian": "yes",
            "name": "Euro Aydin Kebab",
            "source": "survey"
          },
          "geometry": {
            "type": "Point",
            "coordinates": [
              15.0928729,
              47.3801743
            ]
          }
        },
        {
          "type": "Feature",
          "properties": {
            "id": "848736118",
            "osm_type": "node",
            "lat": 47.385415,
            "lon": 15.0921468,
            "addr:city": "Leoben",
            "addr:country": "AT",
            "addr:housenumber": "25",
            "addr:postcode": "8700",
            "addr:street": "Franz Josef-Straße",
            "addr:suburb": "Leoben",
            "amenity": "fast_food",
            "cuisine": "kebab;pizza",
            "drive_through": "no",
            "name": "Ateneo",
            "source": "survey"
          },
          "geometry": {
            "type": "Point",
            "coordinates": [
              15.0921468,
              47.385415
            ]
          }
        },
        {
          "type": "Feature",
          "properties": {
            "id": "1423136311",
            "osm_type": "node",
            "lat": 47.3828709,
            "lon": 15.0591133,
            "amenity": "fast_food",
            "name": "Kantine",
            "source": "survey"
          },
          "geometry": {
            "type": "Point",
            "coordinates": [
              15.0591133,
              47.3828709
            ]
          }
        },
        {
          "type": "Feature",
          "properties": {
            "id": "1431647447",
            "osm_type": "node",
            "lat": 47.3869838,
            "lon": 15.0966078,
            "access": "customers",
            "amenity": "fast_food",
            "smoking": "no",
            "smoking:outside": "yes",
            "source": "survey",
            "wheelchair": "yes"
          },
          "geometry": {
            "type": "Point",
            "coordinates": [
              15.0966078,
              47.3869838
            ]
          }
        },
        {
          "type": "Feature",
          "properties": {
            "id": "1468771366",
            "osm_type": "node",
            "lat": 47.3813529,
            "lon": 15.0961325,
            "addr:city": "Leoben",
            "addr:country": "AT",
            "addr:housenumber": "7",
            "addr:postcode": "8700",
            "addr:street": "Langgasse",
            "amenity": "fast_food",
            "at_bev:addr_date": "2017-10-01",
            "contact:phone": "+43 3842 32210, +43 699 13131806",
            "cuisine": "kebab;falafel;pizza",
            "delivery": "yes",
            "name": "Sahara",
            "opening_hours": "Tu-Th 11:00-23:00; Fr 15:00-02:00, Sa-Su 11:00-23:00, PH 11:00-23:00",
            "source": "survey"
          },
          "geometry": {
            "type": "Point",
            "coordinates": [
              15.0961325,
              47.3813529
            ]
          }
        },
        {
          "type": "Feature",
          "properties": {
            "id": "1613286085",
            "osm_type": "node",
            "lat": 47.5478175,
            "lon": 15.1614743,
            "addr:city": "Thörl",
            "addr:country": "AT",
            "addr:housenumber": "97",
            "addr:place": "St. Ilgen",
            "addr:postcode": "8621",
            "amenity": "fast_food",
            "at_bev:addr_date": "2016-10-02",
            "name": "Tennisbuffet",
            "source": "osb"
          },
          "geometry": {
            "type": "Point",
            "coordinates": [
              15.1614743,
              47.5478175
            ]
          }
        },
        {
          "type": "Feature",
          "properties": {
            "id": "1832584189",
            "osm_type": "node",
            "lat": 47.3790432,
            "lon": 15.0855995,
            "amenity": "fast_food",
            "name": "Imbiss Fischerkeller",
            "opening_hours": "Mo-Fr 08:00-16:00",
            "snack": "yes",
            "source": "survey"
          },
          "geometry": {
            "type": "Point",
            "coordinates": [
              15.0855995,
              47.3790432
            ]
          }
        },
        {
          "type": "Feature",
          "properties": {
            "id": "1832584214",
            "osm_type": "node",
            "lat": 47.38081,
            "lon": 15.095333,
            "addr:city": "Leoben",
            "addr:country": "AT",
            "addr:housenumber": "1",
            "addr:postcode": "8700",
            "addr:street": "Josef Graf-Gasse",
            "addr:suburb": "Leoben",
            "amenity": "fast_food",
            "name": "SABINES VIP",
            "opening_hours": "Mo-Fr 07:30-14:30",
            "outdoor_seating": "yes",
            "phone": "+43384245633",
            "source": "survey"
          },
          "geometry": {
            "type": "Point",
            "coordinates": [
              15.095333,
              47.38081
            ]
          }
        },
        {
          "type": "Feature",
          "properties": {
            "id": "2135735384",
            "osm_type": "node",
            "lat": 47.3793294,
            "lon": 15.0660763,
            "amenity": "fast_food"
          },
          "geometry": {
            "type": "Point",
            "coordinates": [
              15.0660763,
              47.3793294
            ]
          }
        },
        {
          "type": "Feature",
          "properties": {
            "id": "3887619151",
            "osm_type": "node",
            "lat": 47.3746122,
            "lon": 15.082901,
            "amenity": "fast_food",
            "cuisine": "kebab",
            "delivery": "no",
            "name": "Montana Kebap",
            "opening_hours": "Tu-Su 09:00-21:00",
            "outdoor_seating": "yes"
          },
          "geometry": {
            "type": "Point",
            "coordinates": [
              15.082901,
              47.3746122
            ]
          }
        },
        {
          "type": "Feature",
          "properties": {
            "id": "4643239218",
            "osm_type": "node",
            "lat": 47.3795829,
            "lon": 15.0950877,
            "addr:city": "Leoben",
            "addr:country": "AT",
            "addr:housenumber": "7",
            "addr:postcode": "8700",
            "addr:street": "Hauptplatz",
            "addr:suburb": "Leoben",
            "amenity": "fast_food",
            "cuisine": "pizza;kebab",
            "name": "Royal Pizzeria & Kebap",
            "opening_hours": "Mo-Su 10:00-22:00",
            "phone": "+43 3842 43076",
            "source": "survey"
          },
          "geometry": {
            "type": "Point",
            "coordinates": [
              15.0950877,
              47.3795829
            ]
          }
        },
        {
          "type": "Feature",
          "properties": {
            "id": "4924307993",
            "osm_type": "node",
            "lat": 47.5457815,
            "lon": 15.2363209,
            "amenity": "fast_food",
            "name": "Imbiss Freibad"
          },
          "geometry": {
            "type": "Point",
            "coordinates": [
              15.2363209,
              47.5457815
            ]
          }
        },
        {
          "type": "Feature",
          "properties": {
            "id": "5469210960",
            "osm_type": "node",
            "lat": 47.3810798,
            "lon": 15.0948259,
            "addr:city": "Leoben",
            "addr:country": "AT",
            "addr:housenumber": "20",
            "addr:postcode": "8700",
            "addr:street": "Hauptplatz",
            "addr:suburb": "Leoben",
            "amenity": "fast_food",
            "cuisine": "regional",
            "diet:vegetarian": "yes",
            "name": "Zwanzger",
            "source": "local_knowledge",
            "website": "http://www.zwanzger.cc/"
          },
          "geometry": {
            "type": "Point",
            "coordinates": [
              15.0948259,
              47.3810798
            ]
          }
        },
        {
          "type": "Feature",
          "properties": {
            "id": "11782209503",
            "osm_type": "node",
            "lat": 47.406746,
            "lon": 15.2430308,
            "amenity": "fast_food",
            "name": "Gartenlounge",
            "operator": "Gartenbau Schacherl GmbH",
            "website": "https://www.gartenbau-schacherl.at/gartenwelt/gartenlounge"
          },
          "geometry": {
            "type": "Point",
            "coordinates": [
              15.2430308,
              47.406746
            ]
          }
        },
        {
          "type": "Feature",
          "properties": {
            "id": "12878716552",
            "osm_type": "node",
            "lat": 47.3958523,
            "lon": 15.1602653,
            "amenity": "fast_food",
            "cuisine": "kebab"
          },
          "geometry": {
            "type": "Point",
            "coordinates": [
              15.1602653,
              47.3958523
            ]
          }
        }
      ],
      "children": []
    }
  ]
}