{
  "bbox": {
    "south": 47.033758500000005,
    "west": 11.438358999999998,
    "north": 47.694865,
    "east": 13.345766
  },
  "poiCount": 196,
  "leafCount": 0,
  "averagePosition": [
    12.280890717857142,
    47.447205921428576
  ],
  "data": [],
  "children": [
    {
      "bbox": {
        "south": 47.033758500000005,
        "west": 11.438358999999998,
        "north": 47.36431175,
        "east": 12.392062499999998
      },
      "poiCount": 45,
      "leafCount": 45,
      "averagePosition": [
        11.647602975555555,
        47.284006319999996
      ],
      "data": [
        {
          "type": "Feature",
          "properties": {
            "id": "796746498",
            "osm_type": "node",
            "lat": 47.298254,
            "lon": 11.5284132,
            "amenity": "fast_food",
            "name": "Sportstüberl"
          },
          "geometry": {
            "type": "Point",
            "coordinates": [
              11.5284132,
              47.298254
            ]
          }
        },
        {
          "type": "Feature",
          "properties": {
            "id": "1664956417",
            "osm_type": "node",
            "lat": 47.2647228,
            "lon": 11.4477995,
            "amenity": "fast_food",
            "name": "Beach Bar"
          },
          "geometry": {
            "type": "Point",
            "coordinates": [
              11.4477995,
              47.2647228
            ]
          }
        },
        {
          "type": "Feature",
          "properties": {
            "id": "4909562931",
            "osm_type": "node",
            "lat": 47.2653856,
            "lon": 11.445084,
            "amenity": "fast_food",
            "name": "Schirmbar"
          },
          "geometry": {
            "type": "Point",
            "coordinates": [
              11.445084,
              47.2653856
            ]
          }
        },
        {
          "type": "Feature",
          "properties": {
            "id": "5031050371",
            "osm_type": "node",
            "lat": 47.2784203,
            "lon": 11.4985657,
            "amenity": "fast_food",
            "cuisine": "burger",
            "name": "Road Diner",
            "phone": "+43 660 7433655",
            "takeaway": "yes",
            "website": "https://roaddiner.at/"
          },
          "geometry": {
            "type": "Point",
            "coordinates": [
              11.4985657,
              47.2784203
            ]
          }
        },
        {
          "type": "Feature",
          "properties": {
            "id": "5468093142",
            "osm_type": "node",
            "lat": 47.2781308,
            "lon": 11.4888909,
            "addr:city": "Hall in Tirol",
            "addr:country": "AT",
            "addr:housenumber": "5",
            "addr:postcode": "6060",
            "addr:street": "Trientlstraße",
            "amenity": "fast_food",
            "name": "Hörtnagl"
          },
          "geometry": {
            "type": "Point",
            "coordinates": [
              11.4888909,
              47.2781308
            ]
          }
        },
        {
          "type": "Feature",
          "properties": {
            "id": "5741223559",
            "osm_type": "node",
            "lat": 47.2737478,
            "lon": 11.4411771,
            "addr:city": "Innsbruck",
            "addr:country": "AT",
            "addr:housenumber": "48",
            "addr:postcode": "6020",
            "addr:street": "Schützenstraße",
            "amenity": "fast_food",
            "check_date": "2022-11-09",
            "cuisine": "pizza;kebab",
            "name": "Ali Baba Kebabhaus",
            "opening_hours": "Mo off; Tu-Su 11:00-21:00",
            "operator": "Ali Yagdi",
            "phone": "+43 660 8350144",
            "source": "website",
            "website": "https://www.ali-baba-kebabhouse-innsbruck.at",
            "wheelchair": "limited"
          },
          "geometry": {
            "type": "Point",
            "coordinates": [
              11.4411771,
              47.2737478
            ]
          }
        },
        {
          "type": "Feature",
          "properties": {
            "id": "5741252289",
            "osm_type": "node",
            "lat": 47.2725758,
            "lon": 11.4496844,
            "amenity": "fast_food",
            "name": "Danisman Grillhendl"
          },
          "geometry": {
            "type": "Point",
            "coordinates": [
              11.4496844,
              47.2725758
            ]
          }
        },
        {
          "type": "Feature",
          "properties": {
            "id": "5741257390",
            "osm_type": "node",
            "lat": 47.2735075,
            "lon": 11.4516572,
            "addr:city": "Rum",
            "addr:housenumber": "15",
            "addr:postcode": "6063",
            "addr:street": "Serlesstraße",
            "amenity": "fast_food",
            "check_date": "2023-05-24",
            "cuisine": "kebab",
            "drive_through": "no",
            "internet_access": "no",
            "name": "Aras Kebap",
            "opening_hours": "Mo-Sa 10:00-20:00",
            "payment:mastercard": "yes",
            "payment:visa": "yes",
            "phone": "+43 660 1444650",
            "website": "https://aras-kebap.business.site/",
            "wheelchair": "no"
          },
          "geometry": {
            "type": "Point",
            "coordinates": [
              11.4516572,
              47.2735075
            ]
          }
        },
        {
          "type": "Feature",
          "properties": {
            "id": "5741269851",
            "osm_type": "node",
            "lat": 47.2719514,
            "lon": 11.4524153,
            "amenity": "fast_food",
            "check_date": "2022-11-02",
            "drive_through": "no",
            "internet_access": "no",
            "name": "Snoopy Grill",
            "opening_hours": "Mo-Fr 09:00-19:30; Sa 09:00-17:30; Su,PH off",
            "wheelchair": "yes"
          },
          "geometry": {
            "type": "Point",
            "coordinates": [
              11.4524153,
              47.2719514
            ]
          }
        },
        {
          "type": "Feature",
          "properties": {
            "id": "5741518465",
            "osm_type": "node",
            "lat": 47.2740855,
            "lon": 11.4437473,
            "amenity": "fast_food",
            "cuisine": "pizza",
            "name": "Kapadokya"
          },
          "geometry": {
            "type": "Point",
            "coordinates": [
              11.4437473,
              47.2740855
            ]
          }
        },
        {
          "type": "Feature",
          "properties": {
            "id": "6617488685",
            "osm_type": "node",
            "lat": 47.2809548,
            "lon": 11.5073865,
            "amenity": "fast_food",
            "check_date": "2023-06-23",
            "cuisine": "kebab",
            "name": "Atak's",
            "opening_hours": "Mo-Fr 10:00-21:30; Su,PH 11:00-21:30"
          },
          "geometry": {
            "type": "Point",
            "coordinates": [
              11.5073865,
              47.2809548
            ]
          }
        },
        {
          "type": "Feature",
          "properties": {
            "id": "9890553270",
            "osm_type": "node",
            "lat": 47.2666849,
            "lon": 11.4489247,
            "amenity": "fast_food",
            "outdoor_seating": "yes"
          },
          "geometry": {
            "type": "Point",
            "coordinates": [
              11.4489247,
              47.2666849
            ]
          }
        },
        {
          "type": "Feature",
          "properties": {
            "id": "10033356539",
            "osm_type": "node",
            "lat": 47.2809854,
            "lon": 11.5150206,
            "addr:housenumber": "10",
            "addr:street": "Zollstraße",
            "amenity": "fast_food",
            "name": "Hidden Kitchen",
            "opening_hours": "Fr-Su 11:00-22:00; Mo 11:00-14:00, 17:00-22:00",
            "website": "https://www.instagram.com/hiddenkitchenhall2020/?hl=de"
          },
          "geometry": {
            "type": "Point",
            "coordinates": [
              11.5150206,
              47.2809854
            ]
          }
        },
        {
          "type": "Feature",
          "properties": {
            "id": "10183094863",
            "osm_type": "node",
            "lat": 47.0910846,
            "lon": 11.4661619,
            "amenity": "fast_food",
            "name": "Vipitenum"
          },
          "geometry": {
            "type": "Point",
            "coordinates": [
              11.4661619,
              47.0910846
            ]
          }
        },
        {
          "type": "Feature",
          "properties": {
            "id": "10606144462",
            "osm_type": "node",
            "lat": 47.2802922,
            "lon": 11.5079654,
            "addr:city": "Hall in Tirol",
            "addr:housenumber": "15",
            "addr:postcode": "6060",
            "addr:street": "Unterer Stadtplatz",
            "amenity": "fast_food",
            "cuisine": "pizza;burger;kebab;turkish;salad",
            "diet:vegetarian": "yes",
            "indoor_seating": "yes",
            "name": "Barbecue",
            "opening_hours": "Tu-Sa 11:00-21:00; Su 12:00-21:00",
            "outdoor_seating": "yes",
            "website": "https://www.barbecue-hall-in-tirol.at/"
          },
          "geometry": {
            "type": "Point",
            "coordinates": [
              11.5079654,
              47.2802922
            ]
          }
        },
        {
          "type": "Feature",
          "properties": {
            "id": "11370565137",
            "osm_type": "node",
            "lat": 47.2780818,
            "lon": 11.4890256,
            "amenity": "fast_food",
            "cuisine": "regional",
            "operator": "Hörtnagl"
          },
          "geometry": {
            "type": "Point",
            "coordinates": [
              11.4890256,
              47.2780818
            ]
          }
        },
        {
          "type": "Feature",
          "properties": {
            "id": "11520021197",
            "osm_type": "node",
            "lat": 47.2784302,
            "lon": 11.4947843,
            "amenity": "fast_food",
            "cuisine": "kebab",
            "name": "One Minute Kebab",
            "phone": "+43 6769337717"
          },
          "geometry": {
            "type": "Point",
            "coordinates": [
              11.4947843,
              47.2784302
            ]
          }
        },
        {
          "type": "Feature",
          "properties": {
            "id": "11627756056",
            "osm_type": "node",
            "lat": 47.2802065,
            "lon": 11.5064905,
            "amenity": "fast_food",
            "cuisine": "kebab",
            "name": "Hot Stop 4er Station",
            "opening_hours": "Mo-Th 11:00-14:00,17:00-23:00; Fr,Sa 11:00-24:00; Su off"
          },
          "geometry": {
            "type": "Point",
            "coordinates": [
              11.5064905,
              47.2802065
            ]
          }
        },
        {
          "type": "Feature",
          "properties": {
            "id": "1361860871",
            "osm_type": "node",
            "lat": 47.3503801,
            "lon": 11.6989595,
            "amenity": "fast_food",
            "brand": "McDonald's",
            "brand:wikidata": "Q38076",
            "brand:wikipedia": "en:McDonald's",
            "cuisine": "burger",
            "name": "McDonald's",
            "takeaway": "yes",
            "wheelchair": "yes"
          },
          "geometry": {
            "type": "Point",
            "coordinates": [
              11.6989595,
              47.3503801
            ]
          }
        },
        {
          "type": "Feature",
          "properties": {
            "id": "1812149339",
            "osm_type": "node",
            "lat": 47.2872422,
            "lon": 11.565724,
            "addr:city": "Volders",
            "addr:country": "AT",
            "addr:housenumber": "1",
            "addr:postcode": "6111",
            "addr:street": "Schulgasse",
            "amenity": "fast_food",
            "cuisine": "kebab",
            "name": "Warto Imbiss"
          },
          "geometry": {
            "type": "Point",
            "coordinates": [
              11.565724,
              47.2872422
            ]
          }
        },
        {
          "type": "Feature",
          "properties": {
            "id": "2065183794",
            "osm_type": "node",
            "lat": 47.3033911,
            "lon": 11.6363225,
            "amenity": "fast_food",
            "name": "Mellis",
            "opening_hours": "Mo-Su 11:00-21:00"
          },
          "geometry": {
            "type": "Point",
            "coordinates": [
              11.6363225,
              47.3033911
            ]
          }
        },
        {
          "type": "Feature",
          "properties": {
            "id": "2414534302",
            "osm_type": "node",
            "lat": 47.3460489,
            "lon": 11.8474349,
            "amenity": "fast_food",
            "name": "Haci's Pizza Kebab Grill"
          },
          "geometry": {
            "type": "Point",
            "coordinates": [
              11.8474349,
              47.3460489
            ]
          }
        },
        {
          "type": "Feature",
          "properties": {
            "id": "2415982762",
            "osm_type": "node",
            "lat": 47.3451857,
            "lon": 11.8504469,
            "amenity": "fast_food",
            "cuisine": "turkish",
            "name": "Döner Pizza",
            "wheelchair": "limited"
          },
          "geometry": {
            "type": "Point",
            "coordinates": [
              11.8504469,
              47.3451857
            ]
          }
        },
        {
          "type": "Feature",
          "properties": {
            "id": "3263028972",
            "osm_type": "node",
            "lat": 47.3439433,
            "lon": 11.7073782,
            "addr:city": "Schwaz",
            "addr:country": "AT",
            "addr:housenumber": "14",
            "addr:postcode": "6130",
            "addr:street": "Innsbrucker Straße",
            "amenity": "fast_food",
            "cuisine": "pizza;kebab;pasta",
            "delivery": "yes",
            "name": "Weroz Pizza Kebab",
            "opening_hours": "Mo-Su 11:00-23:00",
            "operator": "Müslüm Saricimen - Pizza Weroz",
            "phone": "+43 5242 90924",
            "ref:vatin": "ATU49956702",
            "source": "website",
            "takeaway": "yes",
            "website": "https://www.pizza-weroz.at"
          },
          "geometry": {
            "type": "Point",
            "coordinates": [
              11.7073782,
              47.3439433
            ]
          }
        },
        {
          "type": "Feature",
          "properties": {
            "id": "3263249273",
            "osm_type": "node",
            "lat": 47.3495684,
            "lon": 11.7017965,
            "amenity": "fast_food",
            "cuisine": "sausage",
            "name": "Sandy's",
            "opening_hours": "Sa,PH off"
          },
          "geometry": {
            "type": "Point",
            "coordinates": [
              11.7017965,
              47.3495684
            ]
          }
        },
        {
          "type": "Feature",
          "properties": {
            "id": "4596666871",
            "osm_type": "node",
            "lat": 47.3500525,
            "lon": 11.7055009,
            "amenity": "fast_food",
            "name": "Hendl Paradies"
          },
          "geometry": {
            "type": "Point",
            "coordinates": [
              11.7055009,
              47.3500525
            ]
          }
        },
        {
          "type": "Feature",
          "properties": {
            "id": "4621705569",
            "osm_type": "node",
            "lat": 47.3039547,
            "lon": 11.6381525,
            "addr:city": "Kolsass",
            "addr:country": "AT",
            "addr:housenumber": "2",
            "addr:postcode": "6114",
            "addr:street": "Auweg",
            "amenity": "fast_food",
            "cuisine": "kebab;burger;pizza",
            "name": "Grillbar",
            "operator": "Imdad"
          },
          "geometry": {
            "type": "Point",
            "coordinates": [
              11.6381525,
              47.3039547
            ]
          }
        },
        {
          "type": "Feature",
          "properties": {
            "id": "4972209014",
            "osm_type": "node",
            "lat": 47.2924964,
            "lon": 11.592681,
            "addr:city": "Wattens",
            "addr:country": "AT",
            "addr:housenumber": "10",
            "addr:postcode": "6112",
            "addr:street": "Kirchplatz",
            "amenity": "fast_food",
            "cuisine": "kebab;burger;pizza",
            "name": "Flamingo Imbiss",
            "opening_hours": "Mo-Su 10:30-22:00",
            "operator": "Mehmet Coskun, Osman Koyuncu",
            "phone": "+43 5224 51265",
            "source": "website",
            "website": "https://www.flamingo-imbiss-wattens.at",
            "wheelchair": "limited"
          },
          "geometry": {
            "type": "Point",
            "coordinates": [
              11.592681,
              47.2924964
            ]
          }
        },
        {
          "type": "Feature",
          "properties": {
            "id": "6012520096",
            "osm_type": "node",
            "lat": 47.3455,
            "lon": 11.7076896,
            "addr:city": "Schwaz",
            "addr:country": "AT",
            "addr:housenumber": "6",
            "addr:postcode": "6130",
            "addr:street": "Wopfnerstraße",
            "amenity": "fast_food",
            "name": "KingSize Kitchen",
            "old_name": "Luna",
            "website": "https://www.kingsize-kitchen.at/"
          },
          "geometry": {
            "type": "Point",
            "coordinates": [
              11.7076896,
              47.3455
            ]
          }
        },
        {
          "type": "Feature",
          "properties": {
            "id": "6012546565",
            "osm_type": "node",
            "lat": 47.3450914,
            "lon": 11.7076206,
            "addr:city": "Schwaz",
            "addr:country": "AT",
            "addr:housenumber": "1",
            "addr:postcode": "6130",
            "addr:street": "Wopfnerstraße",
            "amenity": "fast_food",
            "cuisine": "pizza;kebab",
            "delivery": "yes",
            "name": "City Imbiss",
            "phone": "+436769259378",
            "takeaway": "yes",
            "url": "https://www.city-imbiss-schwaz.at/",
            "wheelchair": "no"
          },
          "geometry": {
            "type": "Point",
            "coordinates": [
              11.7076206,
              47.3450914
            ]
          }
        },
        {
          "type": "Feature",
          "properties": {
            "id": "6639666086",
            "osm_type": "node",
            "lat": 47.1627832,
            "lon": 11.8608887,
            "amenity": "fast_food",
            "bar": "yes",
            "cuisine": "burger;fries;salad",
            "diet:vegan": "yes",
            "diet:vegetarian": "yes",
            "mobile": "+43 650 6283689",
            "name": "Ellies",
            "opening_hours": "We-Fr 10:00-23:00; Sa-Su 11:00-23:00",
            "outdoor_seating": "yes",
            "takeaway": "yes",
            "website": "https://ellies-diner.com/",
            "wheelchair": "yes"
          },
          "geometry": {
            "type": "Point",
            "coordinates": [
              11.8608887,
              47.1627832
            ]
          }
        },
        {
          "type": "Feature",
          "properties": {
            "id": "7704401913",
            "osm_type": "node",
            "lat": 47.3483461,
            "lon": 11.7066223,
            "addr:city": "Schwaz",
            "addr:country": "AT",
            "addr:housenumber": "18a",
            "addr:postcode": "6130",
            "addr:street": "Marktstraße",
            "amenity": "fast_food",
            "check_date": "2023-06-23",
            "cuisine": "pizza;kebab",
            "name": "Big and Big",
            "opening_hours": "Tu-Su 11:00-23:00",
            "phone": "+43 676 6661299",
            "source": "website",
            "website": "https://www.pizzeria-schwaz.at"
          },
          "geometry": {
            "type": "Point",
            "coordinates": [
              11.7066223,
              47.3483461
            ]
          }
        },
        {
          "type": "Feature",
          "properties": {
            "id": "8088178273",
            "osm_type": "node",
            "lat": 47.3437006,
            "lon": 11.7078441,
            "amenity": "fast_food",
            "cuisine": "kebab;pizza",
            "name": "Dino´s"
          },
          "geometry": {
            "type": "Point",
            "coordinates": [
              11.7078441,
              47.3437006
            ]
          }
        },
        {
          "type": "Feature",
          "properties": {
            "id": "9081001724",
            "osm_type": "node",
            "lat": 47.2527333,
            "lon": 11.9432169,
            "air_conditioning": "no",
            "amenity": "fast_food",
            "check_date": "2023-06-25",
            "check_date:opening_hours": "2023-06-25",
            "cuisine": "burger;coffee_shop;ice_cream;cake;hot_dog",
            "delivery": "no",
            "diet:halal": "no",
            "diet:kosher": "no",
            "diet:vegan": "yes",
            "diet:vegetarian": "yes",
            "drive_through": "no",
            "highchair": "no",
            "indoor_seating": "no",
            "internet_access": "no",
            "name": "Fichtensee Imbiss",
            "opening_hours:signed": "no",
            "outdoor_seating": "yes",
            "payment:credit_cards": "yes",
            "payment:debit_cards": "yes",
            "smoking": "separated",
            "source": "survey",
            "takeaway": "yes",
            "wheelchair": "yes"
          },
          "geometry": {
            "type": "Point",
            "coordinates": [
              11.9432169,
              47.2527333
            ]
          }
        },
        {
          "type": "Feature",
          "properties": {
            "id": "9529655444",
            "osm_type": "node",
            "lat": 47.3450486,
            "lon": 11.6907503,
            "amenity": "fast_food",
            "cuisine": "burger",
            "email": "hurrycurry@gmx.at",
            "name": "Hurry Curry",
            "opening_hours": "Mo-Fr 11:00-14:00,17:00-21:00; Su 17:00-21:00",
            "operator": "Robert Holzleitner",
            "phone": "+43 681 819 695 14",
            "website": "http://hurrycurry.at"
          },
          "geometry": {
            "type": "Point",
            "coordinates": [
              11.6907503,
              47.3450486
            ]
          }
        },
        {
          "type": "Feature",
          "properties": {
            "id": "10088957522",
            "osm_type": "node",
            "lat": 47.3585021,
            "lon": 11.705309,
            "amenity": "fast_food",
            "name": "Sen Imbiss"
          },
          "geometry": {
            "type": "Point",
            "coordinates": [
              11.705309,
              47.3585021
            ]
          }
        },
        {
          "type": "Feature",
          "properties": {
            "id": "11413935864",
            "osm_type": "node",
            "lat": 47.3217728,
            "lon": 11.6837645,
            "addr:city": "Pill",
            "addr:housenumber": "7",
            "addr:postcode": "6136",
            "addr:street": "Dorf",
            "amenity": "fast_food",
            "cuisine": "chicken",
            "drive_through": "no",
            "name": "Baschi’s Grillhendl",
            "opening_hours": "Mo-Sa 11:00-17:00",
            "phone": "+43 676 7410133"
          },
          "geometry": {
            "type": "Point",
            "coordinates": [
              11.6837645,
              47.3217728
            ]
          }
        },
        {
          "type": "Feature",
          "properties": {
            "id": "11626732536",
            "osm_type": "node",
            "lat": 47.1580621,
            "lon": 11.7306496,
            "addr:city": "Tuxc",
            "addr:housenumber": "380",
            "addr:postcode": "6293",
            "addr:street": "Lanersbach",
            "amenity": "fast_food",
            "contact:email": "info@ciaotutti.at",
            "contact:facebook": "ciaotuttitux",
            "contact:website": "https://ciaotutti.at",
            "cuisine": "pizza;kebab",
            "name": "Ciao Tutti",
            "opening_hours": "11:00-22:00; Tu off"
          },
          "geometry": {
            "type": "Point",
            "coordinates": [
              11.7306496,
              47.1580621
            ]
          }
        },
        {
          "type": "Feature",
          "properties": {
            "id": "11632615508",
            "osm_type": "node",
            "lat": 47.2092181,
            "lon": 11.8730386,
            "addr:city": "Ramsau im Zillertal",
            "addr:country": "AT",
            "addr:housenumber": "160",
            "addr:place": "Ramsau",
            "addr:postcode": "6284",
            "amenity": "fast_food",
            "contact:phone": "+43 681 107 923 84",
            "cuisine": "kebab",
            "name": "Baran Kebap Haus",
            "opening_hours": "Tu-Su 11:00-21:30",
            "website": "https://www.kebap-zillertal.at/"
          },
          "geometry": {
            "type": "Point",
            "coordinates": [
              11.8730386,
              47.2092181
            ]
          }
        },
        {
          "type": "Feature",
          "properties": {
            "id": "11753463674",
            "osm_type": "node",
            "lat": 47.1931883,
            "lon": 11.8107265,
            "amenity": "fast_food",
            "name": "Sundeck Mösl",
            "outdoor_seating": "yes"
          },
          "geometry": {
            "type": "Point",
            "coordinates": [
              11.8107265,
              47.1931883
            ]
          }
        },
        {
          "type": "Feature",
          "properties": {
            "id": "11915985858",
            "osm_type": "node",
            "lat": 47.3500201,
            "lon": 11.6973535,
            "addr:city": "Vomp",
            "addr:housenumber": "15",
            "addr:postcode": "6134",
            "addr:street": "An der Leiten",
            "amenity": "fast_food",
            "cuisine": "kebab",
            "name": "Restaurant Helin",
            "phone": "+43 5242 64652"
          },
          "geometry": {
            "type": "Point",
            "coordinates": [
              11.6973535,
              47.3500201
            ]
          }
        },
        {
          "type": "Feature",
          "properties": {
            "id": "12945815298",
            "osm_type": "node",
            "lat": 47.3097475,
            "lon": 11.6823949,
            "amenity": "fast_food",
            "fast_food": "cafeteria",
            "operator": "TC Weerberg"
          },
          "geometry": {
            "type": "Point",
            "coordinates": [
              11.6823949,
              47.3097475
            ]
          }
        },
        {
          "type": "Feature",
          "properties": {
            "id": "12952470555",
            "osm_type": "node",
            "lat": 47.236419,
            "lon": 11.8962742,
            "addr:city": "Zell am Ziller",
            "addr:country": "AT",
            "addr:housenumber": "26",
            "addr:postcode": "6280",
            "addr:street": "Aufeld",
            "alt_name": "Food Truck my.Bosna",
            "amenity": "fast_food",
            "contact:phone": "+43 664 99817403",
            "name": "my.BOSNA",
            "opening_hours": "We, Fr-Su 17:00-20:30; Th 11:30-13:00,17:00-20:30",
            "source": "survey 06.2025 and Tiris Imagery"
          },
          "geometry": {
            "type": "Point",
            "coordinates": [
              11.8962742,
              47.236419
            ]
          }
        },
        {
          "type": "Feature",
          "properties": {
            "id": "12962197318",
            "osm_type": "node",
            "lat": 47.1684077,
            "lon": 11.8643158,
            "amenity": "fast_food",
            "cuisine": "burger",
            "diet:halal": "yes",
            "diet:vegetarian": "yes",
            "indoor_seating": "yes",
            "name": "Burgerstation",
            "opening_hours": "Mo-Su 16:00-22:00; Jun-Aug We-Su 18:00-22:00; PH 16:00-22:00",
            "phone": "+43 664 2050612",
            "takeaway": "yes",
            "wheelchair": "limited"
          },
          "geometry": {
            "type": "Point",
            "coordinates": [
              11.8643158,
              47.1684077
            ]
          }
        },
        {
          "type": "Feature",
          "properties": {
            "id": "1386746797",
            "osm_type": "node",
            "lat": 47.2719783,
            "lon": 12.3460838,
            "amenity": "fast_food",
            "name": "ChillHouse"
          },
          "geometry": {
            "type": "Point",
            "coordinates": [
              12.3460838,
              47.2719783
            ]
          }
        }
      ],
      "children": []
    },
    {
      "bbox": {
        "south": 47.033758500000005,
        "west": 12.392062499999998,
        "north": 47.36431175,
        "east": 13.345766
      },
      "poiCount": 28,
      "leafCount": 28,
      "averagePosition": [
        12.876362346428573,
        47.26360265
      ],
      "data": [
        {
          "type": "Feature",
          "properties": {
            "id": "1139984558",
            "osm_type": "node",
            "lat": 47.2806735,
            "lon": 12.481362,
            "addr:city": "Mittersill",
            "addr:housenumber": "1",
            "addr:postcode": "5730",
            "addr:street": "Gerlos Straße",
            "amenity": "fast_food",
            "contact:website": "http://www.knackwurst.at",
            "delivery": "no",
            "drive_through": "no",
            "name": "Stadt Imbiss Lois",
            "phone": "+436641007082",
            "wheelchair": "yes"
          },
          "geometry": {
            "type": "Point",
            "coordinates": [
              12.481362,
              47.2806735
            ]
          }
        },
        {
          "type": "Feature",
          "properties": {
            "id": "2950588964",
            "osm_type": "node",
            "lat": 47.2802274,
            "lon": 12.4795387,
            "amenity": "fast_food",
            "name": "Zierteich Imbiss"
          },
          "geometry": {
            "type": "Point",
            "coordinates": [
              12.4795387,
              47.2802274
            ]
          }
        },
        {
          "type": "Feature",
          "properties": {
            "id": "4453878735",
            "osm_type": "node",
            "lat": 47.276017,
            "lon": 12.4851009,
            "addr:city": "Mittersill",
            "addr:country": "AT",
            "addr:housenumber": "45",
            "addr:postcode": "5730",
            "addr:street": "Klausgasse",
            "amenity": "fast_food",
            "cuisine": "pizza",
            "email": "info@imispizza.at",
            "name": "Imi's Pizzeria",
            "opening_hours": "Mo-Fr 11:00-14:00,16:00-22:00; Su,PH 11:30-21:30",
            "phone": "+43656240291",
            "source": "geoimage.at",
            "website": "http://imispizza.at/",
            "wheelchair": "no"
          },
          "geometry": {
            "type": "Point",
            "coordinates": [
              12.4851009,
              47.276017
            ]
          }
        },
        {
          "type": "Feature",
          "properties": {
            "id": "7104416845",
            "osm_type": "node",
            "lat": 47.2824107,
            "lon": 12.4824214,
            "amenity": "fast_food",
            "cuisine": "kebab",
            "indoor_seating": "no",
            "name": "MS",
            "outdoor_seating": "yes"
          },
          "geometry": {
            "type": "Point",
            "coordinates": [
              12.4824214,
              47.2824107
            ]
          }
        },
        {
          "type": "Feature",
          "properties": {
            "id": "649747577",
            "osm_type": "node",
            "lat": 47.274114,
            "lon": 12.7578074,
            "amenity": "fast_food"
          },
          "geometry": {
            "type": "Point",
            "coordinates": [
              12.7578074,
              47.274114
            ]
          }
        },
        {
          "type": "Feature",
          "properties": {
            "id": "1510050980",
            "osm_type": "node",
            "lat": 47.289855,
            "lon": 12.5335429,
            "addr:city": "Stuhlfelden",
            "addr:country": "AT",
            "addr:housenumber": "13",
            "addr:postcode": "5724",
            "addr:street": "Sportplatzstraße",
            "amenity": "fast_food",
            "at_bev:addr_date": "2021-04-01"
          },
          "geometry": {
            "type": "Point",
            "coordinates": [
              12.5335429,
              47.289855
            ]
          }
        },
        {
          "type": "Feature",
          "properties": {
            "id": "1823137337",
            "osm_type": "node",
            "lat": 47.0811856,
            "lon": 12.8430426,
            "amenity": "fast_food",
            "name": "Hochtor"
          },
          "geometry": {
            "type": "Point",
            "coordinates": [
              12.8430426,
              47.0811856
            ]
          }
        },
        {
          "type": "Feature",
          "properties": {
            "id": "1835149923",
            "osm_type": "node",
            "lat": 47.2841505,
            "lon": 12.6217226,
            "amenity": "fast_food",
            "name": "Mia"
          },
          "geometry": {
            "type": "Point",
            "coordinates": [
              12.6217226,
              47.2841505
            ]
          }
        },
        {
          "type": "Feature",
          "properties": {
            "id": "2716230764",
            "osm_type": "node",
            "lat": 47.2982886,
            "lon": 12.7956226,
            "amenity": "fast_food",
            "name": "Papa Joe's"
          },
          "geometry": {
            "type": "Point",
            "coordinates": [
              12.7956226,
              47.2982886
            ]
          }
        },
        {
          "type": "Feature",
          "properties": {
            "id": "2994806900",
            "osm_type": "node",
            "lat": 47.2888338,
            "lon": 12.9756932,
            "amenity": "fast_food"
          },
          "geometry": {
            "type": "Point",
            "coordinates": [
              12.9756932,
              47.2888338
            ]
          }
        },
        {
          "type": "Feature",
          "properties": {
            "id": "3044654406",
            "osm_type": "node",
            "lat": 47.1670452,
            "lon": 12.7156772,
            "amenity": "fast_food",
            "cuisine": "regional",
            "description": "Tickets für Staumauerführungen hier erhältlich",
            "indoor_seating": "yes",
            "outdoor_seating": "yes",
            "shop": "kiosk"
          },
          "geometry": {
            "type": "Point",
            "coordinates": [
              12.7156772,
              47.1670452
            ]
          }
        },
        {
          "type": "Feature",
          "properties": {
            "id": "4429460253",
            "osm_type": "node",
            "lat": 47.3212786,
            "lon": 12.7971323,
            "amenity": "fast_food",
            "cuisine": "burger",
            "drive_through": "no",
            "indoor_seating": "no",
            "name": "Kaya's",
            "outdoor_seating": "yes",
            "takeaway": "yes"
          },
          "geometry": {
            "type": "Point",
            "coordinates": [
              12.7971323,
              47.3212786
            ]
          }
        },
        {
          "type": "Feature",
          "properties": {
            "id": "4688479198",
            "osm_type": "node",
            "lat": 47.3210662,
            "lon": 12.7965832,
            "addr:country": "AT",
            "addr:street": "Bahnhofplatz",
            "amenity": "fast_food",
            "check_date:opening_hours": "2024-07-21",
            "cuisine": "kebab",
            "diet:vegetarian": "yes",
            "drive_through": "no",
            "indoor_seating": "yes",
            "name": "Istanbul Kebap",
            "opening_hours:signed": "no",
            "outdoor_seating": "no",
            "takeaway": "yes",
            "wheelchair": "limited"
          },
          "geometry": {
            "type": "Point",
            "coordinates": [
              12.7965832,
              47.3210662
            ]
          }
        },
        {
          "type": "Feature",
          "properties": {
            "id": "4688479199",
            "osm_type": "node",
            "lat": 47.3211052,
            "lon": 12.7966469,
            "addr:city": "Zell am See",
            "addr:country": "AT",
            "addr:postcode": "5700",
            "addr:street": "Bahnhofplatz",
            "amenity": "fast_food",
            "check_date:opening_hours": "2024-07-21",
            "cuisine": "kebab;pizza",
            "diet:vegetarian": "yes",
            "indoor_seating": "no",
            "name": "Eat & Meet",
            "opening_hours:signed": "no",
            "outdoor_seating": "no",
            "takeaway": "only"
          },
          "geometry": {
            "type": "Point",
            "coordinates": [
              12.7966469,
              47.3211052
            ]
          }
        },
        {
          "type": "Feature",
          "properties": {
            "id": "8944245136",
            "osm_type": "node",
            "lat": 47.2521416,
            "lon": 12.7325588,
            "addr:housenumber": "11",
            "addr:street": "Schneckenreithweg",
            "amenity": "fast_food",
            "diet:vegetarian": "yes",
            "name": "Schneckenjause",
            "opening_hours": "Mo-Su,PH 10:00-17:30"
          },
          "geometry": {
            "type": "Point",
            "coordinates": [
              12.7325588,
              47.2521416
            ]
          }
        },
        {
          "type": "Feature",
          "properties": {
            "id": "9593462508",
            "osm_type": "node",
            "lat": 47.1693775,
            "lon": 12.7216677,
            "amenity": "fast_food",
            "outdoor_seating": "yes",
            "payment:cash": "only",
            "payment:credit_cards": "no",
            "payment:debit_cards": "no"
          },
          "geometry": {
            "type": "Point",
            "coordinates": [
              12.7216677,
              47.1693775
            ]
          }
        },
        {
          "type": "Feature",
          "properties": {
            "id": "12917757388",
            "osm_type": "node",
            "lat": 47.3405538,
            "lon": 12.7977671,
            "amenity": "fast_food",
            "diet:vegetarian": "no",
            "indoor_seating": "yes",
            "name": "Brucker Dorf Kebap",
            "opening_hours": "Su-Fr 11:00-20:00; Sa off",
            "outdoor_seating": "no",
            "payment:credit_cards": "no",
            "payment:debit_cards": "yes"
          },
          "geometry": {
            "type": "Point",
            "coordinates": [
              12.7977671,
              47.3405538
            ]
          }
        },
        {
          "type": "Feature",
          "properties": {
            "id": "1699943286",
            "osm_type": "node",
            "lat": 47.3192817,
            "lon": 13.1412957,
            "amenity": "fast_food",
            "changing_table": "no",
            "check_date:opening_hours": "2022-06-30",
            "cuisine": "chicken",
            "indoor_seating": "no",
            "name": "Hendlgrill Joldic",
            "opening_hours:signed": "no",
            "operator": "Joldic Said",
            "outdoor_seating": "no",
            "takeaway": "only"
          },
          "geometry": {
            "type": "Point",
            "coordinates": [
              13.1412957,
              47.3192817
            ]
          }
        },
        {
          "type": "Feature",
          "properties": {
            "id": "1699943288",
            "osm_type": "node",
            "lat": 47.3201959,
            "lon": 13.1509707,
            "addr:city": "Schwarzach im Pongau",
            "addr:country": "AT",
            "addr:housenumber": "3",
            "addr:postcode": "5620",
            "addr:street": "Löwenstraße",
            "amenity": "fast_food",
            "contact:phone": "+43 676 6183154",
            "cuisine": "kebab",
            "indoor_seating": "yes",
            "level": "0",
            "name": "Dönerwerk",
            "opening_hours": "Mo-Sa 10:00-21:00; PH closed",
            "takeaway": "yes",
            "toilets": "yes",
            "toilets:access": "customers"
          },
          "geometry": {
            "type": "Point",
            "coordinates": [
              13.1509707,
              47.3201959
            ]
          }
        },
        {
          "type": "Feature",
          "properties": {
            "id": "3442006780",
            "osm_type": "node",
            "lat": 47.3466645,
            "lon": 13.2011739,
            "addr:city": "Sankt Johann im Pongau",
            "addr:country": "AT",
            "addr:housenumber": "1",
            "addr:postcode": "5600",
            "addr:street": "Hans-Kappacher-Straße",
            "amenity": "fast_food",
            "cuisine": "kebab",
            "name": "Tathan Galerie Imbiss",
            "takeaway": "yes"
          },
          "geometry": {
            "type": "Point",
            "coordinates": [
              13.2011739,
              47.3466645
            ]
          }
        },
        {
          "type": "Feature",
          "properties": {
            "id": "6090530621",
            "osm_type": "node",
            "lat": 47.3221793,
            "lon": 13.1559835,
            "addr:city": "Schwarzach im Pongau",
            "addr:country": "AT",
            "addr:housenumber": "7",
            "addr:postcode": "5620",
            "addr:street": "Baderstraße",
            "amenity": "fast_food",
            "name": "Genuss Region - Pongauer Wild",
            "opening_hours": "Tu-Fr 09:00-13:30,14:30-18:00"
          },
          "geometry": {
            "type": "Point",
            "coordinates": [
              13.1559835,
              47.3221793
            ]
          }
        },
        {
          "type": "Feature",
          "properties": {
            "id": "6186274020",
            "osm_type": "node",
            "lat": 47.1126305,
            "lon": 13.1327626,
            "amenity": "fast_food",
            "changing_table": "no",
            "cuisine": "kebab",
            "indoor_seating": "no",
            "name": "Jabalya Fast Food",
            "opening_hours": "Mo-Su 13:30-04:00",
            "outdoor_seating": "no",
            "payment:credit_cards": "yes",
            "payment:debit_cards": "yes",
            "takeaway": "only"
          },
          "geometry": {
            "type": "Point",
            "coordinates": [
              13.1327626,
              47.1126305
            ]
          }
        },
        {
          "type": "Feature",
          "properties": {
            "id": "6186274021",
            "osm_type": "node",
            "lat": 47.1152545,
            "lon": 13.1326613,
            "amenity": "fast_food",
            "name": "Delicious Mom Fastfood"
          },
          "geometry": {
            "type": "Point",
            "coordinates": [
              13.1326613,
              47.1152545
            ]
          }
        },
        {
          "type": "Feature",
          "properties": {
            "id": "7283370106",
            "osm_type": "node",
            "lat": 47.3332141,
            "lon": 13.2966422,
            "amenity": "fast_food",
            "cuisine": "kebab"
          },
          "geometry": {
            "type": "Point",
            "coordinates": [
              13.2966422,
              47.3332141
            ]
          }
        },
        {
          "type": "Feature",
          "properties": {
            "id": "9610612560",
            "osm_type": "node",
            "lat": 47.31931,
            "lon": 13.1531754,
            "amenity": "fast_food",
            "check_date:opening_hours": "2025-06-09",
            "level": "0",
            "name": "Royal Kebap",
            "opening_hours": "Su-Fr 09:30-19:00",
            "outdoor_seating": "yes",
            "takeaway": "yes",
            "wheelchair": "yes"
          },
          "geometry": {
            "type": "Point",
            "coordinates": [
              13.1531754,
              47.31931
            ]
          }
        },
        {
          "type": "Feature",
          "properties": {
            "id": "9995673031",
            "osm_type": "node",
            "lat": 47.1709754,
            "lon": 13.1061647,
            "amenity": "fast_food",
            "cuisine": "kebab",
            "name": "Gasteiner Kebap",
            "opening_hours": "PH,Mo-Su 11:00-14:00,18:00-02:00"
          },
          "geometry": {
            "type": "Point",
            "coordinates": [
              13.1061647,
              47.1709754
            ]
          }
        },
        {
          "type": "Feature",
          "properties": {
            "id": "10727766887",
            "osm_type": "node",
            "lat": 47.1725327,
            "lon": 13.1045758,
            "amenity": "fast_food",
            "check_date": "2023-03-11",
            "name": "Varoli"
          },
          "geometry": {
            "type": "Point",
            "coordinates": [
              13.1045758,
              47.1725327
            ]
          }
        },
        {
          "type": "Feature",
          "properties": {
            "id": "11114598311",
            "osm_type": "node",
            "lat": 47.3203114,
            "lon": 13.1488524,
            "addr:city": "Schwarzach im Pongau",
            "addr:country": "AT",
            "addr:housenumber": "45",
            "addr:postcode": "5620",
            "addr:street": "Salzburger Straße",
            "amenity": "fast_food",
            "contact:website": "https://www.pizzeriagustoschwarzachimpongau.at",
            "cuisine": "pizza;burger",
            "delivery": "yes",
            "drive_through": "no",
            "name": "Pizzeria Gusto",
            "opening_hours": "Mo,Tu 10:00-13:30,17:00-21:00; We-Su 10:00-21:00",
            "takeaway": "yes"
          },
          "geometry": {
            "type": "Point",
            "coordinates": [
              13.1488524,
              47.3203114
            ]
          }
        }
      ],
      "children": []
    },
    {
      "bbox": {
        "south": 47.36431175,
        "west": 11.438358999999998,
        "north": 47.694865,
        "east": 12.392062499999998
      },
      "poiCount": 71,
      "leafCount": 0,
      "averagePosition": [
        12.076333914084508,
        47.53025600985916
      ],
      "data": [],
      "children": [
        {
          "bbox": {
            "south": 47.36431175,
            "west": 11.438358999999998,
            "north": 47.529588375,
            "east": 11.915210749999998
          },
          "poiCount": 14,
          "leafCount": 14,
          "averagePosition": [
            11.831539885714287,
            47.42382649285714
          ],
          "data": [
            {
              "type": "Feature",
              "properties": {
                "id": "650799472",
                "osm_type": "node",
                "lat": 47.4153281,
                "lon": 11.8801955,
                "amenity": "fast_food",
                "name": "Imbiss mit Pfiff",
                "snack": "yes"
              },
              "geometry": {
                "type": "Point",
                "coordinates": [
                  11.8801955,
                  47.4153281
                ]
              }
            },
            {
              "type": "Feature",
              "properties": {
                "id": "663436758",
                "osm_type": "node",
                "lat": 47.3815198,
                "lon": 11.8324718,
                "amenity": "fast_food",
                "cuisine": "kebab",
                "name": "Ulas Imbiss",
                "name:de": "Galip Imbiss",
                "name:en": "Galip Imbiss",
                "snack": "yes"
              },
              "geometry": {
                "type": "Point",
                "coordinates": [
                  11.8324718,
                  47.3815198
                ]
              }
            },
            {
              "type": "Feature",
              "properties": {
                "id": "1345701158",
                "osm_type": "node",
                "lat": 47.4627409,
                "lon": 11.8982894,
                "amenity": "fast_food"
              },
              "geometry": {
                "type": "Point",
                "coordinates": [
                  11.8982894,
                  47.4627409
                ]
              }
            },
            {
              "type": "Feature",
              "properties": {
                "id": "1752088437",
                "osm_type": "node",
                "lat": 47.5013985,
                "lon": 11.8907047,
                "amenity": "fast_food",
                "cuisine": "regional",
                "name": "Steger Stall"
              },
              "geometry": {
                "type": "Point",
                "coordinates": [
                  11.8907047,
                  47.5013985
                ]
              }
            },
            {
              "type": "Feature",
              "properties": {
                "id": "3261344061",
                "osm_type": "node",
                "lat": 47.4612978,
                "lon": 11.9067629,
                "amenity": "fast_food",
                "name": "Imbiss",
                "snack": "yes"
              },
              "geometry": {
                "type": "Point",
                "coordinates": [
                  11.9067629,
                  47.4612978
                ]
              }
            },
            {
              "type": "Feature",
              "properties": {
                "id": "3350035080",
                "osm_type": "node",
                "lat": 47.3902046,
                "lon": 11.7735171,
                "addr:city": "Jenbach",
                "addr:country": "AT",
                "addr:housenumber": "23a",
                "addr:postcode": "6200",
                "addr:street": "Achenseestraße",
                "amenity": "fast_food",
                "cuisine": "pizza;turkish",
                "delivery": "yes",
                "name": "Pizza & Kebab",
                "takeaway": "yes"
              },
              "geometry": {
                "type": "Point",
                "coordinates": [
                  11.7735171,
                  47.3902046
                ]
              }
            },
            {
              "type": "Feature",
              "properties": {
                "id": "4500290143",
                "osm_type": "node",
                "lat": 47.3814922,
                "lon": 11.8329166,
                "amenity": "fast_food",
                "cuisine": "asian",
                "name": "Asia Cooking",
                "wheelchair": "no"
              },
              "geometry": {
                "type": "Point",
                "coordinates": [
                  11.8329166,
                  47.3814922
                ]
              }
            },
            {
              "type": "Feature",
              "properties": {
                "id": "5018650000",
                "osm_type": "node",
                "lat": 47.4629542,
                "lon": 11.8965425,
                "amenity": "fast_food"
              },
              "geometry": {
                "type": "Point",
                "coordinates": [
                  11.8965425,
                  47.4629542
                ]
              }
            },
            {
              "type": "Feature",
              "properties": {
                "id": "5470480122",
                "osm_type": "node",
                "lat": 47.4268592,
                "lon": 11.7437653,
                "amenity": "fast_food",
                "delivery": "no",
                "name": "Mario's Imbiss",
                "opening_hours": "Tu-Su 17:00-22:00;Tu-Sa 11:30-14:00",
                "payment:coins": "no",
                "payment:notes": "no",
                "self_service": "yes",
                "wheelchair:step_height": "0"
              },
              "geometry": {
                "type": "Point",
                "coordinates": [
                  11.7437653,
                  47.4268592
                ]
              }
            },
            {
              "type": "Feature",
              "properties": {
                "id": "8129328409",
                "osm_type": "node",
                "lat": 47.3932139,
                "lon": 11.7797143,
                "amenity": "fast_food",
                "name": "die Schals"
              },
              "geometry": {
                "type": "Point",
                "coordinates": [
                  11.7797143,
                  47.3932139
                ]
              }
            },
            {
              "type": "Feature",
              "properties": {
                "id": "9676831870",
                "osm_type": "node",
                "lat": 47.4272127,
                "lon": 11.870525,
                "amenity": "fast_food",
                "building": "kiosk",
                "indoor_seating": "no",
                "name": "Lido",
                "operator": "Philip Sigwart",
                "outdoor_seating": "yes"
              },
              "geometry": {
                "type": "Point",
                "coordinates": [
                  11.870525,
                  47.4272127
                ]
              }
            },
            {
              "type": "Feature",
              "properties": {
                "id": "11157790107",
                "osm_type": "node",
                "lat": 47.4402125,
                "lon": 11.6885274,
                "addr:city": "Pertisau",
                "addr:country": "AT",
                "addr:housenumber": "7",
                "addr:postcode": "6213",
                "addr:street": "Oberdorfweg 7",
                "amenity": "fast_food",
                "cuisine": "pizza",
                "delivery": "no",
                "name": "Don Daniloʼs Pizza",
                "opening_hours": "Mo-Th 18:00-21:00; Fr-Su 12:00-14:00,18:00-21:00",
                "operator": "Alois Manfred Huber",
                "payment:cash": "yes",
                "payment:contactless": "no",
                "payment:credit_cards": "no",
                "payment:cryptocurrencies": "no",
                "payment:debit_cards": "no",
                "payment:electronic_purses": "no",
                "phone": "+43 660 203 1025",
                "takeaway": "only",
                "website": "https://www.pizza-don-danilo.de/"
              },
              "geometry": {
                "type": "Point",
                "coordinates": [
                  11.6885274,
                  47.4402125
                ]
              }
            },
            {
              "type": "Feature",
              "properties": {
                "id": "11169183062",
                "osm_type": "node",
                "lat": 47.3976785,
                "lon": 11.8746963,
                "amenity": "fast_food",
                "contact:facebook": "https://www.facebook.com/BuffetReitherKogel/",
                "indoor_seating": "no",
                "name": "Buffet Reither Kogel",
                "outdoor_seating": "yes"
              },
              "geometry": {
                "type": "Point",
                "coordinates": [
                  11.8746963,
                  47.3976785
                ]
              }
            },
            {
              "type": "Feature",
              "properties": {
                "id": "12174843733",
                "osm_type": "node",
                "lat": 47.391458,
                "lon": 11.7729296,
                "amenity": "fast_food",
                "cuisine": "pizza",
                "name": "A-Pizza Jenbach"
              },
              "geometry": {
                "type": "Point",
                "coordinates": [
                  11.7729296,
                  47.391458
                ]
              }
            }
          ],
          "children": []
        },
        {
          "bbox": {
            "south": 47.36431175,
            "west": 11.915210749999998,
            "north": 47.529588375,
            "east": 12.392062499999998
          },
          "poiCount": 23,
          "leafCount": 23,
          "averagePosition": [
            12.148640265217391,
            47.477691504347824
          ],
          "data": [
            {
              "type": "Feature",
              "properties": {
                "id": "746392728",
                "osm_type": "node",
                "lat": 47.474236,
                "lon": 11.97689,
                "addr:city": "Kundl",
                "addr:country": "AT",
                "addr:housenumber": "1",
                "addr:postcode": "6250",
                "addr:street": "Schmelzerweg",
                "amenity": "fast_food",
                "contact:facebook": "https://www.facebook.com/Bruggn-Wirt-734485250006592/",
                "contact:phone": "+43 676 9505354",
                "cuisine": "kebab",
                "name": "Bruggn Wirt",
                "opening_hours": "11:00-20:30",
                "phone": "+43 676 9505354",
                "wheelchair": "limited"
              },
              "geometry": {
                "type": "Point",
                "coordinates": [
                  11.97689,
                  47.474236
                ]
              }
            },
            {
              "type": "Feature",
              "properties": {
                "id": "9105878110",
                "osm_type": "node",
                "lat": 47.4795551,
                "lon": 12.021093,
                "amenity": "fast_food",
                "cuisine": "curry"
              },
              "geometry": {
                "type": "Point",
                "coordinates": [
                  12.021093,
                  47.4795551
                ]
              }
            },
            {
              "type": "Feature",
              "properties": {
                "id": "1049053874",
                "osm_type": "node",
                "lat": 47.4458797,
                "lon": 12.3895963,
                "addr:city": "Kitzbühel",
                "addr:housenumber": "7",
                "addr:postcode": "6370",
                "addr:street": "Franz-Reisch-Straße",
                "amenity": "fast_food",
                "brand": "McDonald's",
                "brand:wikidata": "Q38076",
                "brand:wikipedia": "en:McDonald's",
                "cuisine": "burger",
                "drive_through": "yes",
                "name": "McDonald's",
                "phone": "+43 5356 71430",
                "takeaway": "yes",
                "toilets:wheelchair": "no",
                "wheelchair": "limited"
              },
              "geometry": {
                "type": "Point",
                "coordinates": [
                  12.3895963,
                  47.4458797
                ]
              }
            },
            {
              "type": "Feature",
              "properties": {
                "id": "1470747637",
                "osm_type": "node",
                "lat": 47.4820693,
                "lon": 12.0573061,
                "amenity": "fast_food",
                "brand": "McDonald's",
                "brand:wikidata": "Q38076",
                "brand:wikipedia": "en:McDonald's",
                "cuisine": "burger",
                "diet:vegetarian": "no",
                "indoor_seating": "yes",
                "name": "McDonald's",
                "opening_hours": "Su-Th 07:00-01:00, Fr-Sa 07:00-03:00",
                "outdoor_seating": "yes",
                "takeaway": "yes",
                "wheelchair": "limited"
              },
              "geometry": {
                "type": "Point",
                "coordinates": [
                  12.0573061,
                  47.4820693
                ]
              }
            },
            {
              "type": "Feature",
              "properties": {
                "id": "1626596902",
                "osm_type": "node",
                "lat": 47.5096398,
                "lon": 12.2659298,
                "addr:city": "Ellmau",
                "addr:country": "AT",
                "addr:housenumber": "52a",
                "addr:postcode": "6352",
                "addr:street": "Faistenbichl",
                "amenity": "fast_food",
                "contact:email": "hochschwendt@utanet.at",
                "contact:facebook": "https://www.facebook.com/Hochschwendt-Ellmau-221474644565551",
                "contact:phone": "+43 5358 2932",
                "name": "Jausenstation Hochschwendt",
                "source": "geoimage.at MaxRes",
                "tourism": "guest_house"
              },
              "geometry": {
                "type": "Point",
                "coordinates": [
                  12.2659298,
                  47.5096398
                ]
              }
            },
            {
              "type": "Feature",
              "properties": {
                "id": "1674557007",
                "osm_type": "node",
                "lat": 47.515662,
                "lon": 12.1160836,
                "amenity": "fast_food"
              },
              "geometry": {
                "type": "Point",
                "coordinates": [
                  12.1160836,
                  47.515662
                ]
              }
            },
            {
              "type": "Feature",
              "properties": {
                "id": "1822254443",
                "osm_type": "node",
                "lat": 47.4871185,
                "lon": 12.0632866,
                "amenity": "fast_food",
                "contact:phone": "+436766245205",
                "name": "Aladdin",
                "opening_hours": "11:00-23:30",
                "takeaway": "yes"
              },
              "geometry": {
                "type": "Point",
                "coordinates": [
                  12.0632866,
                  47.4871185
                ]
              }
            },
            {
              "type": "Feature",
              "properties": {
                "id": "1823307800",
                "osm_type": "node",
                "lat": 47.4871629,
                "lon": 12.0641378,
                "addr:city": "Wörgl",
                "addr:country": "AT",
                "addr:housenumber": "15a",
                "addr:postcode": "6300",
                "addr:street": "Bahnhofstraße",
                "amenity": "fast_food",
                "cuisine": "pizza",
                "name": "Domino"
              },
              "geometry": {
                "type": "Point",
                "coordinates": [
                  12.0641378,
                  47.4871629
                ]
              }
            },
            {
              "type": "Feature",
              "properties": {
                "id": "1830564751",
                "osm_type": "node",
                "lat": 47.4084266,
                "lon": 12.0366795,
                "amenity": "fast_food",
                "name": "Imbissstube Charlies",
                "snack": "yes",
                "source": "geoimage.at MaxRes"
              },
              "geometry": {
                "type": "Point",
                "coordinates": [
                  12.0366795,
                  47.4084266
                ]
              }
            },
            {
              "type": "Feature",
              "properties": {
                "id": "1835641056",
                "osm_type": "node",
                "lat": 47.4870775,
                "lon": 12.0758525,
                "amenity": "fast_food",
                "name": "Alpenpizza",
                "source": "survey"
              },
              "geometry": {
                "type": "Point",
                "coordinates": [
                  12.0758525,
                  47.4870775
                ]
              }
            },
            {
              "type": "Feature",
              "properties": {
                "id": "1837128399",
                "osm_type": "node",
                "lat": 47.4905554,
                "lon": 12.0618197,
                "amenity": "fast_food",
                "cuisine": "pizza",
                "indoor_seating": "yes",
                "name": "Pera",
                "outdoor_seating": "yes"
              },
              "geometry": {
                "type": "Point",
                "coordinates": [
                  12.0618197,
                  47.4905554
                ]
              }
            },
            {
              "type": "Feature",
              "properties": {
                "id": "2177252639",
                "osm_type": "node",
                "lat": 47.5200338,
                "lon": 12.2492623,
                "addr:city": "Scheffau am Wilden Kaiser",
                "addr:country": "AT",
                "addr:housenumber": "2",
                "addr:postcode": "6351",
                "addr:street": "Schwarzach",
                "amenity": "fast_food",
                "email": "Joe.kuen@aon.at",
                "internet_access": "wlan",
                "internet_access:fee": "no",
                "name": "Liftstüberl",
                "operator": "Josef Kuen",
                "phone": "+43 664 3528041",
                "source": "http://www.liftstueberl-scheffau.weebly.com/",
                "source:date": "2017-07-01",
                "website": "http://www.liftstueberl-scheffau.weebly.com/"
              },
              "geometry": {
                "type": "Point",
                "coordinates": [
                  12.2492623,
                  47.5200338
                ]
              }
            },
            {
              "type": "Feature",
              "properties": {
                "id": "2375435909",
                "osm_type": "node",
                "lat": 47.4861726,
                "lon": 12.0632712,
                "addr:city": "Wörgl",
                "addr:country": "AT",
                "addr:housenumber": "4",
                "addr:postcode": "6300",
                "addr:street": "KR Martin Pichler-Straße",
                "amenity": "fast_food",
                "contact:phone": "+43 650 933 44 79",
                "contact:website": "https://mahlzeit-wörgl.at/",
                "cuisine": "pizza;burger;kebab;turkish",
                "drive_through": "no",
                "name": "Mahlzeit",
                "opening_hours": "Tu-Su 10:30-24:00",
                "operator": "Ercan Seryol",
                "outdoor_seating": "no",
                "takeaway": "yes"
              },
              "geometry": {
                "type": "Point",
                "coordinates": [
                  12.0632712,
                  47.4861726
                ]
              }
            },
            {
              "type": "Feature",
              "properties": {
                "id": "4305620199",
                "osm_type": "node",
                "lat": 47.4463151,
                "lon": 12.3135865,
                "amenity": "fast_food",
                "contact:facebook": "SnackDreieck",
                "contact:instagram": "Snack_dreieck_kirchberg",
                "diet:vegetarian": "no",
                "indoor_seating": "no",
                "name": "Snack Dreieck",
                "opening_hours": "Mo-Su,PH 13:00-22:00",
                "outdoor_seating": "yes",
                "takeaway": "yes",
                "wheelchair": "no"
              },
              "geometry": {
                "type": "Point",
                "coordinates": [
                  12.3135865,
                  47.4463151
                ]
              }
            },
            {
              "type": "Feature",
              "properties": {
                "id": "4305633593",
                "osm_type": "node",
                "lat": 47.4470534,
                "lon": 12.3152556,
                "amenity": "fast_food",
                "check_date:opening_hours": "2022-08-30",
                "diet:vegetarian": "no",
                "indoor_seating": "yes",
                "name": "Ephesus Imbiss",
                "opening_hours:signed": "no",
                "outdoor_seating": "yes",
                "takeaway": "yes",
                "wheelchair": "limited"
              },
              "geometry": {
                "type": "Point",
                "coordinates": [
                  12.3152556,
                  47.4470534
                ]
              }
            },
            {
              "type": "Feature",
              "properties": {
                "id": "4394603237",
                "osm_type": "node",
                "lat": 47.4830656,
                "lon": 12.0595802,
                "addr:city": "Wörgl",
                "addr:country": "AT",
                "addr:housenumber": "32",
                "addr:postcode": "6300",
                "addr:street": "Innsbrucker Straße",
                "amenity": "fast_food",
                "contact:website": "https://www.robins-imbiss-woergl.at",
                "cuisine": "barbecue;kebab;pizza",
                "name": "Robin's",
                "opening_hours": "Mo-Sa 11:00-20:00; Su off"
              },
              "geometry": {
                "type": "Point",
                "coordinates": [
                  12.0595802,
                  47.4830656
                ]
              }
            },
            {
              "type": "Feature",
              "properties": {
                "id": "5494619489",
                "osm_type": "node",
                "lat": 47.490458,
                "lon": 12.0618583,
                "amenity": "fast_food",
                "cuisine": "pizza;kebab",
                "indoor_seating": "yes",
                "name": "Happy Hut",
                "outdoor_seating": "yes"
              },
              "geometry": {
                "type": "Point",
                "coordinates": [
                  12.0618583,
                  47.490458
                ]
              }
            },
            {
              "type": "Feature",
              "properties": {
                "id": "6045021642",
                "osm_type": "node",
                "lat": 47.5145753,
                "lon": 12.0907136,
                "amenity": "fast_food",
                "cuisine": "pizza;kebab",
                "name": "Pizza Kirchbichl",
                "opening_hours": "Tu-Fr 11:00-14:00, 17:00-22:00; Sa,Su 11:00-22:00; Mo off",
                "phone": "+43 676 4924184",
                "takeaway": "yes"
              },
              "geometry": {
                "type": "Point",
                "coordinates": [
                  12.0907136,
                  47.5145753
                ]
              }
            },
            {
              "type": "Feature",
              "properties": {
                "id": "6467123786",
                "osm_type": "node",
                "lat": 47.4321205,
                "lon": 12.2151183,
                "amenity": "fast_food",
                "cuisine": "pizza;kebab",
                "name": "mund.art",
                "website": "https://www.pizzamundart.at/"
              },
              "geometry": {
                "type": "Point",
                "coordinates": [
                  12.2151183,
                  47.4321205
                ]
              }
            },
            {
              "type": "Feature",
              "properties": {
                "id": "7704777614",
                "osm_type": "node",
                "lat": 47.4418365,
                "lon": 12.2243901,
                "amenity": "fast_food"
              },
              "geometry": {
                "type": "Point",
                "coordinates": [
                  12.2243901,
                  47.4418365
                ]
              }
            },
            {
              "type": "Feature",
              "properties": {
                "id": "10956336405",
                "osm_type": "node",
                "lat": 47.4781703,
                "lon": 12.0445154,
                "alt_name": "Kentucky Fried Chicken",
                "amenity": "fast_food",
                "brand": "KFC",
                "brand:wikidata": "Q524757",
                "cuisine": "chicken",
                "drive_through": "yes",
                "name": "KFC",
                "operator": "Queensway Restaurants GmbH",
                "start_date": "2023-05-31",
                "takeaway": "yes",
                "website": "https://www.kfc.co.at"
              },
              "geometry": {
                "type": "Point",
                "coordinates": [
                  12.0445154,
                  47.4781703
                ]
              }
            },
            {
              "type": "Feature",
              "properties": {
                "id": "12197687079",
                "osm_type": "node",
                "lat": 47.5212255,
                "lon": 12.2660357,
                "amenity": "fast_food",
                "contact:phone": "+43 664 75128875",
                "contact:website": "https://www.wilderkaiser.info/en/scheffau/info/kaiser-imbiss.html",
                "cuisine": "kebab",
                "diet:vegetarian": "yes",
                "indoor_seating": "no",
                "name": "Kaiser Imbiss",
                "opening_hours": "11:00-21:00",
                "outdoor_seating": "yes"
              },
              "geometry": {
                "type": "Point",
                "coordinates": [
                  12.2660357,
                  47.5212255
                ]
              }
            },
            {
              "type": "Feature",
              "properties": {
                "id": "12266845615",
                "osm_type": "node",
                "lat": 47.4584952,
                "lon": 12.386464,
                "amenity": "fast_food",
                "cuisine": "kebab",
                "name": "Kitzbühler Kebap & Pizza"
              },
              "geometry": {
                "type": "Point",
                "coordinates": [
                  12.386464,
                  47.4584952
                ]
              }
            }
          ],
          "children": []
        },
        {
          "bbox": {
            "south": 47.529588375,
            "west": 11.438358999999998,
            "north": 47.694865,
            "east": 11.915210749999998
          },
          "poiCount": 4,
          "leafCount": 4,
          "averagePosition": [
            11.784689425,
            47.679
          ],
          "data": [
            {
              "type": "Feature",
              "properties": {
                "id": "277665015",
                "osm_type": "node",
                "lat": 47.6828775,
                "lon": 11.5765563,
                "amenity": "fast_food",
                "diet:vegetarian": "yes",
                "name": "Alpendöner",
                "opening_hours": "Mo-Fr 10:00-19:00; Sa 10:00-16:00"
              },
              "geometry": {
                "type": "Point",
                "coordinates": [
                  11.5765563,
                  47.6828775
                ]
              }
            },
            {
              "type": "Feature",
              "properties": {
                "id": "457112366",
                "osm_type": "node",
                "lat": 47.6628889,
                "lon": 11.8874435,
                "amenity": "fast_food",
                "check_date:opening_hours": "2025-03-22",
                "indoor_seating": "no",
                "name": "Beim Lohnkutscher",
                "opening_hours:signed": "no",
                "outdoor_seating": "yes",
                "smoking": "yes"
              },
              "geometry": {
                "type": "Point",
                "coordinates": [
                  11.8874435,
                  47.6628889
                ]
              }
            },
            {
              "type": "Feature",
              "properties": {
                "id": "3051867512",
                "osm_type": "node",
                "lat": 47.6931261,
                "lon": 11.77072,
                "addr:city": "Rottach-Egern",
                "addr:country": "DE",
                "addr:housenumber": "32",
                "addr:postcode": "83700",
                "addr:street": "Nördliche Hauptstraße",
                "amenity": "fast_food",
                "cuisine": "kebab;pizza",
                "drive_through": "no",
                "indoor_seating": "yes",
                "name": "Bavaria Imbiss",
                "outdoor_seating": "yes",
                "phone": "+49 15171681332;+49 8022 8589946"
              },
              "geometry": {
                "type": "Point",
                "coordinates": [
                  11.77072,
                  47.6931261
                ]
              }
            },
            {
              "type": "Feature",
              "properties": {
                "id": "7781883278",
                "osm_type": "node",
                "lat": 47.6771075,
                "lon": 11.9040379,
                "amenity": "fast_food",
                "indoor_seating": "no",
                "name": "Jägerbauernalm",
                "outdoor_seating": "yes",
                "seasonal": "summer"
              },
              "geometry": {
                "type": "Point",
                "coordinates": [
                  11.9040379,
                  47.6771075
                ]
              }
            }
          ],
          "children": []
        },
        {
          "bbox": {
            "south": 47.529588375,
            "west": 11.915210749999998,
            "north": 47.694865,
            "east": 12.392062499999998
          },
          "poiCount": 30,
          "leafCount": 30,
          "averagePosition": [
            12.174022189999999,
            47.60039004
          ],
          "data": [
            {
              "type": "Feature",
              "properties": {
                "id": "9543436511",
                "osm_type": "node",
                "lat": 47.6712216,
                "lon": 12.0145553,
                "amenity": "fast_food"
              },
              "geometry": {
                "type": "Point",
                "coordinates": [
                  12.0145553,
                  47.6712216
                ]
              }
            },
            {
              "type": "Feature",
              "properties": {
                "id": "34032574",
                "osm_type": "node",
                "lat": 47.6102282,
                "lon": 12.201298,
                "amenity": "fast_food",
                "operator": "Serways",
                "toilets": "yes"
              },
              "geometry": {
                "type": "Point",
                "coordinates": [
                  12.201298,
                  47.6102282
                ]
              }
            },
            {
              "type": "Feature",
              "properties": {
                "id": "664052689",
                "osm_type": "node",
                "lat": 47.6133296,
                "lon": 12.2007873,
                "amenity": "fast_food",
                "check_date": "2024-07-21",
                "name": "Inntal West",
                "operator": "Serways",
                "toilets": "yes"
              },
              "geometry": {
                "type": "Point",
                "coordinates": [
                  12.2007873,
                  47.6133296
                ]
              }
            },
            {
              "type": "Feature",
              "properties": {
                "id": "716942026",
                "osm_type": "node",
                "lat": 47.5844325,
                "lon": 12.1702214,
                "addr:city": "Kufstein",
                "addr:country": "AT",
                "addr:housenumber": "6",
                "addr:postcode": "6330",
                "addr:street": "Inngasse",
                "amenity": "fast_food",
                "contact:phone": "+43 699 11092851; +43 664 4781616",
                "contact:website": "http://www.happy-burger.at/",
                "name": "Happy Burger",
                "opening_hours": "Mo-Su 11:00-22:00"
              },
              "geometry": {
                "type": "Point",
                "coordinates": [
                  12.1702214,
                  47.5844325
                ]
              }
            },
            {
              "type": "Feature",
              "properties": {
                "id": "716942028",
                "osm_type": "node",
                "lat": 47.5839574,
                "lon": 12.1710237,
                "addr:city": "Kufstein",
                "addr:country": "AT",
                "addr:housenumber": "1",
                "addr:postcode": "6330",
                "addr:street": "Franz Josef-Platz",
                "amenity": "fast_food",
                "check_date:opening_hours": "2024-06-27",
                "name": "Mahlzeit",
                "opening_hours:signed": "no"
              },
              "geometry": {
                "type": "Point",
                "coordinates": [
                  12.1710237,
                  47.5839574
                ]
              }
            },
            {
              "type": "Feature",
              "properties": {
                "id": "729566610",
                "osm_type": "node",
                "lat": 47.582701,
                "lon": 12.168259,
                "addr:city": "Kufstein",
                "addr:country": "AT",
                "addr:housenumber": "2",
                "addr:postcode": "6330",
                "addr:street": "Unterer Stadtplatz",
                "amenity": "fast_food",
                "name": "Masala Indian & Bistro",
                "opening_hours": "Tu-Th 11:30-22:00, Fr 11:30-04:00, Sa 14:00-04:00, Su 12:00-21:00",
                "source": "http://www.tohumimbiss.at/",
                "source:date": "2017-07-05"
              },
              "geometry": {
                "type": "Point",
                "coordinates": [
                  12.168259,
                  47.582701
                ]
              }
            },
            {
              "type": "Feature",
              "properties": {
                "id": "765305774",
                "osm_type": "node",
                "lat": 47.5996834,
                "lon": 12.1792406,
                "amenity": "fast_food",
                "contact:email": "seissl@aon.at",
                "contact:mobile": "+43 664 3855124",
                "contact:website": "http://www.bezirksbegleiter.at/de/partner/948/praesentation/aktuell",
                "name": "Einkehrplatzl",
                "opening_hours": "PH,Mo-Su 10:00-21:00",
                "seasonal": "summer"
              },
              "geometry": {
                "type": "Point",
                "coordinates": [
                  12.1792406,
                  47.5996834
                ]
              }
            },
            {
              "type": "Feature",
              "properties": {
                "id": "1264233013",
                "osm_type": "node",
                "lat": 47.6528212,
                "lon": 12.1750822,
                "amenity": "fast_food",
                "name": "Servus"
              },
              "geometry": {
                "type": "Point",
                "coordinates": [
                  12.1750822,
                  47.6528212
                ]
              }
            },
            {
              "type": "Feature",
              "properties": {
                "id": "1376491037",
                "osm_type": "node",
                "lat": 47.5743636,
                "lon": 12.1582948,
                "addr:city": "Kufstein",
                "addr:country": "AT",
                "addr:housenumber": "59",
                "addr:postcode": "6330",
                "addr:street": "Salurner Straße",
                "amenity": "fast_food",
                "contact:email": "info@imbiss-unterland.com",
                "contact:phone": "+43 664 5805569",
                "contact:website": "http://www.imbiss-unterland.com/",
                "cuisine": "kebab",
                "name": "Imbiss Unterland",
                "opening_hours": "Tu-Su 11:00-22:00",
                "snack": "yes",
                "source": "geoimage.at MaxRes",
                "wheelchair": "yes"
              },
              "geometry": {
                "type": "Point",
                "coordinates": [
                  12.1582948,
                  47.5743636
                ]
              }
            },
            {
              "type": "Feature",
              "properties": {
                "id": "1376494069",
                "osm_type": "node",
                "lat": 47.5744061,
                "lon": 12.156328,
                "addr:city": "Kufstein",
                "addr:country": "AT",
                "addr:housenumber": "1",
                "addr:postcode": "6330",
                "addr:street": "Karl Ganzer-Straße",
                "amenity": "fast_food",
                "contact:phone": "+43 699 17456623",
                "contact:website": "https://www.coras-hendltreff.at/",
                "cuisine": "chicken",
                "name": "Cora's Hendltreff",
                "opening_hours": "Tu-Fr 10:00-18:30; Sa 10:00-16:00; Mo,Su,PH off"
              },
              "geometry": {
                "type": "Point",
                "coordinates": [
                  12.156328,
                  47.5744061
                ]
              }
            },
            {
              "type": "Feature",
              "properties": {
                "id": "1397035748",
                "osm_type": "node",
                "lat": 47.6131483,
                "lon": 12.2007225,
                "amenity": "fast_food",
                "brand": "Burger King",
                "brand:wikidata": "Q177054",
                "brand:wikipedia": "en:Burger King",
                "check_date": "2024-07-21",
                "cuisine": "burger",
                "name": "Burger King",
                "opening_hours": "Th-Su 11:00-16:00",
                "takeaway": "yes"
              },
              "geometry": {
                "type": "Point",
                "coordinates": [
                  12.2007225,
                  47.6131483
                ]
              }
            },
            {
              "type": "Feature",
              "properties": {
                "id": "1397035749",
                "osm_type": "node",
                "lat": 47.613421,
                "lon": 12.2008,
                "addr:city": "Kiefersfelden",
                "addr:housenumber": "1",
                "addr:postcode": "83088",
                "addr:street": "Kranzhornstraße",
                "amenity": "fast_food",
                "brand": "Nordsee",
                "brand:wikidata": "Q74866",
                "brand:wikipedia": "de:Nordsee (Restaurantkette)",
                "check_date": "2024-07-21",
                "cuisine": "seafood",
                "name": "Nordsee",
                "opening_hours": "11:00-19:00",
                "phone": "+49 8033 302560",
                "takeaway": "yes",
                "website": "https://www.nordsee.com/de/filialen/detail/store/inntal-west-341/"
              },
              "geometry": {
                "type": "Point",
                "coordinates": [
                  12.2008,
                  47.613421
                ]
              }
            },
            {
              "type": "Feature",
              "properties": {
                "id": "1434682883",
                "osm_type": "node",
                "lat": 47.5913905,
                "lon": 12.1757194,
                "addr:city": "Kufstein",
                "addr:country": "AT",
                "addr:housenumber": "35",
                "addr:postcode": "6330",
                "addr:street": "Oskar Pirlo-Straße",
                "amenity": "fast_food",
                "cuisine": "burger",
                "name": "Zwei Brüder - Pizza & Kebab",
                "source": "geoimage.at MaxRes"
              },
              "geometry": {
                "type": "Point",
                "coordinates": [
                  12.1757194,
                  47.5913905
                ]
              }
            },
            {
              "type": "Feature",
              "properties": {
                "id": "1441961352",
                "osm_type": "node",
                "lat": 47.5934094,
                "lon": 12.1767209,
                "addr:city": "Kufstein",
                "addr:country": "AT",
                "addr:housenumber": "4",
                "addr:postcode": "6330",
                "addr:street": "Rosenheimer Straße",
                "amenity": "fast_food",
                "brand": "McDonald's",
                "brand:wikidata": "Q38076",
                "brand:wikipedia": "en:McDonald's",
                "contact:email": "info.heinritzi@mcdonalds.de",
                "contact:fax": "+43 5372 68012",
                "contact:phone": "+43 5372 67770",
                "contact:website": "http://www.mcdonalds-heinritzi.de/kufstein",
                "cuisine": "burger",
                "name": "McDonald's",
                "opening_hours": "Su-Th 07:00-01:00, Fr-Sa 07:00-03:00",
                "takeaway": "yes"
              },
              "geometry": {
                "type": "Point",
                "coordinates": [
                  12.1767209,
                  47.5934094
                ]
              }
            },
            {
              "type": "Feature",
              "properties": {
                "id": "2153532175",
                "osm_type": "node",
                "lat": 47.5853408,
                "lon": 12.1720051,
                "addr:city": "Kufstein",
                "addr:country": "AT",
                "addr:housenumber": "19",
                "addr:postcode": "6330",
                "addr:street": "Kaiserbergstraße",
                "amenity": "fast_food",
                "cuisine": "pizza;grill;pasta;salad",
                "drive_through": "no",
                "name": "Jacob's"
              },
              "geometry": {
                "type": "Point",
                "coordinates": [
                  12.1720051,
                  47.5853408
                ]
              }
            },
            {
              "type": "Feature",
              "properties": {
                "id": "2843300150",
                "osm_type": "node",
                "lat": 47.5817877,
                "lon": 12.170398,
                "addr:city": "Kufstein",
                "addr:country": "AT",
                "addr:housenumber": "2",
                "addr:postcode": "6330",
                "addr:street": "Kinkstraße",
                "amenity": "fast_food",
                "cuisine": "pizza",
                "name": "Happy Burger",
                "opening_hours": "Mo-Sa 11:00-21:00; Su,PH 11:00-22:00",
                "phone": "+43 664 5764350",
                "source:date": "2017-07-05",
                "website": "https://www.happyburger-kinkstrasse.at/"
              },
              "geometry": {
                "type": "Point",
                "coordinates": [
                  12.170398,
                  47.5817877
                ]
              }
            },
            {
              "type": "Feature",
              "properties": {
                "id": "2934336001",
                "osm_type": "node",
                "lat": 47.5798528,
                "lon": 12.1698316,
                "addr:city": "Kufstein",
                "addr:country": "AT",
                "addr:housenumber": "19",
                "addr:postcode": "6330",
                "addr:street": "Kinkstraße",
                "amenity": "fast_food",
                "cuisine": "asian",
                "name": "Asia Thai Bao",
                "wheelchair": "no"
              },
              "geometry": {
                "type": "Point",
                "coordinates": [
                  12.1698316,
                  47.5798528
                ]
              }
            },
            {
              "type": "Feature",
              "properties": {
                "id": "2946159484",
                "osm_type": "node",
                "lat": 47.5828779,
                "lon": 12.1712935,
                "amenity": "fast_food",
                "cuisine": "juice",
                "name": "Ichiban Tea"
              },
              "geometry": {
                "type": "Point",
                "coordinates": [
                  12.1712935,
                  47.5828779
                ]
              }
            },
            {
              "type": "Feature",
              "properties": {
                "id": "3054943644",
                "osm_type": "node",
                "lat": 47.6220987,
                "lon": 12.2123939,
                "amenity": "fast_food",
                "cuisine": "burger",
                "name": "Dorfgrill"
              },
              "geometry": {
                "type": "Point",
                "coordinates": [
                  12.2123939,
                  47.6220987
                ]
              }
            },
            {
              "type": "Feature",
              "properties": {
                "id": "4227780889",
                "osm_type": "node",
                "lat": 47.6492882,
                "lon": 12.2136359,
                "amenity": "fast_food",
                "name": "Döner"
              },
              "geometry": {
                "type": "Point",
                "coordinates": [
                  12.2136359,
                  47.6492882
                ]
              }
            },
            {
              "type": "Feature",
              "properties": {
                "id": "4631435837",
                "osm_type": "node",
                "lat": 47.5575647,
                "lon": 12.1520277,
                "addr:city": "Schwoich",
                "addr:country": "AT",
                "addr:housenumber": "145",
                "addr:postcode": "6330",
                "addr:street": "Am Bach",
                "amenity": "fast_food",
                "cuisine": "pasta",
                "delivery": "yes",
                "email": "trattorianapoli3@gmail.com",
                "name": "Trattoria Napoli",
                "opening_hours": "Mo-Su 10:00-23:00; We off",
                "operator": "Elisabeth Vogl",
                "phone": "+436601058841",
                "source": "geoimage.at MaxRes",
                "website": "http://www.burgerladen.at"
              },
              "geometry": {
                "type": "Point",
                "coordinates": [
                  12.1520277,
                  47.5575647
                ]
              }
            },
            {
              "type": "Feature",
              "properties": {
                "id": "5284058858",
                "osm_type": "node",
                "lat": 47.5831551,
                "lon": 12.1710286,
                "addr:city": "Kufstein",
                "addr:housenumber": "2",
                "addr:postcode": "6330",
                "addr:street": "Oberer Stadtplatz",
                "amenity": "fast_food",
                "brand": "Subway",
                "brand:wikidata": "Q244457",
                "brand:wikipedia": "en:Subway (restaurant)",
                "comment": "Subway seit mehreren Monaten geschlossen, endgültige Schließung nicht sicher.",
                "cuisine": "sandwich",
                "diet:vegan": "yes",
                "diet:vegetarian": "yes",
                "name": "Subway",
                "opening_hours": "Mo-Su 08:00-22:00",
                "takeaway": "yes",
                "website": "https://restaurants.subway.com/de/osterreich/ti/kufstein/oberer-stadtplatz-2"
              },
              "geometry": {
                "type": "Point",
                "coordinates": [
                  12.1710286,
                  47.5831551
                ]
              }
            },
            {
              "type": "Feature",
              "properties": {
                "id": "7851548397",
                "osm_type": "node",
                "lat": 47.5832621,
                "lon": 12.1662604,
                "amenity": "fast_food",
                "cuisine": "kebab;falafel",
                "indoor_seating": "yes",
                "name": "Kufamici",
                "outdoor_seating": "yes"
              },
              "geometry": {
                "type": "Point",
                "coordinates": [
                  12.1662604,
                  47.5832621
                ]
              }
            },
            {
              "type": "Feature",
              "properties": {
                "id": "10766223478",
                "osm_type": "node",
                "lat": 47.6493232,
                "lon": 12.3123497,
                "air_conditioning": "no",
                "amenity": "fast_food",
                "cuisine": "kebab;pizza",
                "drive_through": "no",
                "name": "Happy Imbiss",
                "opening_hours": "Tu-Su 11:00-21:00",
                "outdoor_seating": "yes",
                "survey:date": "2024-08-08",
                "takeaway": "yes"
              },
              "geometry": {
                "type": "Point",
                "coordinates": [
                  12.3123497,
                  47.6493232
                ]
              }
            },
            {
              "type": "Feature",
              "properties": {
                "id": "11443991167",
                "osm_type": "node",
                "lat": 47.5845469,
                "lon": 12.1712131,
                "amenity": "fast_food",
                "cuisine": "turkish",
                "drive_through": "no"
              },
              "geometry": {
                "type": "Point",
                "coordinates": [
                  12.1712131,
                  47.5845469
                ]
              }
            },
            {
              "type": "Feature",
              "properties": {
                "id": "11444820736",
                "osm_type": "node",
                "lat": 47.5845701,
                "lon": 12.1692532,
                "addr:city": "Kufstein",
                "addr:country": "AT",
                "addr:housenumber": "1",
                "addr:postcode": "6330",
                "addr:street": "Feldgasse",
                "amenity": "fast_food",
                "brand": "Baguette",
                "cuisine": "thai",
                "drive_through": "no",
                "level": "0",
                "name": "Thai2Go",
                "not:brand:wikidata": "Q82512635",
                "opening_hours": "Mo-Fr 08:00-18:30; Sa 08:00-17:00; PH off",
                "source:date": "2017-07-05",
                "wheelchair": "yes"
              },
              "geometry": {
                "type": "Point",
                "coordinates": [
                  12.1692532,
                  47.5845701
                ]
              }
            },
            {
              "type": "Feature",
              "properties": {
                "id": "12063899729",
                "osm_type": "node",
                "lat": 47.5858973,
                "lon": 12.1618713,
                "amenity": "fast_food",
                "contact:phone": "+43 676 6532784",
                "name": "Balkan",
                "opening_hours": "06:00-22:00",
                "opening_hours:kitchen": "10:00-21:00",
                "shop": "bakery"
              },
              "geometry": {
                "type": "Point",
                "coordinates": [
                  12.1618713,
                  47.5858973
                ]
              }
            },
            {
              "type": "Feature",
              "properties": {
                "id": "12163190423",
                "osm_type": "node",
                "lat": 47.6009352,
                "lon": 12.1464706,
                "addr:city": "Thiersee",
                "addr:housenumber": "10",
                "addr:postcode": "6335",
                "addr:street": "Marbling",
                "amenity": "fast_food",
                "drive_through": "no",
                "mobile": "+43 6603543256",
                "name": "Imbiss Marbling",
                "opening_hours": "Mo-Fr 09:00-15:00"
              },
              "geometry": {
                "type": "Point",
                "coordinates": [
                  12.1464706,
                  47.6009352
                ]
              }
            },
            {
              "type": "Feature",
              "properties": {
                "id": "12446056943",
                "osm_type": "node",
                "lat": 47.5825836,
                "lon": 12.171045,
                "addr:city": "Kufstein",
                "addr:housenumber": "5b",
                "addr:postcode": "6330",
                "addr:street": "Oberer Stadtplatz",
                "amenity": "fast_food",
                "cuisine": "turkish",
                "diet:vegan": "yes",
                "diet:vegetarian": "yes",
                "name": "Onnumara Çiğköfte",
                "opening_hours": "Mo,We,Th 11:00-14:00, 17:25-20:00; Fr 11:00-13:00, 17:25-20:30; Sa 11:00-21:00; Su 13:00-20:00",
                "phone": "+43 660 9701010"
              },
              "geometry": {
                "type": "Point",
                "coordinates": [
                  12.171045,
                  47.5825836
                ]
              }
            },
            {
              "type": "Feature",
              "properties": {
                "id": "12985970012",
                "osm_type": "node",
                "lat": 47.6401031,
                "lon": 12.140535,
                "amenity": "fast_food",
                "cuisine": "bavarian",
                "description": "Gertränke und einfache Brotzeit im Sommer bei guten Wetter",
                "ele": "1200",
                "name": "Ramserer Alm",
                "phone": "+49 8033 1674",
                "seasonal": "summer"
              },
              "geometry": {
                "type": "Point",
                "coordinates": [
                  12.140535,
                  47.6401031
                ]
              }
            }
          ],
          "children": []
        }
      ]
    },
    {
      "bbox": {
        "south": 47.36431175,
        "west": 12.392062499999998,
        "north": 47.694865,
        "east": 13.345766
      },
      "poiCount": 52,
      "leafCount": 0,
      "averagePosition": [
        12.78758833076923,
        47.5739043326923
      ],
      "data": [],
      "children": [
        {
          "bbox": {
            "south": 47.36431175,
            "west": 12.392062499999998,
            "north": 47.529588375,
            "east": 12.86891425
          },
          "poiCount": 17,
          "leafCount": 17,
          "averagePosition": [
            12.566260535294118,
            47.47338699411765
          ],
          "data": [
            {
              "type": "Feature",
              "properties": {
                "id": "7141485221",
                "osm_type": "node",
                "lat": 47.3662544,
                "lon": 12.735352,
                "amenity": "fast_food",
                "cuisine": "burger;pizza",
                "delivery": "yes",
                "name": "Der BurgerBaron",
                "opening_hours": "Mo-Fr 07:00-19:00; Sa, Su 07:00-20:00"
              },
              "geometry": {
                "type": "Point",
                "coordinates": [
                  12.735352,
                  47.3662544
                ]
              }
            },
            {
              "type": "Feature",
              "properties": {
                "id": "11350836737",
                "osm_type": "node",
                "lat": 47.3669262,
                "lon": 12.8351299,
                "amenity": "fast_food",
                "cuisine": "regional",
                "name": "Kammereggalm",
                "opening_hours": "May,Oct: We; Jun-Sep: Mo-Su"
              },
              "geometry": {
                "type": "Point",
                "coordinates": [
                  12.8351299,
                  47.3669262
                ]
              }
            },
            {
              "type": "Feature",
              "properties": {
                "id": "2209561979",
                "osm_type": "node",
                "lat": 47.523015,
                "lon": 12.4233383,
                "alt_name": "Happy Snack",
                "amenity": "fast_food",
                "cuisine": "kebab",
                "name": "Happy",
                "opening_hours": "Tu-Su 11:00-22:00",
                "phone": "+4369917082686",
                "smoking": "yes",
                "wheelchair": "yes"
              },
              "geometry": {
                "type": "Point",
                "coordinates": [
                  12.4233383,
                  47.523015
                ]
              }
            },
            {
              "type": "Feature",
              "properties": {
                "id": "2270322789",
                "osm_type": "node",
                "lat": 47.5234915,
                "lon": 12.430462,
                "addr:city": "St. Johann in Tirol",
                "addr:country": "AT",
                "addr:housenumber": "17a",
                "addr:postcode": "6380",
                "addr:street": "Dechant-Wieshoferstraße",
                "alt_name": "Domicil Cooking",
                "amenity": "fast_food",
                "cuisine": "asian",
                "name": "Domicil",
                "opening_hours": "Mo-Fr 11:30-14:30,17:00-19:30; Sa 11:00-14:30",
                "operator": "Polczik Franz Benjamin",
                "source": "Lokalerhebung 2012-2019",
                "website": "https://www.domicil-cooking.at/"
              },
              "geometry": {
                "type": "Point",
                "coordinates": [
                  12.430462,
                  47.5234915
                ]
              }
            },
            {
              "type": "Feature",
              "properties": {
                "id": "2270322790",
                "osm_type": "node",
                "lat": 47.5230343,
                "lon": 12.4226872,
                "addr:city": "St. Johann in Tirol",
                "addr:country": "AT",
                "addr:housenumber": "32a",
                "addr:postcode": "6380",
                "addr:street": "Kaiserstraße",
                "alt_name": "NINI Thai Imbiss",
                "amenity": "fast_food",
                "contact:facebook": "https://www.facebook.com/pages/Nini-Thai-Imbiss/348321881911623",
                "cuisine": "thai",
                "name": "NINI",
                "opening_hours": "Tu-Fr 11:30-14:30",
                "operator": "Tangdong Jomkhwan",
                "snack": "yes",
                "source": "Lokalerhebung 2012-2019"
              },
              "geometry": {
                "type": "Point",
                "coordinates": [
                  12.4226872,
                  47.5230343
                ]
              }
            },
            {
              "type": "Feature",
              "properties": {
                "id": "2305357469",
                "osm_type": "node",
                "lat": 47.4888571,
                "lon": 12.5003629,
                "amenity": "fast_food"
              },
              "geometry": {
                "type": "Point",
                "coordinates": [
                  12.5003629,
                  47.4888571
                ]
              }
            },
            {
              "type": "Feature",
              "properties": {
                "id": "2572782769",
                "osm_type": "node",
                "lat": 47.5277371,
                "lon": 12.4248475,
                "amenity": "fast_food",
                "cuisine": "chicken",
                "name": "Crazy Chicken",
                "smoking": "yes",
                "wheelchair": "yes"
              },
              "geometry": {
                "type": "Point",
                "coordinates": [
                  12.4248475,
                  47.5277371
                ]
              }
            },
            {
              "type": "Feature",
              "properties": {
                "id": "3614905893",
                "osm_type": "node",
                "lat": 47.5231115,
                "lon": 12.4297448,
                "addr:city": "St. Johann in Tirol",
                "addr:country": "AT",
                "addr:housenumber": "6",
                "addr:postcode": "6380",
                "addr:street": "Dechant-Wieshoferstraße",
                "amenity": "fast_food",
                "cuisine": "turkish",
                "drive_through": "no",
                "internet_access": "no",
                "name": "pick nick",
                "opening_hours": "Mo-Su 11:00-24:00",
                "outdoor_seating": "yes",
                "phone": "+43535261975",
                "smoking": "separated",
                "source": "Lokalerhebung 2012-2019",
                "wheelchair": "limited"
              },
              "geometry": {
                "type": "Point",
                "coordinates": [
                  12.4297448,
                  47.5231115
                ]
              }
            },
            {
              "type": "Feature",
              "properties": {
                "id": "3992387936",
                "osm_type": "node",
                "lat": 47.5262946,
                "lon": 12.4227607,
                "alt_name": "Evi's Langlaufstüberl",
                "amenity": "fast_food",
                "name": "Koasastub'n"
              },
              "geometry": {
                "type": "Point",
                "coordinates": [
                  12.4227607,
                  47.5262946
                ]
              }
            },
            {
              "type": "Feature",
              "properties": {
                "id": "7729003353",
                "osm_type": "node",
                "lat": 47.5197997,
                "lon": 12.4307273,
                "amenity": "fast_food",
                "name": "Bahnhofsbuffet"
              },
              "geometry": {
                "type": "Point",
                "coordinates": [
                  12.4307273,
                  47.5197997
                ]
              }
            },
            {
              "type": "Feature",
              "properties": {
                "id": "8880138942",
                "osm_type": "node",
                "lat": 47.5206823,
                "lon": 12.4309515,
                "amenity": "fast_food",
                "name": "K-Essen Tiroler Diner",
                "opening_hours": "Tu-Su 11:30-14:00, 16:00-21:30"
              },
              "geometry": {
                "type": "Point",
                "coordinates": [
                  12.4309515,
                  47.5206823
                ]
              }
            },
            {
              "type": "Feature",
              "properties": {
                "id": "8904957117",
                "osm_type": "node",
                "lat": 47.4173373,
                "lon": 12.4235373,
                "amenity": "fast_food",
                "cuisine": "kebab"
              },
              "geometry": {
                "type": "Point",
                "coordinates": [
                  12.4235373,
                  47.4173373
                ]
              }
            },
            {
              "type": "Feature",
              "properties": {
                "id": "1417316470",
                "osm_type": "node",
                "lat": 47.4291429,
                "lon": 12.8438427,
                "amenity": "fast_food",
                "brand": "McDonald's",
                "brand:wikidata": "Q38076",
                "brand:wikipedia": "en:McDonald's",
                "cuisine": "burger",
                "name": "McDonald's",
                "opening_hours": "Mo-Fr 07:00-0:00; Sa-Su 08:00-0:00",
                "takeaway": "yes"
              },
              "geometry": {
                "type": "Point",
                "coordinates": [
                  12.8438427,
                  47.4291429
                ]
              }
            },
            {
              "type": "Feature",
              "properties": {
                "id": "3206191962",
                "osm_type": "node",
                "lat": 47.4764029,
                "lon": 12.5450546,
                "addr:city": "Fieberbrunn",
                "addr:country": "AT",
                "addr:housenumber": "26",
                "addr:postcode": "6391",
                "addr:street": "Speilbergstraße",
                "amenity": "fast_food",
                "cuisine": "kebab",
                "name": "Pick Nick My Way",
                "opening_hours": "Tu-Su 11:00-24:00",
                "phone": "+43 5354 56065",
                "smoking": "outside",
                "source": "survey",
                "website": "http://www.picknick-ossi.com/",
                "wheelchair": "yes"
              },
              "geometry": {
                "type": "Point",
                "coordinates": [
                  12.5450546,
                  47.4764029
                ]
              }
            },
            {
              "type": "Feature",
              "properties": {
                "id": "3772196443",
                "osm_type": "node",
                "lat": 47.4196513,
                "lon": 12.8474237,
                "amenity": "fast_food"
              },
              "geometry": {
                "type": "Point",
                "coordinates": [
                  12.8474237,
                  47.4196513
                ]
              }
            },
            {
              "type": "Feature",
              "properties": {
                "id": "4971762126",
                "osm_type": "node",
                "lat": 47.4264871,
                "lon": 12.8485191,
                "addr:city": "Saalfelden am Steinernen Meer",
                "addr:country": "AT",
                "addr:housenumber": "5",
                "addr:postcode": "5760",
                "addr:street": "Lofererstraße",
                "amenity": "fast_food",
                "cuisine": "streetfood",
                "name": "Picobello Street Food Snack Bar",
                "outdoor_seating": "no",
                "takeaway": "yes",
                "website": "https://www.facebook.com/picobellostreetfood"
              },
              "geometry": {
                "type": "Point",
                "coordinates": [
                  12.8485191,
                  47.4264871
                ]
              }
            },
            {
              "type": "Feature",
              "properties": {
                "id": "10300841654",
                "osm_type": "node",
                "lat": 47.4693537,
                "lon": 12.6316876,
                "amenity": "fast_food",
                "email": "sDegei@gmx.at",
                "name": "s'Degei",
                "phone": "0043 664 75543905",
                "website": "https://www.kitzbueheler-alpen.com/de/pital/infra/a-z/sdegei-take-away.html"
              },
              "geometry": {
                "type": "Point",
                "coordinates": [
                  12.6316876,
                  47.4693537
                ]
              }
            }
          ],
          "children": []
        },
        {
          "bbox": {
            "south": 47.36431175,
            "west": 12.86891425,
            "north": 47.529588375,
            "east": 13.345766
          },
          "poiCount": 2,
          "leafCount": 2,
          "averagePosition": [
            13.2189563,
            47.40660855
          ],
          "data": [
            {
              "type": "Feature",
              "properties": {
                "id": "5566967893",
                "osm_type": "node",
                "lat": 47.3952119,
                "lon": 13.2200871,
                "addr:city": "Bischofshofen",
                "addr:country": "AT",
                "addr:housenumber": "13a",
                "addr:postcode": "5500",
                "addr:street": "Bundesstraße",
                "amenity": "fast_food",
                "at_bev:addr_date": "2017-10-01",
                "cuisine": "turkish",
                "name": "Tugi Imbiss"
              },
              "geometry": {
                "type": "Point",
                "coordinates": [
                  13.2200871,
                  47.3952119
                ]
              }
            },
            {
              "type": "Feature",
              "properties": {
                "id": "9893209955",
                "osm_type": "node",
                "lat": 47.4180052,
                "lon": 13.2178255,
                "amenity": "fast_food",
                "name": "Schluckspecht"
              },
              "geometry": {
                "type": "Point",
                "coordinates": [
                  13.2178255,
                  47.4180052
                ]
              }
            }
          ],
          "children": []
        },
        {
          "bbox": {
            "south": 47.529588375,
            "west": 12.392062499999998,
            "north": 47.694865,
            "east": 12.86891425
          },
          "poiCount": 11,
          "leafCount": 11,
          "averagePosition": [
            12.495592263636365,
            47.60895564545455
          ],
          "data": [
            {
              "type": "Feature",
              "properties": {
                "id": "1354606644",
                "osm_type": "node",
                "lat": 47.530938,
                "lon": 12.4348949,
                "amenity": "fast_food",
                "cuisine": "turkish",
                "name": "St. Johanner Kebap & Pizza",
                "operator": "Osman Karadag",
                "smoking": "isolated"
              },
              "geometry": {
                "type": "Point",
                "coordinates": [
                  12.4348949,
                  47.530938
                ]
              }
            },
            {
              "type": "Feature",
              "properties": {
                "id": "1408682933",
                "osm_type": "node",
                "lat": 47.6698806,
                "lon": 12.4064527,
                "amenity": "fast_food",
                "cuisine": "kebab",
                "name": "Ruck Zuck"
              },
              "geometry": {
                "type": "Point",
                "coordinates": [
                  12.4064527,
                  47.6698806
                ]
              }
            },
            {
              "type": "Feature",
              "properties": {
                "id": "3458758522",
                "osm_type": "node",
                "lat": 47.5531877,
                "lon": 12.4103538,
                "addr:city": "Kirchdorf in Tirol",
                "addr:country": "AT",
                "addr:housename": "Rodelbahn",
                "addr:housenumber": "53",
                "addr:postcode": "6382",
                "addr:street": "Alm",
                "amenity": "fast_food",
                "cuisine": "regional",
                "name": "Bacheralm",
                "website": "https://www.winterrodeln.org/wiki/Bacheralm"
              },
              "geometry": {
                "type": "Point",
                "coordinates": [
                  12.4103538,
                  47.5531877
                ]
              }
            },
            {
              "type": "Feature",
              "properties": {
                "id": "4176823590",
                "osm_type": "node",
                "lat": 47.551656,
                "lon": 12.4514378,
                "addr:city": "Kirchdorf in Tirol",
                "addr:country": "AT",
                "addr:housenumber": "26",
                "addr:postcode": "6382",
                "addr:street": "Innsbrucker Straße",
                "amenity": "fast_food",
                "cuisine": "chinese",
                "description": "Imbiss Stand",
                "name": "Ying's Cooking Bus",
                "opening_hours": "Mo-Su 10:30-20:00; Th off",
                "outdoor_seating": "yes",
                "phone": "+4367761726268",
                "smoking": "yes",
                "takeaway": "yes",
                "wheelchair": "yes"
              },
              "geometry": {
                "type": "Point",
                "coordinates": [
                  12.4514378,
                  47.551656
                ]
              }
            },
            {
              "type": "Feature",
              "properties": {
                "id": "4210377789",
                "osm_type": "node",
                "lat": 47.6614181,
                "lon": 12.4124982,
                "addr:city": "Kössen",
                "addr:country": "AT",
                "addr:hamlet": "Hütte",
                "addr:housenumber": "10",
                "addr:postcode": "6345",
                "addr:street": "Hütte",
                "amenity": "fast_food",
                "cuisine": "turkish;pizza;kebab;italian",
                "name": "Kebab Kaiser",
                "source": "geoimage.at MaxRes",
                "wheelchair": "yes"
              },
              "geometry": {
                "type": "Point",
                "coordinates": [
                  12.4124982,
                  47.6614181
                ]
              }
            },
            {
              "type": "Feature",
              "properties": {
                "id": "10309010639",
                "osm_type": "node",
                "lat": 47.6740912,
                "lon": 12.4713069,
                "amenity": "fast_food",
                "cuisine": "kebab;pizza",
                "name": "Lorik Döner & Pizza",
                "phone": "+49 8640 7977557",
                "url": "https://www.reitimwinkl.de/lorik-doener-und-pizza"
              },
              "geometry": {
                "type": "Point",
                "coordinates": [
                  12.4713069,
                  47.6740912
                ]
              }
            },
            {
              "type": "Feature",
              "properties": {
                "id": "11478326272",
                "osm_type": "node",
                "lat": 47.5527598,
                "lon": 12.4532229,
                "amenity": "fast_food",
                "name": "Scotty's Genuss Imbiss"
              },
              "geometry": {
                "type": "Point",
                "coordinates": [
                  12.4532229,
                  47.5527598
                ]
              }
            },
            {
              "type": "Feature",
              "properties": {
                "id": "12037125712",
                "osm_type": "node",
                "lat": 47.6615409,
                "lon": 12.4243396,
                "addr:city": "Kössen",
                "addr:housenumber": "20",
                "addr:postcode": "6345",
                "addr:street": "Kaltenbach",
                "amenity": "fast_food",
                "cuisine": "chicken",
                "drive_through": "no",
                "mobile": "+43 676 9639841",
                "name": "Hendl Sepp",
                "opening_hours": "Fr-Su 11:00-19:00"
              },
              "geometry": {
                "type": "Point",
                "coordinates": [
                  12.4243396,
                  47.6615409
                ]
              }
            },
            {
              "type": "Feature",
              "properties": {
                "id": "5144625721",
                "osm_type": "node",
                "lat": 47.5871315,
                "lon": 12.6105255,
                "amenity": "fast_food",
                "cuisine": "barbecue;local",
                "name": "Tiroler Waldstüberl",
                "opening_hours": "Mo-Fr 10:00-20:00"
              },
              "geometry": {
                "type": "Point",
                "coordinates": [
                  12.6105255,
                  47.5871315
                ]
              }
            },
            {
              "type": "Feature",
              "properties": {
                "id": "8130396617",
                "osm_type": "node",
                "lat": 47.6059432,
                "lon": 12.6458426,
                "addr:postcode": "5090",
                "addr:street": "Höhenstraße Loferer Alm",
                "amenity": "fast_food",
                "name": "Almausschank Wurmbachkaser"
              },
              "geometry": {
                "type": "Point",
                "coordinates": [
                  12.6458426,
                  47.6059432
                ]
              }
            },
            {
              "type": "Feature",
              "properties": {
                "id": "10710053244",
                "osm_type": "node",
                "lat": 47.6499651,
                "lon": 12.73064,
                "addr:housenumber": "33",
                "addr:place": "Niederland",
                "amenity": "fast_food",
                "check_date": "2023-03-04",
                "name": "Dornauer"
              },
              "geometry": {
                "type": "Point",
                "coordinates": [
                  12.73064,
                  47.6499651
                ]
              }
            }
          ],
          "children": []
        },
        {
          "bbox": {
            "south": 47.529588375,
            "west": 12.86891425,
            "north": 47.694865,
            "east": 13.345766
          },
          "poiCount": 22,
          "leafCount": 22,
          "averagePosition": [
            13.065397118181817,
            47.64925987272727
          ],
          "data": [
            {
              "type": "Feature",
              "properties": {
                "id": "475604478",
                "osm_type": "node",
                "lat": 47.637436,
                "lon": 13.017278,
                "addr:city": "Berchtesgaden",
                "addr:country": "DE",
                "addr:postcode": "83471",
                "addr:street": "Bergwerkstraße",
                "amenity": "fast_food",
                "name": "Süßwaren Kiosk",
                "payment:credit_cards": "no",
                "payment:debit_cards": "no",
                "wheelchair": "yes"
              },
              "geometry": {
                "type": "Point",
                "coordinates": [
                  13.017278,
                  47.637436
                ]
              }
            },
            {
              "type": "Feature",
              "properties": {
                "id": "2092323127",
                "osm_type": "node",
                "lat": 47.6324795,
                "lon": 13.0005645,
                "addr:city": "Berchtesgaden",
                "addr:country": "DE",
                "addr:housenumber": "24",
                "addr:postcode": "83471",
                "addr:street": "Marktplatz",
                "amenity": "fast_food",
                "check_date": "2023-05-27",
                "contact:phone": "+49 8652 948 172",
                "contact:website": "https://www.grillstüberl.de/",
                "cuisine": "burger",
                "diet:vegan": "yes",
                "diet:vegetarian": "yes",
                "name": "Grillstüberl",
                "opening_hours": "Fr-We 11:00-19:45; Th off",
                "wheelchair": "yes"
              },
              "geometry": {
                "type": "Point",
                "coordinates": [
                  13.0005645,
                  47.6324795
                ]
              }
            },
            {
              "type": "Feature",
              "properties": {
                "id": "2097769469",
                "osm_type": "node",
                "lat": 47.6311196,
                "lon": 13.0012227,
                "addr:city": "Berchtesgaden",
                "addr:country": "DE",
                "addr:housenumber": "6",
                "addr:postcode": "83471",
                "addr:street": "Maximilianstraße",
                "amenity": "fast_food",
                "contact:instagram": "https://www.instagram.com/berchtesgadener_berlindoner/",
                "contact:phone": "+49 8652 6556 683",
                "cuisine": "kebab",
                "name": "Berlin Döner",
                "opening_hours": "Mo-Su 10:00-18:30"
              },
              "geometry": {
                "type": "Point",
                "coordinates": [
                  13.0012227,
                  47.6311196
                ]
              }
            },
            {
              "type": "Feature",
              "properties": {
                "id": "2097769484",
                "osm_type": "node",
                "lat": 47.6317109,
                "lon": 13.0011108,
                "amenity": "fast_food"
              },
              "geometry": {
                "type": "Point",
                "coordinates": [
                  13.0011108,
                  47.6317109
                ]
              }
            },
            {
              "type": "Feature",
              "properties": {
                "id": "3292015478",
                "osm_type": "node",
                "lat": 47.6259661,
                "lon": 12.9983428,
                "addr:city": "Berchtesgaden",
                "addr:country": "DE",
                "addr:housenumber": "4",
                "addr:postcode": "83471",
                "addr:street": "Bahnhofplatz",
                "amenity": "fast_food",
                "brand": "Burger King",
                "brand:wikidata": "Q177054",
                "brand:wikipedia": "en:Burger King",
                "check_date": "2023-05-27",
                "cuisine": "burger",
                "name": "Burger King",
                "opening_hours": "Su-Th 07:00-01:00, Fr-Sa 07:00-04:00",
                "smoking": "outside",
                "takeaway": "yes",
                "wheelchair": "yes"
              },
              "geometry": {
                "type": "Point",
                "coordinates": [
                  12.9983428,
                  47.6259661
                ]
              }
            },
            {
              "type": "Feature",
              "properties": {
                "id": "4457453442",
                "osm_type": "node",
                "lat": 47.6687597,
                "lon": 12.9440624,
                "amenity": "fast_food",
                "cuisine": "italian",
                "drive_through": "no"
              },
              "geometry": {
                "type": "Point",
                "coordinates": [
                  12.9440624,
                  47.6687597
                ]
              }
            },
            {
              "type": "Feature",
              "properties": {
                "id": "4620653062",
                "osm_type": "node",
                "lat": 47.6353336,
                "lon": 13.0070796,
                "addr:city": "Berchtesgaden",
                "addr:country": "DE",
                "addr:housenumber": "1",
                "addr:postcode": "83471",
                "addr:street": "Koch-Sternfeld-Straße",
                "amenity": "fast_food",
                "contact:instagram": "https://www.instagram.com/gipfelgusto/",
                "contact:phone": "+49 8652 657 71 18",
                "name": "Gipfel Gusto",
                "old_name": "Ehler",
                "opening_hours": "Mo-Fr 07:00-20:00; Sa 07:00-18:00; Su,PH off",
                "takeaway": "yes"
              },
              "geometry": {
                "type": "Point",
                "coordinates": [
                  13.0070796,
                  47.6353336
                ]
              }
            },
            {
              "type": "Feature",
              "properties": {
                "id": "5272702480",
                "osm_type": "node",
                "lat": 47.6321581,
                "lon": 13.0023244,
                "addr:city": "Berchtesgaden",
                "addr:country": "DE",
                "addr:housenumber": "3",
                "addr:postcode": "83471",
                "addr:street": "Maximilianstraße",
                "amenity": "fast_food",
                "contact:phone": "+49 8652 9794 265",
                "cuisine": "asian",
                "drive_through": "no",
                "name": "Asia House Bistro",
                "old_name": "Baguetteria",
                "opening_hours": "Mo-Su,PH 11:00-22:00",
                "outdoor_seating": "yes",
                "smoking": "outside",
                "takeaway": "yes",
                "wheelchair": "no"
              },
              "geometry": {
                "type": "Point",
                "coordinates": [
                  13.0023244,
                  47.6321581
                ]
              }
            },
            {
              "type": "Feature",
              "properties": {
                "id": "12727098537",
                "osm_type": "node",
                "lat": 47.5928804,
                "lon": 12.9868242,
                "addr:city": "Schönau am Königssee",
                "addr:country": "DE",
                "addr:housenumber": "2",
                "addr:postcode": "83471",
                "addr:street": "Seestraße",
                "amenity": "fast_food",
                "contact:email": "info@grillstuberl.de",
                "contact:website": "https://www.grillstüberl.de/",
                "name": "Grillstüberl",
                "opening_hours": "Mo-Fr,PH 11:00-20:45"
              },
              "geometry": {
                "type": "Point",
                "coordinates": [
                  12.9868242,
                  47.5928804
                ]
              }
            },
            {
              "type": "Feature",
              "properties": {
                "id": "1099852378",
                "osm_type": "node",
                "lat": 47.6796198,
                "lon": 13.1046084,
                "amenity": "fast_food",
                "cuisine": "chicken",
                "email": "filip.barisic007@gmail.com",
                "name": "Filip's Grillhendl",
                "phone": "+43 660 510 29 77",
                "website": "https://www.filips-grillhendl.at/"
              },
              "geometry": {
                "type": "Point",
                "coordinates": [
                  13.1046084,
                  47.6796198
                ]
              }
            },
            {
              "type": "Feature",
              "properties": {
                "id": "1099852612",
                "osm_type": "node",
                "lat": 47.6785513,
                "lon": 13.1050292,
                "amenity": "fast_food",
                "cuisine": "kebab",
                "email": "el.sayed258@gmail.com",
                "name": "Aladin's Pizza-Kebab-Grillhendl",
                "phone": "+43676 6433302",
                "website": "https://www.facebook.com/AladinsPizzaKebabGrillhendl/"
              },
              "geometry": {
                "type": "Point",
                "coordinates": [
                  13.1050292,
                  47.6785513
                ]
              }
            },
            {
              "type": "Feature",
              "properties": {
                "id": "1682155476",
                "osm_type": "node",
                "lat": 47.6864372,
                "lon": 13.091306,
                "amenity": "fast_food",
                "cuisine": "kebab",
                "name": "König Kebap",
                "website": "http://www.konigpizzahaus.at",
                "wheelchair": "no"
              },
              "geometry": {
                "type": "Point",
                "coordinates": [
                  13.091306,
                  47.6864372
                ]
              }
            },
            {
              "type": "Feature",
              "properties": {
                "id": "1801466740",
                "osm_type": "node",
                "lat": 47.6829249,
                "lon": 13.0981213,
                "addr:city": "Hallein",
                "addr:country": "AT",
                "addr:housenumber": "1",
                "addr:postcode": "5400",
                "addr:street": "Davisstraße",
                "amenity": "fast_food",
                "at_bev:addr_date": "2019-04-01",
                "contact:facebook": "https://www.facebook.com/people/Ha-Erols-Fastfood-Corner/100044300392198/",
                "cuisine": "kebab",
                "name": "Ha-Erol's Fastfood Corner",
                "opening_hours": "Mo-Sa 10:00-21:00"
              },
              "geometry": {
                "type": "Point",
                "coordinates": [
                  13.0981213,
                  47.6829249
                ]
              }
            },
            {
              "type": "Feature",
              "properties": {
                "id": "2135783259",
                "osm_type": "node",
                "lat": 47.608666,
                "lon": 13.1670443,
                "addr:city": "Kuchl",
                "addr:country": "AT",
                "addr:housenumber": "151",
                "addr:postcode": "5431",
                "addr:street": "Kellau",
                "amenity": "fast_food",
                "cuisine": "kebab",
                "delivery": "yes",
                "drive_through": "no",
                "name": "König Imbiss Pizza Haus",
                "opening_hours": "Mo-Sa 10:00-21:40; Su 10:00-21:00",
                "phone": "06641852712",
                "takeaway": "yes",
                "website": "https://www.koenigimbisspizzahaus.at/",
                "wheelchair": "limited"
              },
              "geometry": {
                "type": "Point",
                "coordinates": [
                  13.1670443,
                  47.608666
                ]
              }
            },
            {
              "type": "Feature",
              "properties": {
                "id": "3128847252",
                "osm_type": "node",
                "lat": 47.6838139,
                "lon": 13.0976048,
                "amenity": "fast_food",
                "name": "Lin-Xu Noodle & Sushi Take Away"
              },
              "geometry": {
                "type": "Point",
                "coordinates": [
                  13.0976048,
                  47.6838139
                ]
              }
            },
            {
              "type": "Feature",
              "properties": {
                "id": "4599408574",
                "osm_type": "node",
                "lat": 47.6321844,
                "lon": 13.0968323,
                "amenity": "fast_food",
                "check_date": "2023-08-19",
                "cuisine": "regional",
                "name": "Skihütte",
                "outdoor_seating": "yes"
              },
              "geometry": {
                "type": "Point",
                "coordinates": [
                  13.0968323,
                  47.6321844
                ]
              }
            },
            {
              "type": "Feature",
              "properties": {
                "id": "7353698549",
                "osm_type": "node",
                "lat": 47.6831348,
                "lon": 13.0980678,
                "addr:city": "Hallein",
                "addr:country": "AT",
                "addr:housenumber": "4",
                "addr:postcode": "5400",
                "addr:street": "Salzachtalstraße",
                "amenity": "fast_food",
                "cuisine": "burger;pizza",
                "email": "aladins.hallein@gmail.com",
                "name": "Aladin´s Burger",
                "opening_hours": "Mo-Fr 10:00-21:30; Su 12:30-21:30",
                "phone": "+43624522439",
                "website": "https://aladins-burger.eatbu.com/?lang"
              },
              "geometry": {
                "type": "Point",
                "coordinates": [
                  13.0980678,
                  47.6831348
                ]
              }
            },
            {
              "type": "Feature",
              "properties": {
                "id": "9875051607",
                "osm_type": "node",
                "lat": 47.5919685,
                "lon": 13.1754519,
                "amenity": "fast_food",
                "cuisine": "breakfast;snacks",
                "drink:coffee": "yes",
                "name": "eni café & shop"
              },
              "geometry": {
                "type": "Point",
                "coordinates": [
                  13.1754519,
                  47.5919685
                ]
              }
            },
            {
              "type": "Feature",
              "properties": {
                "id": "12475349639",
                "osm_type": "node",
                "lat": 47.6132303,
                "lon": 13.1668098,
                "amenity": "fast_food",
                "name": "Kellauer Stüberl"
              },
              "geometry": {
                "type": "Point",
                "coordinates": [
                  13.1668098,
                  47.6132303
                ]
              }
            },
            {
              "type": "Feature",
              "properties": {
                "id": "12900787195",
                "osm_type": "node",
                "lat": 47.6884166,
                "lon": 13.0900132,
                "addr:city": "Hallein",
                "addr:country": "AT",
                "addr:housenumber": "30",
                "addr:postcode": "83435",
                "addr:street": "Neualmerstraße",
                "amenity": "fast_food",
                "contact:email": "neualmhuette@hotmail.com",
                "contact:facebook": "https://www.facebook.com/neualmhuette/",
                "contact:instagram": "https://www.instagram.com/neualmhuette/",
                "contact:mobile": "+43 650 9581000",
                "cuisine": "burger",
                "name": "NeuAlm Hütte",
                "outdoor_seating": "yes",
                "wheelchair": "yes"
              },
              "geometry": {
                "type": "Point",
                "coordinates": [
                  13.0900132,
                  47.6884166
                ]
              }
            },
            {
              "type": "Feature",
              "properties": {
                "id": "12900905614",
                "osm_type": "node",
                "lat": 47.6870668,
                "lon": 13.0944375,
                "addr:city": "Hallein",
                "addr:country": "AT",
                "addr:housenumber": "4",
                "addr:postcode": "5400",
                "addr:street": "Neualmerstraße",
                "amenity": "fast_food",
                "at_bev:addr_date": "2017-10-01",
                "contact:email": "snackpoint5400@gmx.at",
                "contact:facebook": "https://www.facebook.com/people/Snack-Point-Hallein/100063589741840/",
                "contact:instagram": "https://www.instagram.com/snack_point_5400/",
                "contact:mobile": "+43 676 350 82 88",
                "contact:website": "https://snack-point-hallein.eatbu.com/",
                "cuisine": "burger",
                "name": "Snack Point",
                "wheelchair": "no"
              },
              "geometry": {
                "type": "Point",
                "coordinates": [
                  13.0944375,
                  47.6870668
                ]
              }
            },
            {
              "type": "Feature",
              "properties": {
                "id": "12901372002",
                "osm_type": "node",
                "lat": 47.6798588,
                "lon": 13.0946007,
                "addr:city": "Hallein",
                "addr:country": "AT",
                "addr:postcode": "5400",
                "addr:street": "Dr. Victor-Zatloukalstraße",
                "amenity": "fast_food",
                "contact:instagram": "https://www.instagram.com/okiz_kebap",
                "cuisine": "kebab",
                "delivery": "no",
                "diet:halal": "yes",
                "indoor_seating": "no",
                "name": "Oki'z Kebap",
                "nohousenumber": "yes",
                "opening_hours": "Mo-Th 11:00-20:00, Su 12:00-20:00; Fr-Sa off",
                "outdoor_seating": "yes",
                "takeaway": "yes",
                "toilets": "no",
                "wheelchair": "yes"
              },
              "geometry": {
                "type": "Point",
                "coordinates": [
                  13.0946007,
                  47.6798588
                ]
              }
            }
          ],
          "children": []
        }
      ]
    }
  ]
}